name,lat,lng,adderss,street_id,telephone,detail,uid
北京奥之旅汽车销售服务有限公司,39.727911,116.1105,北京市房山区京周路澎湃汽车城内,a9419be3f0f0382ebbbd63a9,(010)61378888,1,a9419be3f0f0382ebbbd63a9
北京凯威富檑汽车销售服务有限公司,39.722029,116.139967,北京市房山区良乡镇凯旋大街50号,464e27372a40ed5809a8d418,"(010)69378663,(010)69372588,13810287220",1,464e27372a40ed5809a8d418
北京市良乡万达工贸有限公司,39.755569,116.147749,北京市房山区良乡拱辰北大街29号,d561e0ae1b7ee8f7c929156e,(010)89360080,1,d561e0ae1b7ee8f7c929156e
东风日产北京晟通专营店,39.727422,116.108086,北京市房山区阎村镇前沿村南京周路北澎湃汽车城内,6e05ba7ed863107b3617dc99,(010)57565000,1,6e05ba7ed863107b3617dc99
北京润城汽车维修有限公司,39.72599,116.113227,北京市房山区阎村镇炒十路炒米店村一街甲1号,5c93fb85159083444bcc4ae7,"(010)89317692,(010)89318719,(010)89318720",1,5c93fb85159083444bcc4ae7
北京怡合瑞狮汽车销售服务有限公司,39.725835,116.107224,北京市房山区京周路南侧100米,9c9e6e5afa8be44d8705bf8a,"(010)61309882,(010)61308889,18610157155",1,9c9e6e5afa8be44d8705bf8a
汇星行别克,39.725848,116.110198,房山区阎村镇京曼汽车园,da6cf36ce1393d39d92f2804,"(010)61379137,(010)61308868",1,da6cf36ce1393d39d92f2804
雪佛兰北京房山澎湃4S店,39.72803,116.107963,北京市房山区阎村镇澎湃汽车城,9c3fc2d11dc68a88f9221325,(010)61377777,1,9c3fc2d11dc68a88f9221325
北京澎湃畅通汽车销售服务有限公司,39.72838,116.107322,北京市房山区阎村镇前沿村澎湃汽车城内,95fd87c0924b266e06fef5a9,(010)61377797,1,95fd87c0924b266e06fef5a9
房山大众4S店,39.721859,116.139952,北京市房山区凯旋大街50号,c58b79fc8b26cdf38e7727f4,,1,c58b79fc8b26cdf38e7727f4
北方新兴(房山店),39.725563,116.108599,北京市房山区阎村镇炒米店村北长安4S店,9e2d259afdd3aee50e3dda7a,(010)80308900,1,9e2d259afdd3aee50e3dda7a
北京宝鼎隆汽车贸易有限公司,39.71761,116.135905,北京市房山区凯旋大街良乡机动车检测场向南200米路东,7681410b86e73e8200294f78,"(010)83726967,(010)67537728,(010)83727728",1,7681410b86e73e8200294f78
北京高超连振汽车销售服务有限公司,39.757338,116.189004,北京市房山区长阳镇北广城村西北广阳城环路5号,1ebb29a51b4a7feaa0acc44e,"(010)80356666,(010)80353333,(010)69381111",1,1ebb29a51b4a7feaa0acc44e
启辰北京东风南方大兴,39.748902,116.330255,北京市大兴区黄村镇清源路40号,3450a0625bcb6d71badf8f4d,(010)69225669,1,3450a0625bcb6d71badf8f4d
北京吉兴佳汽车销售中心,39.733276,116.341057,北京市大兴区黄村镇兴政街48号,0523a141e778d91eb23c81d6,"(010)69238055,(010)69220110,(010)69241513",1,0523a141e778d91eb23c81d6
北京庆洋惠众汽车服务有限公司,39.798942,116.294877,北京市大兴区黄村镇狼垈芦花路临6号,81709f36047620aceaf85367,(010)61236933,1,81709f36047620aceaf85367
北京福铃丰瑞汽车销售有限公司,39.817387,116.318948,北京市丰台区郭公庄608号北院,6c9fbf6c778ba6aead0457b1,"(010)83704725,(010)83704730",1,6c9fbf6c778ba6aead0457b1
北京车谷汽车销售有限公司,39.765537,116.357458,北京市大兴区金苑路13号,551abad5fa55f2eed72ce279,"(010)61273856,(010)69261645,(010)61274132",1,af1ae56b4e0978124207c1fa
北京安洋伟业奥迪4S,39.786843,116.300999,北京市大兴区黄村镇狼垡村芦花路临52号,4a8df56373b4eac225d2bbd9,"(010)83790100,(010)63723391",1,4a8df56373b4eac225d2bbd9
北京恒星天诚汽车销售有限公司,39.79719,116.321308,北京市丰台区高立庄村南京良路北,b19129e4aed4d3f4940319f8,"(010)83701468,(010)83701810",1,b19129e4aed4d3f4940319f8
北京新兴福庆汽车销售服务有限公司,39.847998,116.21162,北京市丰台区大灰厂东路杜家坎西1号,f5346e803f46a1240869d903,"(010)56765899,(010)56765099,(010)56765894",1,f5346e803f46a1240869d903
长安汽车北京新兴快马丰台4s店,39.848809,116.212518,北京市丰台区杜家坎1号(长安福特西门展厅),54b36845998e29cd03ff2d25,(010)83883656,1,54b36845998e29cd03ff2d25
北京燕宏智翔汽车科技有限公司,39.820384,116.213241,北京市丰台区长辛店大街南关东里100号,6eb39e5b9f85f2a79cf77992,"(010)88430256,(010)83846630",1,6eb39e5b9f85f2a79cf77992
北京鹏龙大道汽车销售服务有限公司,39.853616,116.347042,北京市丰台区南三环西路85号甲-1号,3697f904e43293e512882497,(010)83990606,1,3697f904e43293e512882497
北京长京行广汽丰田4S店(草桥店),39.858815,116.361989,北京市丰台区南三环西路35号,55fa2c0b729cea341de999a3,(010)83518889,1,55fa2c0b729cea341de999a3
利星行(北京)汽车有限公司,39.837785,116.318546,北京市丰台区南四环西路123号旧机动车交易市场G118号,89b73350a5515a7f6cc02c39,"(010)57986666,(010)57986688",1,89b73350a5515a7f6cc02c39
北京上汽首创汽车销售有限责任公司,39.872397,116.315976,北京市丰台区丰台北路12号,05dd7d5ffeeefd7dad080ff8,"(010)63809118,(010)63870579,(010)63827256",1,05dd7d5ffeeefd7dad080ff8
北京中企欣源汽车销售服务有限公司,39.858087,116.359734,北京市丰台区南三环西路43号,3f0ead69860395bba0acc470,(010)63513466,1,88d06051625f4b5133621271
北京宝泽行汽车销售服务有限公司,39.868121,116.316586,北京市丰台区西三环南路59号,4b4a9b614bfc407a5fd4fede,(010)58061666,1,4b4a9b614bfc407a5fd4fede
北京汇京柯曼汽车贸易发展有限公司,39.863515,116.31395,北京市丰台区丰管路46号,a5097bfa39625663f03cba07,"(010)63856307,(010)63859797,(010)63865357",1,a5097bfa39625663f03cba07
广汽三菱商贸丰台店,39.837455,116.328806,南四环西路73号,be1ea5ef6d9372bf14948e05,,1,be1ea5ef6d9372bf14948e05
聚百丰五菱宝骏4s店,39.83735,116.333546,北京市丰台区南四环西路新村巴庄子124号,c879fa01c4cfe237c909f0e4,(010)63712507,1,c879fa01c4cfe237c909f0e4
北京亚之杰伯乐汽车销售服务有限公司,39.856423,116.332886,北京市丰台区南三环西路115号,d6df91c1b20df26af7b91606,"(010)63439999,(010)63359472,(010)63422799",1,d6df91c1b20df26af7b91606
北京万通国发汽车销售服务有限公司,39.83509,116.356856,北京市丰台区南四环中路260号京南汽车城内,f374eef2a3ad05f67ec8764e,"(010)87504791,(010)87504790,(010)87504818",1,f374eef2a3ad05f67ec8764e
北京鑫利宝经贸有限公司,39.837479,116.329392,北京市丰台区南四环西路73号,7a67d2370c1c63f129fc4819,"(010)83600525,(010)83600641",1,7a67d2370c1c63f129fc4819
北京庆洋汽车服务有限公司,39.832262,116.350928,北京市丰台区马家楼215号,d48e7520878d73d08c1a8941,(010)63710050,1,d48e7520878d73d08c1a8941
致宝行奥迪专修折扣店,39.834128,116.358118,北京市丰台区南四环中路260号新发地汽车交易市场内,3c04d3ea702c951f9e9d6822,(010)87500600,1,3c04d3ea702c951f9e9d6822
北京中润发汽车销售有限公司,39.87432,116.323211,北京市丰台区丽泽路99号(丽泽桥东北角),a911f1a4b19fcea8e215f9d2,(010)63263377,1,a911f1a4b19fcea8e215f9d2
北京祥瑞驰通汽车销售有限公司,39.835538,116.335147,北京市丰台区南四环西路66-1号,181b2b400664f13bb9df8fa6,"(010)63335558,(010)63335568,(010)51299898",1,181b2b400664f13bb9df8fa6
东风标致(汇京柯曼专营店),39.86362,116.313766,北京市丰台区丰管路46号丰益桥西800米,b169c6ace6b2eda875e5b694,(010)63859797,1,b169c6ace6b2eda875e5b694
北京世纪群飞商贸有限责任公司,39.854234,116.336063,北京市丰台区纪家庙万柳桥西150米路南,9bdfdf0fbe49f98d49fc8d6f,"(010)63733376,(010)63723683,(010)83610684",1,9bdfdf0fbe49f98d49fc8d6f
北京汇铖大通(丰台店),39.835852,116.357442,北京市丰台区南四环中路260号新发地汽车交易园区新车发车区1号,b03c4b883aa83389deee8bcb,(010)87502580,1,b03c4b883aa83389deee8bcb
北京中汽雷日汽车有限公司,39.835714,116.357555,北京市丰台区南四环中路260号,3077e9d143ea65d9871541ce,"(010)87883108,(010)87880882",1,3077e9d143ea65d9871541ce
北京天航瑞晨汽车销售有限公司,39.83572,116.328612,北京市丰台区南四环西路88号,db1f39d47a87f912f4c59c9b,"(010)63306788,(010)63309799,(010)83793768",1,db1f39d47a87f912f4c59c9b
北京民新昌达汽车销售服务有限公司,39.872198,116.353498,北京市丰台区菜户营东街乙168号,0060db4ea74440123be4a6e2,13261205653,1,0060db4ea74440123be4a6e2
北京宿兴创业汽车有限公司,39.861991,116.318002,北京市丰台区丰管路16号1号楼,4446746be1e7af33b6f42ff5,"(010)63870622,(010)63870813",1,4446746be1e7af33b6f42ff5
DS中汽雷日专营店,39.836223,116.358025,北京市丰台区南四环中路260号,5861fe26e1d1173208b93af3,(010)67507767,1,5861fe26e1d1173208b93af3
郑州日产北京中汽雷日店,39.837827,116.330007,北京市丰台区南四环西路73号花乡汽车园内,7a51f2583453d4ccf4231074,"(010)83608516,(010)83608618",1,7a51f2583453d4ccf4231074
聚百丰五菱4s店,39.837612,116.332708,北京市丰台区巴庄子124号,72e4412e8132c56c16c905ba,,1,72e4412e8132c56c16c905ba
宝泽行VIP餐厅,39.869128,116.316412,北京市丰台区西三环南路59号,067b3a8055fe9e08c17da2f9,(010)58061666,1,067b3a8055fe9e08c17da2f9
北京国服信奥兴汽车有限公司,39.92326,116.190328,北京市石景山区古城大街国际汽车贸易服务园区F区9号,75036835996539af5e0d0222,"(010)68867373,(010)68861092",1,75036835996539af5e0d0222
北京骏宝捷汽车贸易有限公司,39.924219,116.206256,北京市石景山区时代花园南路36号,b9f535b323f2c50333f71dc3,(010)88981911,1,b9f535b323f2c50333f71dc3
北京中汽福瑞汽车销售服务有限公司,39.923319,116.185909,北京市石景山区古城大街国际汽车贸易园区F区7号,e6ccd5f3da16f187e3110395,(010)68868800,1,7085508f13bc2a550482c246
北京冀东丰汽车销售服务有限公司,39.921222,116.186545,北京市石景山区古城西路99号,879a75347a36f85bd618b7dc,(010)68888181,1,879a75347a36f85bd618b7dc
北京真浩泰汽车销售有限公司,39.923223,116.188471,北京市石景山区古城大街北京国际汽车贸易服务园区F区8号,837897b4dfa953e6455726f8,(010)68866688,1,837897b4dfa953e6455726f8
北京苹果园丰田汽车销售服务有限公司,39.931196,116.189073,北京市石景山区阜石路175号,fdd9bff5216860de2b201af2,(010)68829886,1,fdd9bff5216860de2b201af2
北京龙泽百旺销售服务有限公司,39.924119,116.186826,北京市石景山区古城大街北京国际汽车贸易服务园区F区15号,448ab770a215cab9fd0eb076,"(010)57795399,(010)57795366",1,448ab770a215cab9fd0eb076
北京汇铖大通汽车销售服务有限公司,39.923206,116.18957,北京市石景山区古城大街北京国际汽车贸易服务园区F区26号,f68d98137e77dd277069d3f7,"(010)88930808,(010)88930606",1,f68d98137e77dd277069d3f7
广汽本田石景山店,39.922284,116.185431,北京市石景山区古城大街1号,6fddd7fd421318663517dc38,(010)68885666,1,6fddd7fd421318663517dc38
东风本田瑞鼎特约销售服务店,39.895596,116.226681,北京市石景山区衙门口南路(原北重综合检测场西门),d6df91c1b151f36af7b91622,"(010)68888474,(010)68880909",1,d6df91c1b151f36af7b91622
北京合力景通汽车销售服务有限公司,39.924086,116.188728,北京市石景山区古城大街北京国际汽车贸易服务园区F区13号,9f5ff2e43e15845a85420eca,(010)88913155,1,9f5ff2e43e15845a85420eca
北京冀东兴汽车销售有限公司,39.922546,116.184953,北京市石景山区古城大街国际汽车贸易服务园区F区17号,be54cde9ca0c9e2578f796d1,(010)68818885,1,be54cde9ca0c9e2578f796d1
北京君奥达汽车销售服务有限公司,39.923259,116.187703,北京市石景山区古城大街北京国际汽车贸易服务园区F区5号,4642c067496036e2fca77881,(010)88915588,1,4642c067496036e2fca77881
东风悦达起亚北京津丰华北4S店,39.921542,116.189692,北京市石景山区古城西路63号国际汽车贸易服务园区D厅,f0b6bb55f18fbd6ba2d2303d,,1,f0b6bb55f18fbd6ba2d2303d
一汽大众4s店,39.921024,116.186427,北京市石景山区古城西路99号,8cfea72dd3b1cd95b426556f,(010)68888181,1,8cfea72dd3b1cd95b426556f
东风风行北京石景山专营店,39.921891,116.188694,北京市石景山区古城西路63号国际汽车贸易园内,cf55c2edfabe6c2bf32d8381,(010)68876108,1,cf55c2edfabe6c2bf32d8381
北京津丰华北汽车贸易有限公司,39.921562,116.189675,北京市石景山区古城西路63号,5c2dc21d516954786fc02c10,"(010)68817935,(010)68818116",1,5c2dc21d516954786fc02c10
北京利豪广厦汽车销售有限公司,39.877843,116.238375,北京市丰台区张仪村路甲7号,d1822a276aa9ac5f57bfff61,"(010)83826866,(010)83826966",1,d1822a276aa9ac5f57bfff61
北京博瑞英菲尼迪汽车销售服务有限公司,39.903937,116.258579,北京市石景山区莲石东路莲玉桥西北角,3c0ea7c530c837e2faf0cbb7,"(010)68652229,(010)68653331",1,3c0ea7c530c837e2faf0cbb7
北京上汽丰华-上海大众4S店,39.891166,116.271237,北京市青塔西路46号,a4c10d0abf67e2eca4c756b5,(010)68156868,1,a4c10d0abf67e2eca4c756b5
北京博瑞祥浓长马4s店,39.898187,116.238823,北京市石景山区鲁谷大街80号,da84d55a674829b8f82213bf,(010)68601919,1,da84d55a674829b8f82213bf
东风悦达起亚雅胜天成专营店,39.878955,116.264051,北京市丰台区小屯村双林东路(双林苑小区东门对面),37d60a465691cf601e1d1106,"(010)83825858,(010)83695488,(010)56122702",1,37d60a465691cf601e1d1106
北京嘉金福瑞汽车销售服务有限公司,39.877904,116.269761,北京市丰台区青塔西路69号,f0db5e8dc521e168c929150b,"(010)83696868,(010)83696566",1,f0db5e8dc521e168c929150b
北京海文捷汽车销售服务有限公司,39.886713,116.318284,北京市丰台区西三环南路六里桥南里10号(近六里桥易初莲花),54cf0c80b0b5e17c7bf7964d,"(010)63430931,(010)63430934",1,54cf0c80b0b5e17c7bf7964d
东风本田汽车鑫伯龙特约销售服务店,39.876684,116.302313,北京市丰台区西局西街298号,fa7da3e88182f06242d63e06,(010)51112288,1,fa7da3e88182f06242d63e06
北京首汽腾达汽车销售服务有限公司,39.896285,116.313621,北京市丰台区莲花池西里11号,24d05508609355b6128824de,"(010)63939978,(010)63939986,(010)63939996",1,24d05508609355b6128824de
北京京宇汽车服务有限公司,39.899407,116.353093,广安门外天宁寺前街8号,373cf7572a00ea6e4354d7f6,(010)63449823,1,373cf7572a00ea6e4354d7f6
北京京诚跃汽车销售服务有限公司,39.723773,116.417689,北京市大兴区海鑫北路9号京南汽车园内,593850fbbe280f44df1e5220,"(010)89240811,(010)61247001,(010)61240788",1,593850fbbe280f44df1e5220
北京运通兴恩汽车销售服务有限公司,39.743933,116.433256,北京市大兴区西红门镇中鼎路11号,032472c44c0c3f0994ec842b,"(010)69283267,(010)69288887",1,032472c44c0c3f0994ec842b
北京兴奥晟通汽车销售服务有限公司,39.743003,116.43435,北京市大兴区西红门镇中鼎路21-1号,12da3b02d4fd12d36b49f3d8,(010)60287000,1,12da3b02d4fd12d36b49f3d8
北京运通兴捷汽车销售服务有限公司,39.742839,116.43358,北京市大兴区金时大街7号院9号楼,efd30d1f95e39c03028972f2,"(010)80254110,(010)80254111,(010)80254777",1,efd30d1f95e39c03028972f2
运通兴华英菲尼迪旗舰4S店,39.744276,116.433399,北京市大兴区西红门镇中鼎路17号,948dca0c8fb61f0eb5147f60,(010)69287777,1,948dca0c8fb61f0eb5147f60
北京运通兴华汽车销售服务有限公司,39.743784,116.432624,北京市大兴区西红门镇中鼎路17号,4d46af0706dea24edc1e5211,(010)69287777,1,4d46af0706dea24edc1e5211
利星行之星(北京)汽车有限公司,39.743229,116.574019,北京市通州区中关村科技园区通州园金桥科技产业基地景盛中街12号,3d08c70b1c885aca354aaeea,"(010)56399199,(010)56399001,(010)56399268",1,3d08c70b1c885aca354aaeea
北京大通佳信汽车销售服务有限公司,39.76571,116.370309,北京市大兴区经济开发区金苑路31号(京开高速公路康庄路口东1000米),809ae9c2ad9f296095ca0702,"(010)60216671,(010)60216712",1,809ae9c2ad9f296095ca0702
北京奥图卡汽车销售有限公司,39.773228,116.416986,北京市大兴区西红门镇大生庄9号,de0f518fc6580b1b8936eea2,"(010)63257015,(010)63257055",1,de0f518fc6580b1b8936eea2
北京万通洪力汽车销售服务有限公司(上汽大众店),39.804895,116.457413,北京市大兴区旧宫镇旧忠路北东甲3号,606ab0d08419322a0e3ddaf5,"(010)87915001,(010)87915002",1,606ab0d08419322a0e3ddaf5
北京运通博恩汽车销售服务有限公司,39.815792,116.519282,北京市大兴区经济技术开发区同济北路2号,b9e5d0b834d339bc81a12ef4,"(010)67870077,(010)67870588,(010)67873366",1,b9e5d0b834d339bc81a12ef4
运通英菲尼迪(亦庄店),39.817814,116.517425,北京经济技术开发区北环东路19号,0042dd169498a8d02db908d5,(010)67861666,1,0042dd169498a8d02db908d5
特斯拉体验中心(北京亦庄店),39.806312,116.523925,北京市经济技术开发区中和街16号3幢1003-1004单元,0d798f78da245bc35d0d0241,(010)50970931,1,0d798f78da245bc35d0d0241
北京百得利奥迪中心,39.816885,116.51842,北京市大兴区东环北路1号,bb862b9f2567fd84bea2408b,(010)59659889,1,bb862b9f2567fd84bea2408b
北京百得利汽车进出口集团有限公司,39.816632,116.519253,北京市大兴区东环北路甲1号,e85e2527c076eb4a95f08c50,(010)59659911,1,e85e2527c076eb4a95f08c50
北京中汽南方华北汽车服务有限公司,39.815441,116.520715,北京市亦庄经济开发区东环北路丙1号,5f88330e3546c9e84afd3f91,"(010)67886666,(010)67873410",1,8ab0dfc4c3642415d8ecedcc
北京汇崴广汽三菱4S店,39.817561,116.515241,北京市经济技术开发区北环东路甲15号,685140f733130c408c55ece0,(010)67868703,1,685140f733130c408c55ece0
北京中进万国汽车销售服务有限公司,39.817249,116.516286,北京市亦庄开发区北环东路15号,7b9ed5ecc07af453b8bd6374,(010)67879388,1,7b9ed5ecc07af453b8bd6374
北京燕德宝汽车销售有限公司,39.801572,116.519924,北京市大兴区宏达北路26号,6ee0102049eb6af652e5c5d4,(010)67821666,1,6ee0102049eb6af652e5c5d4
北京三江金客汽车销售有限公司,39.81116,116.523463,北京市大兴区隆庆街16号,1cfe6ea1cbbca66b28201a7f,,1,1cfe6ea1cbbca66b28201a7f
北京东南得利卡汽车贸易有限公司,39.817787,116.515533,北京市大兴区经济技术开发区北环东路甲15号,c16534050c6f3204ab175ae7,(010)67868703,1,c16534050c6f3204ab175ae7
北京运通博雅汽车销售服务有限公司,39.816526,116.519728,北京市大兴区东环北路乙1号,0ce65c2d6bf17d592d4733f4,(010)67888855,1,0ce65c2d6bf17d592d4733f4
北京运通博达汽车销售服务有限公司,39.816225,116.520081,北京市亦庄经济技术开发区东环北路乙1号,d0b8923f58ecb8e2b5f42ff4,(010)67861777,1,d0b8923f58ecb8e2b5f42ff4
北京合通汽车服务有限公司,39.813857,116.520276,北京市大兴区亦庄经济技术开发区万源街18号1幢1、2层,12f24201b9cfff0481a12e98,(010)52163166,1,12f24201b9cfff0481a12e98
北京东得广汽三菱4S店,39.817599,116.515266,北京市经济技术开发区北环东路甲15号,5320cfebc600a2380d3dda7b,(010)67868703,1,5320cfebc600a2380d3dda7b
东风日产北京东风南方三合专营店,39.818244,116.514914,北京市大兴区经济技术开发区北环东路乙15号,1bf85b2544aacda4a1a934f4,400-830-8899?,1,1bf85b2544aacda4a1a934f4
北京中汽雷日汽车有限公司,39.836954,116.423341,北京市丰台区南四环中路20号,ff4199e3a2ba4351744ff155,(010)87817771,1,ff4199e3a2ba4351744ff155
大众汽车服务中心(北京)有限公司,39.838651,116.383168,北京市丰台区南四环中路161号,a0be0428613f127217b54b3f,(010)67549988,1,15910ce42e72a42e42afe606
北京广汽长瑞汽车销售有限公司,39.858123,116.364343,北京市丰台区南三环西路26号,e3fda600a451483715c8f699,"(010)57685000,18911991713",1,e3fda600a451483715c8f699
北京金泰开元汽车销售服务有限公司,39.841161,116.386917,北京市丰台区马家堡路大红门三星庄34号,a3877c7227e7f90fe115f9ac,"(010)67581818,(010)67586904,(010)67581188",1,a3877c7227e7f90fe115f9ac
北京北方华驿车辆销售服务有限公司,39.861203,116.379077,北京市丰台区洋桥西1号,1310dffb7af8af459a00501f,(010)67576600,1,1310dffb7af8af459a00501f
北京康顺凯迪汽车销售服务有限公司,39.839538,116.401218,北京市丰台区永外大红门西马场甲14号16幢,e2c7f0295807865ea7c7565f,,1,e2c7f0295807865ea7c7565f
北京运通博奥汽车销售服务有限公司,39.86197,116.490781,北京市朝阳区东四环南路366号,850815e1e054e39b42e1929b,"(010)67478777,(010)67485858",1,850815e1e054e39b42e1929b
北京国服信奥众汽车有限公司,39.839638,116.436936,北京市朝阳区南四环东路榴乡桥东200米路北,7f6ba965399c07e74c3a5932,"(010)87811078,(010)87818585",1,7f6ba965399c07e74c3a5932
北京合力华通雪佛兰店,39.854226,116.48943,北京市朝阳区十八里店乡大羊坊路十八里店村876号,b9fe298bf32a45e621f017a9,"(010)67479892,(010)67479800,(010)67477234",1,b9fe298bf32a45e621f017a9
北京方庄丰田汽车销售服务有限公司,39.866052,116.42894,北京市丰台区蒲黄榆路48号,62feeb76599be9cbe407385a,"(010)67627779,(010)67630606,(010)87610751",1,62feeb76599be9cbe407385a
北京鹏龙星徽汽车销售服务有限公司(分钟寺销售服务中心),39.869284,116.458893,北京市朝阳区十八里店乡南三环东路白墙子村271号,402b5d83f6cff327fbdc8568,"(010)57826600,(010)57826800",1,402b5d83f6cff327fbdc8568
北京燕盛隆汽车维修有限公司,39.85372,116.489528,北京市朝阳区十八里店乡十八里店村876号,be1ea5ef6c0571bf15948e9b,"(010)67477998,(010)67477263,(010)67477037",1,be1ea5ef6c0571bf15948e9b
北京鸿粤田汽车销售服务有限公司,39.839078,116.442489,北京市朝阳区南四环东路87号,72e57fd7de19afaff9dc8598,(010)67687178,1,72e57fd7de19afaff9dc8598
北京广大行汽车服务有限责任公司,39.840938,116.469636,北京市朝阳区南四环东路49号,e84e172ea2bd1a5030621262,(010)67672288,1,e84e172ea2bd1a5030621262
北京嘉瑞雅汽车销售服务有限公司,39.858222,116.486373,北京市朝阳区十八里店大羊坊路6号,fa835ce2bd7430b6e912e49b,"(010)57550966,(010)57550988,(010)57550999",1,fa835ce2bd7430b6e912e49b
上汽通用田宇行兴别克销售服务中心,39.841263,116.472169,北京市朝阳区南四环东路41号十八里店,82200748b64e068cf03cbabc,(010)87696425,1,82200748b64e068cf03cbabc
北京页川汽车销售服务有限公司,39.84811,116.452495,北京市朝阳区成寿寺路133号,f5ae8ba1c1c8d8c7a1d230e6,"(010)67676766,(010)67669090,(010)67618828",1,f5ae8ba1c1c8d8c7a1d230e6
广汽本田汽车国贸特约销售服务店(方庄店),39.865553,116.429009,北京市丰台区永定门外蒲黄榆路48号,5ce2637dd6f0962cae31e5e6,"(010)67676741,(010)67616088,(010)67630303",1,5ce2637dd6f0962cae31e5e6
北京达畅陆风汽车销售有限公司,39.843066,116.480792,北京市朝阳区十八里店南桥博大路1号,6b63eb574b6b0d2322f017d7,"(010)60292157,(010)60292167",1,6b63eb574b6b0d2322f017d7
天润通业汽车贸易有限公司,39.839396,116.440523,北京市朝阳区南四环东路93号,6b70bcc67549e8d4f8f0cb42,"(010)67659129,(010)67656190",1,6b70bcc67549e8d4f8f0cb42
北京中农通兴汽车销售有限公司,39.819592,116.47314,北京市大兴区三台山路亦庄桥北1000米处,5ca36bda9971ff3d48cc4aa4,,1,5ca36bda9971ff3d48cc4aa4
东风标致4S店,39.858236,116.486315,朝阳区大羊坊路6号,e8c2b2ca2c661d325fd4fe1e,(010)57550966,1,e8c2b2ca2c661d325fd4fe1e
北京中农通盛汽车销售有限公司,39.819552,116.47299,北京市大兴区旧宫镇三台山路1号1幢1层,21bf7d730ef5f4744d5547c2,"(010)89042515,(010)89042555",1,21bf7d730ef5f4744d5547c2
北京三四零一奇瑞汽车4S销售服务中心,39.839153,116.431784,南四环榴香桥向东200米路南,7a2f97bbc16a4039740269d2,,1,7a2f97bbc16a4039740269d2
全能保险柜4S店(城外诚家居广场),39.84176,116.455077,南四环成寿寺路308号城外诚家居广场家具馆F3层,4d1f847c79a6c39fcafa5f68,,1,4d1f847c79a6c39fcafa5f68
广汽本田亦庄店,39.818683,116.513832,北京市大兴区东环北路一号二区3号,1aeb2e644a89cb10fa42b28a,"(010)57980099,(010)67887066,(010)67876988",1,1aeb2e644a89cb10fa42b28a
北京之星汽车服务有限公司,39.818582,116.51177,北京市经济技术开发区文化园东路甲6号,edd64ce1a70a98913fe231f4,(010)67862828,1,edd64ce1a70a98913fe231f4
北京泊士联汽车销售中心,39.86668,116.556429,北京市朝阳区豆各庄乡黄厂村甲399号1幢,36355fc9e9cef9370c0e6b61,"(010)87391622,(010)87391722",1,36355fc9e9cef9370c0e6b61
斯巴鲁五方桥旗舰4S店,39.871203,116.552826,北京市朝阳区王四营乡孛罗营村北一街1号,e116be54c0e7247bc81b9597,(010)51352888,1,e116be54c0e7247bc81b9597
北京元之沃汽车服务有限公司,39.874582,116.549681,北京市朝阳区京沈高速王四营桥东南角500米,0b7fe2e1f175f0f65fbe8688,(010)87337771,1,0b7fe2e1f175f0f65fbe8688
宏和通达别克4s店,39.873867,116.549903,北京市朝阳区王四营乡王四营村盛华东路809号,b50353504fc057768bf15d63,(010)57385699,1,b50353504fc057768bf15d63
北京运通博裕丰田汽车销售服务有限公司,39.818399,116.512711,北京市大兴区经济技术开发区文化园东路乙6号,679c255afdf5314c631809d6,"(010)67862966,(010)67865102,(010)67864866",1,679c255afdf5314c631809d6
北京冀财奥汽车贸易有限公司,39.818957,116.513467,北京市经济技术开发区东环北路北1号西侧,6113ef77a7e37f148e7727f4,"(010)67888185,(010)67886186",1,6113ef77a7e37f148e7727f4
北京庞大兴驰汽车销售服务有限公司,39.819214,116.515086,北京市大兴区东环北路北甲1号,e3c2c1aaa0206efd4054d7a4,(010)56175501,1,e3c2c1aaa0206efd4054d7a4
北京鹏远兴业汽车销售服务有限公司,39.867406,116.556307,北京市朝阳区豆各庄乡黄厂村甲399号,e2ebdbf0508df13af72310fd,(010)87306666,1,e2ebdbf0508df13af72310fd
北京五方中冀汽车销售有限公司(五方店),39.871221,116.552728,北京市朝阳区王四营乡孛罗营村北一街1号,2ccf129d13aa2304cac3dbcf,"(010)87393009,(010)51352888",1,2ccf129d13aa2304cac3dbcf
北京中农通汽车销售有限公司,39.87276,116.556249,北京市朝阳区王四营乡五方桥东南角北汽威旺4S店,72e412a7b14eb2bd1b94c66c,(010)87391176,1,fd64fecabbe4b86b9cec2bc3
北京伟利达汽车销售有限责任公司,39.869711,116.553013,北京市朝阳区东五环路五方天雅汽配城内,6283c8c1f1f21a3eae080f24,"(010)51070117,13911193329",1,6283c8c1f1f21a3eae080f24
北京亚之杰合众(进口大众4S店),39.874853,116.545224,王四营乡王四营339号,5e4fb8c6f56ce096f7b91685,,1,5e4fb8c6f56ce096f7b91685
腾势庞大信宏4S店,39.819227,116.515024,北京市亦庄经济开发区东环北路北一号(东环北路与文化园东路交叉口处),0ad0fa226f54ed9dae04576d,,1,0ad0fa226f54ed9dae04576d
启辰庞大腾飞专营店,39.869676,116.553012,北京市朝阳区王四营乡五方桥西南侧(五方天雅汽配城东门),531e4ebb292c4c47a80dd800,(010)87335007,1,66104c4c234efe370c0e6b39
北京达世行亦凯汽车销售服务有限公司,39.820636,116.560295,北京市通州区嘉创一路22号,49d7eedcce613acea2a9347b,(010)80821700,1,49d7eedcce613acea2a9347b
北京中润发迪奥汽车贸易中心,39.874111,116.562938,北京市朝阳区白鹿司261号,01336d0861606c9a40e1927d,(010)87395559,1,01336d0861606c9a40e1927d
北京奥祥瑞汽车销售服务有限公司,39.848111,116.610263,北京市通州区台湖镇302省道口子村临7号,46d5207ad11dc13688f15d36,(010)61537922,1,46d5207ad11dc13688f15d36
北京中冀安信汽车销售服务有限公司第一分公司,39.847254,116.609261,北京市通州区口子村999号,c1eec299422bd0edcb213ded,(010)61538369,1,c1eec299422bd0edcb213ded
北京长安保时捷中心(长安店),39.913744,116.415521,北京市东城区东长安街10号长安俱乐部首层,d6ee8724856c119da8f0cde6,(010)65211911,1,d6ee8724856c119da8f0cde6
特斯拉体验中心(北京金融街店),39.921631,116.368922,北京市西城区金城坊街2号楼金融街购物中心01层102-107室,79506b0af573a548cd04ef34,(010)59057340,1,79506b0af573a548cd04ef34
广汽本田国贸店,39.90528,116.483569,北京市朝阳区百子湾路18号,e7c62a978a33c2d554bfff29,(010)67768099,1,e7c62a978a33c2d554bfff29
北京市勤和汽车销售有限公司,39.905722,116.48344,北京市朝阳区百子湾路18号,35866b1489458138213bf292,"(010)65816687,(010)65832887,(010)65817268",1,35866b1489458138213bf292
北京祥龙博瑞汽车服务集团有限公司博瑞陆鼎汽车商行,39.925207,116.464918,北京市朝阳区关东店8号,4b7497853b33b409a21de95b,(010)65812046,1,4b7497853b33b409a21de95b
北京博瑞祥星汽车销售有限公司,39.904012,116.483653,北京市朝阳区西大望路20号,595d61c565cb009f86420e5f,(010)67776688,1,595d61c565cb009f86420e5f
特斯拉超级充电站(北京华贸中心店),39.915288,116.488641,北京市朝阳区建国路79-81号,03ad7b8b99560abea10464d1,(010)59057370,1,03ad7b8b99560abea10464d1
广汽丰田(北京中升浩洋方庄店),39.876755,116.450753,北京市丰台区左安门外关厢东里22号,9601435568ea5816c81b95b3,(010)87675777,1,9601435568ea5816c81b95b3
特斯拉体验中心(北京侨福芳草地店),39.92548,116.456078,北京市侨福芳草地购物中心一层,1ca0d7407190d1c417c9058a,(010)56692669,1,1ca0d7407190d1c417c9058a
北京市华德宝汽车销售服务有限公司,39.913606,116.522081,北京市朝阳区建国路52号,e86732585850847edc1e520f,(010)85739999,1,e86732585850847edc1e520f
北京波士通达汽车销售服务有限公司(奔驰4s店),39.914625,116.539764,北京市朝阳区兴隆庄甲三号(京通高速高碑店桥东南角),fb64e3957ade9aec17948ee9,(010)85772266,1,fb64e3957ade9aec17948ee9
广汽丰田北京路丰广渠路店,39.898474,116.538575,北京市朝阳区高碑店乡广渠路辅路半壁店村388号,d14596f5d74e40710ab93a33,"(010)56651555,(010)56651616",1,48a856db9766720015c8f6b0
北京名尊奥翔汽车销售有限公司,39.8764,116.5453,北京市朝阳区王四营乡马房寺路331号,78bd50f7293fd04231870a42,(010)57096666,1,78bd50f7293fd04231870a42
北京北汽鹏元汽车销售服务有限公司,39.930836,116.55448,北京市朝阳区朝阳北路57号,9f553f4d1fd31ec6611c674f,(010)65753808,1,9f553f4d1fd31ec6611c674f
北京英华雷克萨斯汽车销售店,39.876574,116.542749,马房寺路332号,c8e8f633b267766caa0dd897,(010)87399999,1,c8e8f633b267766caa0dd897
北京翼翔行汽车销售服务有限公司,39.876872,116.54064,北京市朝阳区王四营乡京哈高速马房寺村334号,cfbd0a660f4a0b16a6da39b7,"(010)87393366,(010)87156092,(010)87156091",1,efbebc58f1c80394d22dd6a7
北京凯瑞翔通汽车销售服务有限公司,39.930917,116.555589,北京市朝阳区朝阳北路57号,16ac1834ec439dbda2d23086,"(010)65770902,(010)65770060,(010)65770912",1,16ac1834ec439dbda2d23086
北京中诚海华汽车销售有限责任公司,39.922021,116.543709,北京市朝阳区朝阳路高井路南(财满街对面),ffd6d403f9e3fb9616b54bab,(010)85778777,1,ffd6d403f9e3fb9616b54bab
北京友联威科汽车销售服务有限公司,39.927758,116.526704,北京市朝阳区青年路乙40号,7c60d8ccfaf4753ea2a93407,(010)85751571,1,7c60d8ccfaf4753ea2a93407
捷豹路虎4s店(朝阳区建国路店),39.912281,116.498942,北京市朝阳区四惠桥东南角建国路70号,b624a9999355ff886849f32e,(010)85796633,1,b624a9999355ff886849f32e
北京达世行同驰汽车销售服务有限公司,39.930942,116.53632,北京市朝阳区平房乡朝阳北路与黄杉木店路交汇处东北角B座,b728fe488648e6b4c51b7528,(010)85518882,1,b728fe488648e6b4c51b7528
广汽本田中汇通合店,39.875144,116.536468,北京市朝阳区王四营乡王四营368号,edd64ce1e01cdfec3fe231e1,(010)87390066,1,edd64ce1e01cdfec3fe231e1
长安福特(北京庞大亚航4s店),39.880072,116.553657,北京市朝阳区王四营乡道口村100号西庞大汽车园内(五方桥西北角),ae3e3f2bc91caeb509a8d4af,(010)87399895,1,ae3e3f2bc91caeb509a8d4af
北京航荣华北商贸有限责任公司,39.903747,116.505493,北京市朝阳区百子湾石门村路2号院,d7a1f435a554fc3108ccddee,(010)85748072,1,d7a1f435a554fc3108ccddee
雪弗兰4s店,39.930731,116.536304,北京市朝阳区朝阳北路68号,e593c68408e38f7d41d63ea0,(010)85518881,1,e593c68408e38f7d41d63ea0
北京金佳景之东汽车销售服务有限公司,39.930888,116.555101,北京市朝阳区朝阳北路57号,1c72af29456c69b30b1cc71a,"(010)65770200,(010)65770606,(010)65772238",1,1c72af29456c69b30b1cc71a
北京庞大豪庭汽车销售服务有限公司,39.87947,116.552455,北京市朝阳区王四营乡五方桥西北角,46d4beac96e8286daaf72935,,1,46d4beac96e8286daaf72935
北京大正通产汽车贸易服务有限责任公司,39.899987,116.549518,北京市朝阳区高碑店乡高碑店村民俗文化街1377号,cc9d76152d8ab93f8bf15d2b,"(010)87744678,(010)87742073",1,cc9d76152d8ab93f8bf15d2b
特斯拉体验中心(北京朝阳大悦城店),39.930647,116.524799,北京市朝阳区朝阳北路101号朝阳大悦城1层1F-35号,381284cc169ae33d5bf6bee9,,1,381284cc169ae33d5bf6bee9
北京嘉程浩缘汽车销售服务有限公司,39.898527,116.53921,北京市朝阳区高碑店乡半壁店村广渠路388号,,"(010)57980000,18610063220",1,4e91b62d6e7faac9bf48428c
北汽新能源(北京庞大五方桥店),39.875379,116.563795,北京市朝阳区王四营乡道口村东(柏阳景园南门东8号),9897dc88285e0b0d2bb97c06,"13331045519,(010)87338108",1,9897dc88285e0b0d2bb97c06
北京捷亚泰中实汽车销售有限公司,39.91418,116.612096,杨闸新村双会桥路口向东400米路南,b9e5d0b875c57ec181a12ee1,"(010)85094988,(010)65458688",1,b9e5d0b875c57ec181a12ee1
北京京申宝汽车销售服务有限公司,39.907933,116.608918,北京市朝阳区双桥东路8号,72d26fe17167baf272210b85,"(010)65486929,(010)67768888",1,72d26fe17167baf272210b85
北京鑫鹏世纪汽车销售服务有限公司,39.930409,116.566163,北京市朝阳区朝阳北路白家楼村259号,6ad35b43aa647f0af8f0cb4e,"(010)65716262,(010)65726262",1,59d12c78d6acf43db34c499f
北京现代庞大伟业4S店,39.875445,116.561791,北京市朝阳区王四营乡五方桥东道口村柏阳景园小区东南,cb798efa4d12a11029201a18,(010)87393337,1,cb798efa4d12a11029201a18
广汽丰田(北京奥吉通丰瑞店),39.931409,116.563189,北京市朝阳区朝阳北路甲45号,62f2e99978f2911181a12e45,(010)65755588,1,62f2e99978f2911181a12e45
北京车豪4S店,39.931496,116.565162,北京市朝阳区朝阳北路45号(朝阳大悦城向东1公里路北),9fa96a909c11634abe48423e,,1,9fa96a909c11634abe48423e
北京鸿嘉亿博汽车销售服务有限公司,39.908075,116.583612,北京市朝阳区双桥路95号,15ed53ced198724d9222e030,,1,15ed53ced198724d9222e030
北京庞大华威昌业汽车销售服务有限公司,39.875349,116.564081,北京市朝阳区王四营乡道口村东(柏阳景园南门东8号),2ca66c05aa3d6f9c0f0e6b9f,(010)67207759,1,2ca66c05aa3d6f9c0f0e6b9f
北京市庞大乐悦汽车销售服务有限公司,39.875336,116.562278,北京市朝阳区王四营乡道口村东柏阳小区南门2号,cc446708216927c8e5073867,,1,cc446708216927c8e5073867
郑州日产(鑫鹏世纪店),39.930137,116.566012,北京市朝阳区朝阳北路白家楼村259号,c287a6d9d7a05a28da2f28ee,(010)65716262,1,c287a6d9d7a05a28da2f28ee
进口双龙汽车北京五方桥直营4s店,39.875895,116.560844,北京市朝阳区五方桥黄厂甲3号,9855aea3ea196c78ede4a5b0,(010)53010222,1,9855aea3ea196c78ede4a5b0
广益发一汽森雅4S店,39.910336,116.61894,北京市朝阳区管庄乡重兴寺村6号,de4f0415466079b72cb90810,"(010)65730650,(010)65730326,(010)60534723",1,de4f0415466079b72cb90810
北京奥吉通红博汽车销售服务有限公司,39.930606,116.563355,北京市朝阳区朝阳北路甲45号,a3c6f8a45175f047b11e36ac,4008171666,1,a3c6f8a45175f047b11e36ac
北京中汽双会-全球鹰4S店,39.910495,116.619651,北京市朝阳区建国路,65f991dc9b60724388fc06fb,(010)65730317,1,65f991dc9b60724388fc06fb
一汽大众捷亚泰4s店,39.914254,116.611943,北京市朝阳区管庄乡东会建国路一汽大众捷亚泰4s店,62850b94df3b03f08c1a8905,,1,62850b94df3b03f08c1a8905
比亚迪北京鹏天奥4S店,39.938382,116.222612,田村路锦绣大地往西500米路南,ab89fc49e29b81a6d8eced5d,(010)88702050,1,4bb049d93fe8fa3a990050cf
北京京宝行汽车销售服务有限公司,39.98031,116.254518,北京市海淀区闵庄路19号,95a8a4ceb619e4a4a3acc4dc,"(010)58728888,(010)58728899,(010)58728895",1,95a8a4ceb619e4a4a3acc4dc
寰宇恒通奥迪4s店,39.980291,116.259944,北京市海淀区闵庄路11号,01d8888f08298d45f7231003,(010)88856788,1,01d8888f08298d45f7231003
北京北方福瑞汽车销售服务有限公司,39.955282,116.233882,北京市海淀区巨山路78号院-2,7cc482f4673965908bdb7347,(010)81046832,1,c90117170f7472dc1d58000d
广汽本田华通店,39.953904,116.267982,北京市海淀区杏石口路15号,89fd4ea3520adc3ae5e965e0,(010)88456855,1,89fd4ea3520adc3ae5e965e0
东风日产北京航天正通专营店,39.932483,116.246837,北京市海淀区阜石路61号,d24e48eb0f6c46caaeee7aab,(010)68230303,1,d24e48eb0f6c46caaeee7aab
北京百得利汽车销售有限公司,39.936371,116.280828,北京市海淀区西四环北路143号,4ad88cc809186b28213bf2e8,"(010)58739911,(010)58739918,(010)58739919",1,4ad88cc809186b28213bf2e8
北京福瑞林肯中心,39.955892,116.233845,北京市海淀区巨山路78号院,a0fa85329625c690744ff166,(010)50980888,1,a0fa85329625c690744ff166
卡森MINI4S店,39.951726,116.266733,北京市海淀区北京市海淀区杏石口路16号(西四环四季青桥向西1.5公里路南),9f67067f70a9109680a00c84,"(010)88480000,(010)88480088",1,9f67067f70a9109680a00c84
北京元丰正通汽车销售服务有限公司,39.932012,116.244474,北京市海淀区阜石路61号,caff73a433679bcc2dfaa7da,"(010)88208825,(010)88206289,(010)88208820",1,caff73a433679bcc2dfaa7da
北京百得利之星汽车销售有限公司,39.937241,116.279104,北京市海淀区西四环北路143号,0adce3e23b6d536280a00ced,"(010)58739999,(010)58739199,(010)58739166",1,0adce3e23b6d536280a00ced
北京华昌汽车销售服务有限公司,39.955052,116.267198,北京市海淀区杏石口路15号,ce2f9830befc40a3465726e3,(010)88449366,1,ce2f9830befc40a3465726e3
捷豹路虎4s店(海淀区巨山路店),39.95972,116.234804,北京市海淀区巨山路1号,5ec7f6f96cd3b1dda11de9d6,(010)82598881,1,5ec7f6f96cd3b1dda11de9d6
北京中汽都灵沙龙汽车销售服务有限责任公司,39.954593,116.267268,北京市海淀区杏石口路15号,e3e2cd9d83edb8e3c6f50db0,(010)88437091,1,e3e2cd9d83edb8e3c6f50db0
北京百得利奥迪4s店,39.93593,116.280254,北京市海淀区五孔桥35号68号楼1层,07e296a66875926231169ba5,(010)56679999,1,07e296a66875926231169ba5
北京金冠兴业丰田汽车销售服务有限公司,39.954894,116.268064,北京市海淀区杏石口路15号,c3ca84c72cf7f7776c476006,(010)81134002,1,c3ca84c72cf7f7776c476006
北京昌海福江汽车销售服务有限公司,39.965912,116.272319,北京市海淀区常润路3号,946abd1fa6e65a9c97031972,(010)88438282,1,e672f2aff6a076f9593ac842
一汽丰田汽车(森华4s店),39.931908,116.243302,北京市海淀区阜石路63号,e3e2cd9d83f2b8e3c6f50db1,,1,e3e2cd9d83f2b8e3c6f50db1
北京中汽南方中关汽车销售有限公司,39.974126,116.282866,北京市海淀区西四环北路10号,38d1ca79eae73c88b23c81fa,(010)88438887,1,38d1ca79eae73c88b23c81fa
北京鹏翰贸易有限公司,39.954698,116.259328,北京市海淀区杏石口路49号,f4460918f166286ab01e36b0,(010)88463607,1,f4460918f166286ab01e36b0
北京卡森汽车服务有限公司,39.951732,116.266798,北京市海淀区杏石口路16号,54395972a5c1e666465726a8,"(010)88480000,(010)88480088",1,54395972a5c1e666465726a8
北京鹏奥贸易有限公司,39.952875,116.238498,北京市海淀区巨山路99-4号(合盛汽车园内),caeefdeafba1536849fc8d2e,"(010)62881668,(010)62856619",1,caeefdeafba1536849fc8d2e
广汽三菱菱顺阜石路店,39.932543,116.266076,北京市海淀区阜石路甲19号院11号楼1-101号,c879debe78ab6da9e856fae9,(010)68173030,1,c879debe78ab6da9e856fae9
北京华日通汽车销售服务有限公司,39.955368,116.268077,北京市海淀区杏石口路15号,701326e80a7d310eae080fed,"(010)88438055,(010)88438066,(010)88439799",1,701326e80a7d310eae080fed
北京百得利国际商贸有限公司,39.935886,116.28029,北京市海淀区西四环定慧北桥向西20米路北,a34ab7d21a81a150ebe58278,(010)56679999,1,a34ab7d21a81a150ebe58278
北京福瑞美林汽车销售服务有限公司,39.955948,116.234033,北京市海淀区巨山路78号院,67ff7a2eb7583a889868b46b,(010)50980806,1,67ff7a2eb7583a889868b46b
北京北方联华汽车销售服务有限公司,39.964987,116.272432,北京市海淀区四季青乡常润路7号院,672b88f6ceb3e0a2d12dd6b9,13391587587,1,672b88f6ceb3e0a2d12dd6b9
一汽丰田汽车(花园桥4s店),39.937558,116.317595,北京市海淀区车公庄西路38号(花园桥东南角),8141f9c97291ad20ab175a80,(010)68713131,1,41572e0050ed09b4b55f1eb0
雷克萨斯(北京花园桥店),39.936872,116.317608,北京市海淀区车公庄西路38号,9dd2d2c24c6ebafdeb56fa25,(010)88588888,1,9dd2d2c24c6ebafdeb56fa25
北京首汽腾鹏汽车销售服务有限公司,39.942894,116.326013,北京市海淀区紫竹院南路丙5号,203350f49bab4ba394ec84e8,(010)68488028,1,203350f49bab4ba394ec84e8
北京首汽汽车修理有限公司-东风雪铁龙,39.941803,116.326135,北京市海淀区紫竹院南路7号,da39ff14f629bd8b6d20b90a,(010)68719657,1,da39ff14f629bd8b6d20b90a
北京海润嘉汽车销售服务有限公司,39.969176,116.319438,北京市海淀区北三环西路62号,f6bad5d93134eaa4f8dc8517,"(010)68428199,(010)68427199",1,f6bad5d93134eaa4f8dc8517
汽车之家研究中心,39.985352,116.31844,北京市海淀区丹棱街3号中国电子大厦b座10层,469e2d4a76a3925ae60738a4,,1,469e2d4a76a3925ae60738a4
北京上地四方汽车销售服务有限公司,40.031388,116.319496,北京市海淀区信息路33号,ce1a9310a0d6a0dd8bfc066b,"(010)82771166,(010)82890956",1,ce1a9310a0d6a0dd8bfc066b
东风本田汽车远大丹迪特约销售服务店,40.015294,116.358378,北京市海淀区学院路甲5号,11093d485334cd2387330414,"(010)84111111,(010)62932724,(010)62933722",1,11093d485334cd2387330414
北京金长风贸易有限公司,39.989465,116.346912,北京市海淀区五道口新村4号,3166f5b4f5811363c3f1cf5f,(010)82333535,1,3166f5b4f5811363c3f1cf5f
北京典盛经贸有限公司,40.015463,116.358535,北京市海淀区学院路甲5号(圣熙8号购物中心斜对面),4dbd3fd0b2e19d254d2fdf84,"(010)82423296,(010)84122611",1,4dbd3fd0b2e19d254d2fdf84
广汽本田万泉河店,39.998038,116.303034,北京市海淀区新建宫门路1号,d1c8c2ba04b85a8e78f79684,(010)62885888,1,d1c8c2ba04b85a8e78f79684
北京万帮五道口店,39.988806,116.346972,北京市海淀区五道口新村4号(北航西门对面),641416c6804a6cad94ec8492,(010)82233889,1,641416c6804a6cad94ec8492
北京寰宇伟业汽车销售服务有限公司,39.989076,116.346839,北京市海淀区五道口新村路4号,e5e99fb07b3e722f3010af96,(010)82337070,1,e5e99fb07b3e722f3010af96
北京中进百旺汽车销售服务有限公司,40.057696,116.261998,北京市海淀区西北旺镇永丰路百旺绿谷汽车园,c879fa0195e15553c909f026,"(010)82402666,(010)82403616",1,c879fa0195e15553c909f026
北京宝诚百旺汽车销售服务有限公司,40.056861,116.259676,北京市海淀区西北旺镇百旺绿谷汽车园F2地块,669775d0412c0f25fc0eb0a5,(010)62826789,1,669775d0412c0f25fc0eb0a5
北京长久博众汽车销售服务有限公司,40.056858,116.255458,北京市海淀区西北旺西路百旺绿谷汽车园内,287dcc18c64e5643eddfca97,(010)62730808,1,287dcc18c64e5643eddfca97
北京上汽安吉汽车销售服务有限公司,40.058131,116.26142,北京市海淀区永丰路199号(百旺绿谷汽车园),cac5fc76131c0ef32db96da8,,1,cac5fc76131c0ef32db96da8
北京凯百隆丰田汽车销售服务有限公司,40.058059,116.259633,北京市海淀区西北旺镇永丰路百旺绿谷汽车园,4ea3f2f102c3ddaaafcb66a8,"(010)82402660,(010)82402662",1,4ea3f2f102c3ddaaafcb66a8
北京百旺长福汽车销售服务有限公司,40.056835,116.256321,北京市海淀区西北旺镇西北旺西路绿谷汽车园内,885a550d9f3b9761ad080fb5,,1,885a550d9f3b9761ad080fb5
北京中进捷旺捷豹路虎4S店,40.057926,116.257006,北京市海淀区西北旺北路百旺绿谷汽车园1层6号,e291430cac4fc22e33621266,"(010)82557933,(010)62866686",1,e291430cac4fc22e33621266
北京中进众旺汽车销售服务有限公司,40.056782,116.257018,北京市海淀区西北旺镇百旺绿谷汽车园,d7e7acf771e02dacca1b9554,(010)82402288,1,d7e7acf771e02dacca1b9554
东风本田汽车国机隆盛特约销售服务店,40.056622,116.262463,北京市海淀区西北旺镇百旺绿谷汽车园,0a46dc0f83e4265e316212a8,(010)82402699,1,0a46dc0f83e4265e316212a8
北京传是汽车销售服务有限公司,40.058078,116.258235,北京市海淀区西北旺百旺绿谷汽车园内,075f5d48cf10ed6eb5f42ffd,"(010)82403223,(010)82402440",1,075f5d48cf10ed6eb5f42ffd
中进锦旺广汽三菱4S店,40.057434,116.262381,北京市海淀区永丰路百旺绿谷汽车园内,606ab0d039c8d1540f3ddaa1,(010)62813330,1,606ab0d039c8d1540f3ddaa1
广汽本田百旺店,40.056743,116.258776,北京市海淀区西北旺镇茉莉园北路百旺绿谷汽车园F1地块1号,48ee3b3cbc630d444c6d46e4,"(010)82403128,(010)82405558,(010)82404824",1,48ee3b3cbc630d444c6d46e4
北京国机隆盛店,40.056702,116.262574,北京市海淀区西北旺镇百旺绿谷汽车园,478a2460315e49712cb96d42,(010)82402599,1,478a2460315e49712cb96d42
北京东方金硕汽车销售服务有限公司,40.056772,116.260415,北京市海淀区西北旺镇百旺绿谷汽车园F2-5号,4ea9deb150305aaa0bccddb0,"(010)82402042,(010)82403055",1,4ea9deb150305aaa0bccddb0
北京百旺福瑞汽车销售服务有限公司,40.056959,116.258577,北京市海淀区西北旺镇百旺绿谷汽车园F1地块1号,e1c230950e42c259d8d89133,"(010)82405558,(010)82402146,(010)82404814,(010)82403128",1,e1c230950e42c259d8d89133
北京华盛昌百旺汽车贸易有限公司,40.056938,116.261169,西北旺镇百旺绿谷汽车园f2地块东风日产,44ab88bbad0b164843afe6a9,(010)82402800,1,44ab88bbad0b164843afe6a9
北京广联汽车服务有限公司,40.049636,116.260542,北京市海淀区西北旺镇付家窑17号平房,3810c879a00bbe889d09f794,(010)62890225,1,3810c879a00bbe889d09f794
上海大众页川瑞德4s店,40.047906,116.336972,北京市海淀区安宁庄东路15号,fd8dbe1d8eaba36012882493,(010)62959090,1,fd8dbe1d8eaba36012882493
北京鑫敏恒瑞鑫汽车销售有限公司,40.055163,116.338199,北京市海淀区京藏高速西三旗桥南300米路西,c1b5c609655600618a36eec3,"(010)60600156,(010)60600166,(010)60600158",1,c1b5c609655600618a36eec3
北京页川斯达汽车销售服务有限公司,40.049938,116.335505,北京市海淀区安宁庄东路15号,d82d6697d7b6c7bfd518b756,(010)62958998,1,d82d6697d7b6c7bfd518b756
广汽传祺鹏晟伟业店,40.046749,116.34499,北京市海淀区八达岭高速清河小营桥北马路西300米,f9bf03502376189216c905d5,"(010)60605167,(010)60605160",1,f9bf03502376189216c905d5
北京海联力通经贸有限公司,40.079919,116.315081,北京市昌平区回龙观欧得宝汽车城内,6118c43c0ffff51bc91b9534,"(010)80771166,(010)62841166,(010)84821166",1,6118c43c0ffff51bc91b9534
北京神龙京津汽车销售有限公司,40.053357,116.339212,北京市海淀区西三旗桥南800米路西,f1f5cac59b4eb09837b06ca8,(010)62913697,1,f1f5cac59b4eb09837b06ca8
北京市博瑞顺和汽车销售服务有限公司,40.048517,116.337539,北京市海淀区安宁庄东路15号,92babd293255fff7373a717e,(010)62958969,1,92babd293255fff7373a717e
北京隆晟通达汽车销售服务有限公司,40.049527,116.342755,北京市海淀区西三旗桥南京藏高速进京方向1200米路西,365fbf018b74f332b34c4928,"(010)82713799,(010)82713991",1,365fbf018b74f332b34c4928
北京奥之杰奥迪服务有限公司回龙观分公司,40.085264,116.315541,北京市昌平区回龙观镇欧德宝汽车城北侧,f26f6b871da868e3fbf0cbed,(010)60786086,1,ddb238a924425b7ab64f54a0
北京万通恒泰汽车销售服务有限公司,40.048886,116.343148,北京市海淀区八达岭高速西三旗桥南1200米路西,656dab09ddee7f86b817e71e,(010)82710707,1,656dab09ddee7f86b817e71e
北京海联力捷汽车销售服务有限公司,40.053868,116.3393,北京市海淀区西三旗环岛南300米路西,28d1e6f25a14ca969d95de88,(010)62841166,1,28d1e6f25a14ca969d95de88
北京中汽华世田汽车贸易有限公司,40.096215,116.310314,北京市昌平区回龙观北农路3号,cc64f5ad45b20120af080f5f,"(010)69797050,(010)81708650",1,cc64f5ad45b20120af080f5f
雪佛兰4s店,40.082646,116.314998,北京市昌平区回龙观西大街,7f0d090e823afcced1f49efc,,1,7f0d090e823afcced1f49efc
北京永驰长铃商贸有限责任公司,40.050094,116.342308,北京市海淀区清河小营东方美都汽配城,c478519adca8144cf32d8394,(010)62957927,1,c478519adca8144cf32d8394
北京市火星科技汽车城商贸中心,40.061064,116.334112,安宁庄路12,199f31b9c64a073a79b55c9f,"(010)62329395,(010)62076939,(010)62319112",1,199f31b9c64a073a79b55c9f
北京博得宝汽车销售服务有限公司,39.95941,116.388975,北京市西城区德胜门外教场口街4号，100120,4a05e33006045c655d17c3c7,(010)85558888,1,4a05e33006045c655d17c3c7
北方新兴马甸店,39.981822,116.386114,北京市海淀区北三环祁家豁子甲2号健德商务楼院内,5c768a7354aa11922bb97c5a,"(010)62360898,(010)62369428,(010)62360910",1,5c768a7354aa11922bb97c5a
丰田汽车维修服务中心(左家庄店),39.962488,116.456236,北京市朝阳区左家庄路2号,ea4a3dc985ed742e4f554790,(010)84541078,1,ea4a3dc985ed742e4f554790
广汽本田航天店,39.984749,116.46571,北京市朝阳区北四环东路9号,e3e2cd9dcd21fe9ec7f50de3,"(010)64754252,(010)64393940,(010)64789758",1,e3e2cd9dcd21fe9ec7f50de3
东风日产(南方亮马专营店),39.961153,116.484639,亮马桥路25号,c04bb557ca788436fb221348,(010)64329583,1,c04bb557ca788436fb221348
北京德奥达一众汽车销售有限公司,39.984965,116.459003,北京市朝阳区太阳宫中路太阳宫十字口甲1号,ec73db9fb05e7f354f3a592b,(010)64315888,1,2ffc0a6ed54127a6adcb6637
北京海之沃汽车服务有限公司,39.98428,116.466301,北京市朝阳区北四环东路11号,678b5d381e01683f35b06c52,"(010)84729991,(010)84727771",1,678b5d381e01683f35b06c52
北京德奥达汽车销售有限公司,39.986111,116.460435,北京市朝阳区北四环东路太阳宫十字口甲1号(望京桥南),3e978c8a2970efbc32f71d67,(010)84563338,1,764672e5f51b19b494ec842c
北京极光星徽汽车销售服务有限公司,39.974545,116.469286,北京市朝阳区京顺路109号院2号楼,a121a744b8075e604107c140,(010)84747888,1,a121a744b8075e604107c140
北京博瑞祥恒汽车销售有限公司,39.962264,116.455288,北京市朝阳区左家庄路2号,2a7a25ec6c26867a6c3e1b22,"(010)84541836,(010)84482405,(010)84482406",1,2a7a25ec6c26867a6c3e1b22
VOLVO,39.98392,116.466556,北京市朝阳区北四环东路11号,6298bfcb47898dd49cf77989,,1,6298bfcb47898dd49cf77989
北京海之沃四元桥店,39.984419,116.466288,北京市朝阳区北四环东路11号,275dfae75870f73937b06cb2,"(010)84729991,(010)84727771",1,275dfae75870f73937b06cb2
北京东风南方亮马汽车销售服务有限公司,39.961158,116.48452,北京市朝阳区亮马桥路25号(燕莎桥东1500米路北),6e107b4b5b01a80d27d2bb13,(010)64329583,1,18fd53374f6a634f57bfff61
宾利北京(三里屯展厅),39.943002,116.456479,北京市朝阳区幸福二村40号楼1层,e820a32db789d1eff82213a3,(010)84389825,1,e820a32db789d1eff82213a3
北京达世行汽车销售有限公司,39.955115,116.432644,北京市东城区东直门北小街2号,28c30e00bb52e2a140afe6a5,(010)84012233,1,4733ac02e2673b73bb17e7ab
北京市艾潇(上海大众4S店),39.945297,116.525905,姚家园路甲1号北京东方基业国际汽车城市场G区6号,2e5056c53dc89d2d41d63e7e,(010)53010166,1,2e5056c53dc89d2d41d63e7e
北京星德宝汽车销售服务有限公司,39.935695,116.547321,北京市朝阳区高碑店乡朝阳北路白家楼8号,457c43799c2b74113ce23111,(010)85823333,1,457c43799c2b74113ce23111
东风日产福源专营店,39.946788,116.531276,北京市朝阳区姚家园路东口甲1号东方基业汽车城J区14号,96b672aa7e973a6cce04ef74,"(010)85576688,(010)85576180",1,96b672aa7e973a6cce04ef74
北京市冀东通汽车有限责任公司,39.94611,116.525691,北京市朝阳区姚家园路甲1-4号东方基业国际汽车城内,8187c40ef0733abbad080f71,(010)85576166,1,8187c40ef0733abbad080f71
北京汽车贸易中心有限公司,39.946867,116.530778,北京市朝阳区姚家园路东口甲1号东方基业国际汽车城13号店,eb3675038030b41801ec0198,(010)85576668,1,eb3675038030b41801ec0198
北京博瑞祥程汽车销售服务有限公司,39.95753,116.532094,北京市朝阳区东坝路李家坟5号祥龙博瑞集团二分公司东侧,bc4934639b3616e248cc4a63,"(010)85529100,(010)65130068,(010)65130069",1,bc4934639b3616e248cc4a63
北京标龙京津汽车销售服务有限责任公司,39.946431,116.526241,北京市朝阳区姚家园路甲一号东方基业国际汽车城5号店,161a0ed2fe0301505dd4fe8e,"(010)85577833,(010)85577837",1,161a0ed2fe0301505dd4fe8e
东风本田泛旅4S店,39.946757,116.533242,姚家园路东口甲1号北京东方基业国际汽车城市场J区17号,669775d0a20dee5bfc0eb08e,(010)85577176,1,669775d0a20dee5bfc0eb08e
北京东仁隆达汽车销售服务有限公司,39.945667,116.527099,北京市朝阳区姚家园路东口甲1号北京东方基业国际汽车城市场I区19号,82bfc7a7cd9507e331870a76,"(010)51193332,(010)51193331,(010)51193339",1,82bfc7a7cd9507e331870a76
北京市腾远兴顺汽车贸易有限公司,39.947042,116.534988,北京市朝阳区姚家园路72号,c879fa010321a74ac809f08e,"(010)85575471,(010)85575470",1,c879fa010321a74ac809f08e
北京陆鼎汽车销售服务有限公司,39.945929,116.524746,北京市朝阳区姚家园路甲1号2号展厅(福特店),33b5d870be4d252e873304ec,(010)65863025,1,33b5d870be4d252e873304ec
北京市东方万泉汽车销售有限公司,39.947045,116.531817,北京市朝阳区姚家园路东口甲1号北京东方基业国际汽车城市场J15号,89ce5c8c898c171e79b55cff,"(010)85577868,(010)85577858,(010)85577778",1,89ce5c8c898c171e79b55cff
北京勤华瑞达汽车销售服务有限公司,39.94605,116.531094,北京市朝阳区姚家园路甲1号(东方基业汽车城内18号店),1cea15a90c0eb7b806fef582,"(010)85576735,(010)85576738",1,1cea15a90c0eb7b806fef582
北京金利泰合汽车销售服务有限公司,39.931561,116.539689,北京市朝阳区朝阳北路1589号,8251a9b49eba3246fe0eb031,(010)85510888,1,8251a9b49eba3246fe0eb031
特斯拉体验中心(北京颐堤港店),39.97599,116.497325,北京市朝阳区酒仙桥路18号颐堤港购物中心1楼,a255e497776a82d03310af6e,"(010)59052500,(010)59057330",1,a255e497776a82d03310af6e
北京市艾潇汽车有限公司,39.945321,116.525943,北京市朝阳区姚家园路甲1号北京东方基业国际汽车城市场G区6号,dcb286824c3b125303ec0154,"(010)53010166,(010)53010199",1,dcb286824c3b125303ec0154
北京博瑞九龙汽车服务有限公司,39.95918,116.531782,北京市朝阳区李家坟5号11幢平房南侧,5508504d7441a1d2c6f025aa,"(010)85758188,(010)85758288",1,5508504d7441a1d2c6f025aa
北京海派奥特经贸有限公司,39.945603,116.527722,北京市朝阳区姚家园路东口甲1号东方基业汽车城I区7号,e96b44207651b45983288a8e,(010)85577951,1,e96b44207651b45983288a8e
北京市艾潇商贸有限公司,39.945657,116.529402,北京市朝阳区姚家园路东口甲1号北京东方基业国际汽车城市场10号,aa06cb638735b571724b8793,"(010)51193188,(010)51193288",1,aa06cb638735b571724b8793
北京东仁天宇广汽丰田4S店,39.944825,116.579364,北京市朝阳区平房乡石各庄村甲1号,764672e581c1e5ad95ec848e,"(010)65469090,(010)65469292,(010)65469999",1,764672e581c1e5ad95ec848e
北京通孚祥汽车销售服务有限公司,39.947802,116.567442,北京市朝阳区石各庄路100号,be019a6c32bc23587f29bd44,(010)65489999,1,be019a6c32bc23587f29bd44
北京和凌雷克萨斯汽车销售服务有限公司,39.947722,116.570579,北京市朝阳区平房乡石各庄路89号,46cf587a711c34b317b54b9e,(010)65479311,1,46cf587a711c34b317b54b9e
北京合众君达汽车销售服务有限公司,39.94757,116.563403,北京市朝阳区平房桥东1000米路北,056c31ece5ae80772b06ce73,(010)65487920,1,056c31ece5ae80772b06ce73
北京仁正利成汽车销售服务有限公司,39.944961,116.578629,北京市朝阳区平房乡石各庄东路甲1号,10368132b76b3d92cafa5f17,"(010)65773707,(010)65770337",1,10368132b76b3d92cafa5f17
江淮合众君达4S店充电站,39.947524,116.563606,北京市朝阳区平房乡平房桥东1500米路北江淮4S店,3324999e0ce6a4e0b75f1e6b,,1,3324999e0ce6a4e0b75f1e6b
北京车豪汽车有限公司,39.931637,116.565084,北京市朝阳区朝阳北路45号,89fd4ea35736213ae5e965d4,"(010)65759828,(010)65762011,(010)65472293",1,89fd4ea35736213ae5e965d4
北京长久博宇汽车销售服务有限公司,39.947593,116.568446,北京市朝阳区石各庄路99号,33382fb5ec509d06c51b7564,(010)88368999,1,33382fb5ec509d06c51b7564
北京博瑞祥云汽车销售服务有限公司,40.01822,116.371149,北京市朝阳区科荟路花虎沟2号院,06c7560f57498128f50e77e3,"(010)82818899,(010)82818928,(010)82818884,(010)82818877",1,06c7560f57498128f50e77e3
北京广通雷克萨斯,40.02121,116.368341,北京市朝阳区德外花虎沟20号,580950834eaa357543afe65d,(010)62918866,1,580950834eaa357543afe65d
广汽丰田澳林奥运村店,40.023038,116.369671,北京市朝阳区域清街花虎沟20-1号,1bfccb934619d95f14c8f6ca,(010)62928866,1,23ea82a35db2db3e0f0e6b9a
北京博瑞祥弘汽车销售服务有限公司,40.018621,116.37085,北京市朝阳区德胜门外双泉堡花虎沟2号,1d9274079fd8ede51b94c618,"(010)82818666,(010)82818668",1,1d9274079fd8ede51b94c618
北京博瑞祥致汽车销售服务有限公司,40.02003,116.374887,北京市朝阳区花虎沟2号博瑞汽车园区内,d31a5dfeedaa714009b93ab5,"(010)82818997,(010)82818999,(010)82818962",1,d31a5dfeedaa714009b93ab5
北京联通昊普汽车销售服务有限公司,40.041728,116.424201,北京市朝阳区北苑路36号,34f68ab039dc500a8e55ec88,(010)84922288,1,34f68ab039dc500a8e55ec88
北京盈之宝北苑(宝马4S店),39.996781,116.422945,北京市朝阳区北苑路安慧里五区10号,6d814e941d6f03c3cb213d97,(010)64988880,1,6d814e941d6f03c3cb213d97
一汽马自达(北京博瑞翔达店),40.020139,116.373766,北京市朝阳区花虎沟2号博瑞汽车园区,b712a0e75aae621732870ac7,(010)62387998,1,b712a0e75aae621732870ac7
北京博瑞翔达汽车销售服务有限公司,40.020434,116.373675,北京市朝阳区花虎沟2号博瑞汽车园,37a92219b2225e644e776ef0,(010)62014119,1,37a92219b2225e644e776ef0
北京通铭伟业汽车销售有限公司,40.025733,116.364757,德胜门外花虎沟99号,6b41b6ebc3c05ac2deee8b14,(010)82412454,1,d4034eb36dbbc6f7c036441b
北京博瑞祥宇汽车销售服务有限公司,40.019952,116.374917,北京市朝阳区花虎沟2号祥龙博瑞汽车园区内,,(010)82817770,1,c48208a9022378ee0ab93aa0
北京盈之宝北苑路汽车维修服务有限公司,39.996729,116.422856,北京市朝阳区北苑路安惠里5区10号,eef2d528092abada3be4a6c9,,1,eef2d528092abada3be4a6c9
北京广通,40.021703,116.367937,北京市朝阳区德外花虎沟20号,8fb50390baa037c0c61b758b,(010)62916666,1,d5464cf8a0568e57fca77888
北京盈之宝汽车销售服务有限公,40.018094,116.490785,北京市朝阳区利泽东二路2号,60b4b2a42fd13afaacee7a9b,(010)64788880,1,60b4b2a42fd13afaacee7a9b
北京国生汽车销售服务有限公司,40.026946,116.460384,北京市朝阳区来广营西路8号,15ed53ce674880549322e088,"(010)84915566,(010)84910273",1,15ed53ce674880549322e088
北京环耀汽车服务有限公司,40.036045,116.449014,北京市朝阳区北苑东路1号,4ea3f2f12749b2d7aecb6629,"(010)84912569,(010)84912589,(010)84912588",1,4ea3f2f12749b2d7aecb6629
北京上汽安吉斯鸿汽车销售有限公司,40.027406,116.456721,北京市朝阳区来广营西路甲18号,07f3c8b5a7fa331e6340a98b,(010)84915066,1,07f3c8b5a7fa331e6340a98b
英菲尼迪福瑞4S店,40.036002,116.455691,北京市朝阳区来广营新北路8号,80865238b08db125a8f0cd44,(010)84909996,1,30d37257560004ddd1f49e6b
北京联通鼎盛别克汽车销售服务有限公司,40.024543,116.460356,北京市朝阳区来广营西路甲8-1号,3193800a7854d165dbecedf9,(010)84919518,1,3193800a7854d165dbecedf9
东风日产北京汇京世纪专营店,40.028214,116.456203,来广营西路18号,442076468dfdb96bdfee8b88,(010)84918616,1,442076468dfdb96bdfee8b88
北京现代胜鸿都汽车销售服务有限公司,40.019437,116.486251,北京市朝阳区利泽东园306号,a12b99f9bff773993904b10a,"(010)64392288,(010)64391885",1,a12b99f9bff773993904b10a
北京亚奥福瑞汽车销售服务有限公司,40.036384,116.449037,北京市朝阳区北苑东路9号,ae51963b95c9189e71455bde,,1,ae51963b95c9189e71455bde
北京森华通达汽车销售服务有限公司,40.01926,116.486819,北京市朝阳区望京新兴产业园区屏翠东路利泽东园309号,e2c734e48f11d35d14a19088,(010)64392266,1,e2c734e48f11d35d14a19088
北京中林达领克中心,40.02727,116.457517,北京市朝阳区来广营西路18号,a1418eb477b9897feae58288,(010)84910421,1,a1418eb477b9897feae58288
北京中汽南方捷豹路虎4S中心,40.025719,116.46271,北京市朝阳区来广营西路8号,f59edab0b8563f4363180917,(010)84913366,1,f59edab0b8563f4363180917
广汽三菱(菱顺北四环4S店),39.996751,116.430214,北京市朝阳区北四环东路101号(惠新东桥向北100米路西),a4a34d490cfb1dceede4a5bf,(010)64973030,1,a4a34d490cfb1dceede4a5bf
北京广顺锦隆汽车销售服务有限责任公司,40.03236,116.45569,北京市朝阳区来广营乡新北路甲6号院内,ac19c5f19aaf6ad5f02d8364,(010)64528199,1,ac19c5f19aaf6ad5f02d8364
北京东仁庆开汽车销售服务有限公司,40.027361,116.455986,北京市朝阳区来广营西路18号,a034d8be80b86e7c0d3dda5f,(010)84918889,1,a034d8be80b86e7c0d3dda5f
北汽新能源(北京庞大来广营店),40.02632,116.458911,北京市朝阳区来广营乡来广营西路316号-102室,ad0b9bc66e57a5d42bb97c3f,(010)53310814,1,ad0b9bc66e57a5d42bb97c3f
北京骏宝威汽车贸易有限公司,40.026222,116.456272,北京市朝阳区来广营西路12号,e4fa571b0ecd8b8504fef5c1,"(010)84917979,(010)84917171",1,e4fa571b0ecd8b8504fef5c1
北京华阳奥通汽车销售有限公司,40.032755,116.446979,北京市朝阳区来广营乡北苑东路顾家庄桥北300米路西,0da9445a6976a590e6e9651c,(010)84930000,1,0da9445a6976a590e6e9651c
北京汇京德通标致4S店,40.027652,116.458242,北京市朝阳区来广营乡来广营西路88号,9aac2829d4a97fecfa0cad67,(010)84909295,1,9aac2829d4a97fecfa0cad67
北京加达大昌汽车服务有限公司,40.028498,116.440793,北京市朝阳区来广营西路北苑村南临4号,3ed7f45939627b6603ec0108,(010)84920202,1,3ed7f45939627b6603ec0108
北京天利翔源汽车销售服务有限公司,40.027408,116.453326,北京市朝阳区来广营西路47号,b1634c42483c72e9fda77809,"(010)84917188,(010)84919158",1,b1634c42483c72e9fda77809
北京联通昊普汽车技术有限公司,40.041641,116.427076,北京市朝阳区北苑路36号,3da20091075e1f152eb90803,,1,3da20091075e1f152eb90803
东风本田汽车广顺锦隆特约销售服务店,40.032476,116.455855,北京市朝阳区来广营乡新北路甲六号,cc0dae995906f4c61fe999f9,(010)64528199,1,cc0dae995906f4c61fe999f9
北汽新能源(鸿都瑞通来广营店),40.026403,116.457819,北京市朝阳区来广营西路甲9号,65e01b30d5b0eb2036b06c8b,(010)65686666,1,65e01b30d5b0eb2036b06c8b
北京菱顺汽车销售有限公司,39.996643,116.430096,北京市朝阳区安外小营北四环东路101号,a1418eb4ced03202ebe5826f,"(010)64918139,(010)64915006,13810332327",1,a1418eb4ced03202ebe5826f
北京汇杰伟业汽车销售服务有限责任公司,40.024637,116.458891,北京市朝阳区来广营西路55号,fa835ce2bd6530b6e912e488,(010)84927288,1,fa835ce2bd6530b6e912e488
北京源流专营店,40.028266,116.441723,北京市朝阳区北五环安外北苑,14c9cc8460952a5343ab9a10,(010)84935630,1,14c9cc8460952a5343ab9a10
北京北苑福瑞汽车销售服务有限公司,40.036019,116.455627,北京市朝阳区来广营新北路8号,6745e6cf7346f8166318099e,"(010)84909996,(010)84905556",1,6745e6cf7346f8166318099e
北京市庞大弘轩汽车销售有限公司,40.026184,116.459024,来广营西路316号-102室,3d895fd3f7622249c036441d,(010)53310813,1,3d895fd3f7622249c036441d
北京北苑丰田保险定损中心,40.028998,116.44348,北京市朝阳区来广营西路95号,b05cd7b4393941222102626f,(010)84921026,1,b05cd7b4393941222102626f
北京华日菱汽车贸易有限公司,40.028809,116.443497,北京市朝阳区来广营西路95号,b03c8477d465c3ced72ce2aa,,1,b03c8477d465c3ced72ce2aa
北京捷亚泰汽贸有限公司,40.036456,116.53336,北京市朝阳区京顺路孙河和平农场内,91fd2d9642d308964afd3f31,"(010)84701700,(010)84701879",1,91fd2d9642d308964afd3f31
利星行平治(北京)汽车有限公司,40.03021,116.527832,北京市朝阳区来广营东路临乙2号,7c32df618304124c2fe67b20,"(010)56982099,(010)56982088",1,631c4157bb1a036130f71d8a
北京晨德宝汽车销售服务有限公司,40.018482,116.570461,北京市朝阳区金乡东苇路金港展览展示有限公司C区10号1001室,f1f7b0c0c007b25fa8175adf,"(010)84795311,(010)84795222",1,f1f7b0c0c007b25fa8175adf
北京金港保时捷中心,40.022999,116.569461,北京市朝阳区金盏乡东苇路北金港大道1号金港汽车公园C区8号甲1号,9411a39019cb6eab09b93ad6,"(010)64309999,(010)64309911",1,9411a39019cb6eab09b93ad6
奥嘉世茂奥迪中心,40.018442,116.573691,北京市朝阳区金盏乡金港汽车公园C区19号(近蟹岛东门金港南路),2b9091d2db8e62fb8c1a89e5,"4008171666,(010)68360000",1,2b9091d2db8e62fb8c1a89e5
北京路通威汽车销售服务有限公司,40.019417,116.571314,北京市朝阳区金港南二路金港汽车公园C区3号,,"(010)84333328,(010)84334465,(010)84333398",1,b4eca90167787301fb2213a5
北京燕豪汽车销售服务有限公司,40.023049,116.571034,北京市朝阳区金盏乡金港大道1号金港汽车公园C区8号甲2号,,(010)84795555,1,c812e377bd9a4be3e956fad6
北京鑫港汇众汽车销售服务有限公司,40.011618,116.572464,北京市朝阳区金盏乡小店村西东苇路2号,7303b27a754ebe53b9df8fb5,(010)53235500,1,7303b27a754ebe53b9df8fb5
东风本田汽车金港特约销售服务店,40.024227,116.568961,北京市朝阳区金盏乡金港汽车公园C区13号,01cef8e071bd7e7ff503b8a7,(010)84349998-800,1,01cef8e071bd7e7ff503b8a7
北京京铃顺汽车销售有限公司,40.007213,116.58259,北京市朝阳区金盏乡金盏大街朝政汽车检测场院内1号,69fcd6df1cdbf92fcb29158a,13718889095,1,69fcd6df1cdbf92fcb29158a
特斯拉体验中心(北京金港店),40.019456,116.570572,北京市朝阳区金盏乡东苇路北金港汽车公园C区17号,b620498c49d6c14bf942b221,(010)59057363,1,b620498c49d6c14bf942b221
北京燕宝汽车销售服务有限公司,40.018895,116.570195,北京市朝阳区金盏乡东苇路北京金港展览展示有限公司C区10号1001,442b5fc3e6f3c7e9cf06a46f,(010)84795222,1,442b5fc3e6f3c7e9cf06a46f
北京中美仕家GMC金港4S店,40.018903,116.571928,北京市朝阳区金盏乡东苇路北北京金港汽车公园A区1-3,,(010)84349800,1,b64b5fd0009dfd84bbbd6384
北京中美仕家汽车贸易有限公司,40.018694,116.572068,北京市朝阳区金盏乡东苇路金港汽车公园A区1-3号,,(010)84349906,1,9e1a4f9b8bbe77a7b320a832
北京全福源汽车投资管理有限公司,40.019112,116.574528,北京朝阳区金盏乡东苇路金港汽车公园C区22号,,,1,729485d2355e65f6cafa5f0f
北京奥嘉世茂汽车销售服务有限公司,40.018652,116.573683,北京市朝阳区金盏乡东苇路奥迪金港汽车公园C区19号,17654b9cdcb035ecc91b959c,(010)68360000,1,17654b9cdcb035ecc91b959c
北京亚奥之星汽车服务有限公司,40.099564,116.422559,北京市昌平区北七家镇立汤路北京北辰亚运村汽车交易市场中心3-1号、3-2号,593850fbd3ed6c5ede1e528f,(010)80143000,1,593850fbd3ed6c5ede1e528f
北京中汽青泉上海大众4S店,40.068954,116.418872,北京市昌平区立汤路177号7号院1号楼,ae4d610d83fba20c0aa8d498,(010)69798989,1,ae4d610d83fba20c0aa8d498
北京汇京福瑞汽车销售服务有限责任公司,40.08917,116.421778,北京市昌平区东三旗立汤路550号,45c803a7df8819c2931fc9e9,(010)58040666,1,45c803a7df8819c2931fc9e9
北京金泰凯盛汽车销售服务有限公司,40.09965,116.423179,北京市昌平区北七家镇东三旗村村北北辰亚运村汽车交易市场C区3-3号,0a15c7ec52506ffced74f865,"(010)61751818,(010)61756868",1,0a15c7ec52506ffced74f865
东风本田汽车博诚特约销售服务店,40.100213,116.42574,北京市昌平区立汤路东三旗新北亚汽车交易市场院内3-9号,15a9381025023fbd14c8f665,"(010)81770266,(010)81770288,(010)81770366",1,15a9381025023fbd14c8f665
北京天通正元汽车销售有限公司,40.099665,116.425182,北京市昌平区北七家镇北辰亚运村汽车交易市场内,c1cdac35d2487f4341d63e22,"(010)80148982,(010)80148992",1,c1cdac35d2487f4341d63e22
北京申银汽车服务有限公司,40.09957,116.424728,北京市昌平区北七家镇东三旗亚运村立汤路东汽车交易市场B区3-6号,7bfa08fce1208e0225d2bb9d,"(010)81756028,(010)81756003",1,7bfa08fce1208e0225d2bb9d
北京北亚中冀汽车销售有限公司,40.101358,116.426364,北京市昌平区北七家镇新亚运村汽车交易市场内东北,69f82e13d2d8d3066e20b93b,(010)61762411,1,69f82e13d2d8d3066e20b93b
北京合宏进销售服务有限公司,40.089657,116.421661,北京市昌平区立汤路东三旗550号(地铁5号线天通苑北站对面),5c2dc21d7b277a796fc02cd9,(010)59349999,1,5c2dc21d7b277a796fc02cd9
北京润丰宏达汽车销售有限公司,40.10069,116.423836,北京市昌平区北七家镇东三旗亚运村汽车交易市场综合楼216,86e988052813f8114d5547bf,"(010)80786256,(010)80786246",1,86e988052813f8114d5547bf
天福凯运贸易有限公司,40.099519,116.423694,北京市昌平区亚运村汽车市场3-4号,91ebcba9e5794bff283a9f19,,1,91ebcba9e5794bff283a9f19
北京市清悦美商贸有限公司,40.099147,116.421057,北京市昌平区东三旗亚运村汽车交易市场众泰4S店,3270f54c96308c1554bfff4b,,1,3270f54c96308c1554bfff4b
北京圣阳汽车销售有限公司,40.09808,116.421335,北京市昌平区北七家镇东三旗亚北名车港三楼,864fed4f896778b94354d7dd,,1,864fed4f896778b94354d7dd
利星行天竺之星奔驰4s店,40.067988,116.582529,北京市顺义区天竺镇府右街3号,34059f97e1d3935470455b8e,(010)64589966,1,34059f97e1d3935470455b8e
北京华日菱进口大众4S店,40.101855,116.421409,北京市新亚运村汽车交易市场B区A02,ff51b093137d6163c42ba195,(010)81777500,1,ff51b093137d6163c42ba195
北京安源汽车销售服务有限公司,40.101581,116.425793,北京市昌平区北辰亚运村汽车交易市场中心,b24ef86ddaba65d88f1a89d6,(010)61763866,1,b24ef86ddaba65d88f1a89d6
北京保时捷4S店(东三旗),40.11,116.420087,北京市昌平区立汤路29号,bef008c7e6359ad303ff2dd4,,1,bef008c7e6359ad303ff2dd4
北京博丰长久丰田汽车销售服务有限公司,40.128389,116.594651,北京市顺义区空港物流基地物流园顺航路18号,7b2bca69d36656c0be4842be,(010)69479998,1,7b2bca69d36656c0be4842be
北京长久博鑫汽车销售服务有限公司,40.129088,116.594796,北京市顺义区顺航路18号宝供北京物流基地旁,bf9be66d968d4652e507386d,"(010)69478885,18500622276,18500622318",1,bf9be66d968d4652e507386d
北京前搏汽车贸易有限公司,40.120346,116.56844,北京市顺义区京密路后沙峪段3号,d7e01b9679ece93fd8ecedce,(010)80485549,1,d7e01b9679ece93fd8ecedce
北京市北方瑞嘉汽车销售有限公司,40.134293,116.59148,北京市顺义区顺于路空港物流基地18号,9acb83cafca6e272c056ac05,"(010)69476318,(010)80477228",1,9acb83cafca6e272c056ac05
北京宏源亚兴汽车贸易有限公司,40.119526,116.568083,北京市顺义区京密路后沙峪段3号,96b672aa07f0f309ce04effe,"(010)80497021,(010)80497332,(010)80497335",1,96b672aa07f0f309ce04effe
北京中普信荣达荣威汽车,40.135586,116.616853,北京市顺义区府前街刘家河段2号,1624f991842daf5ec92915bd,(010)69475578,1,1624f991842daf5ec92915bd
北京华盛昌辰天汽车贸易有限公司,40.124285,116.612476,北京市顺义区顺平路南法信段北侧(中轴路与顺平路交叉口西北100米),f64ef77e35f6ecd53a13fd8a,"(010)69479965,(010)69475689",1,f64ef77e35f6ecd53a13fd8a
