name,lat,lng,adderss,street_id,telephone,detail,uid
日本公使馆旧址,39.9092,116.414879,北京市东城区东交民巷23-1号,e30828481ffff3c1b24c49b1,,1,e30828481ffff3c1b24c49b1
比利时使馆旧址-南门,39.907552,116.41882,北京市东城区崇文门西大街9号,2c415b05c1e9f3e34e776ef9,,1,2c415b05c1e9f3e34e776ef9
北京东交民巷使馆建筑群,39.907574,116.419024,台基厂大街与祈年大街交叉口东100米,65fea5c234e4ba51cd04ef1c,,1,65fea5c234e4ba51cd04ef1c
法国使馆旧址-东交民巷天主堂,39.909321,116.418446,东城区东交民巷甲13号,80cd82a724156ff5fb2213c3,,1,80cd82a724156ff5fb2213c3
比利时使馆旧址,39.908033,116.418889,崇文门西大街9号,d3f18b284e2abd281f389483,,1,d3f18b284e2abd281f389483
美国使馆旧址,39.907164,116.407801,前门东大街23号,4c9a4a440a824583932ca30f,,1,4c9a4a440a824583932ca30f
日本公使馆旧址-南门,39.908966,116.414639,北京市东城区东交民巷23-1号,c70798b87ed584da51e5c5b9,,1,c70798b87ed584da51e5c5b9
奥匈使馆旧址,39.912435,116.420268,东城区台基厂头条3号,c8b5cdeff1cab87d120daa8a,,1,c8b5cdeff1cab87d120daa8a
意大利使馆旧址,39.912704,116.417776,北京市东城区台基厂大街1号,cc0849a077f7df5194031916,,1,cc0849a077f7df5194031916
英国签证申请中心,39.928751,116.438294,北京市东城区东水井胡同5号北京Inn2号楼B座9层A区A901-919室,2481d2aca4a26c023be4a631,,1,2481d2aca4a26c023be4a631
希腊驻华大使馆文化处,39.922194,116.458667,光华路9号世贸天阶大厦17层,0c15aae496a25db11b94c6e3,,1,0c15aae496a25db11b94c6e3
乌拉圭大使馆武官处,39.913219,116.458552,建国门外大街乙8号丽晶苑18-A,1eeed5465eccf58cb4147fab,(010)65684772,1,1eeed5465eccf58cb4147fab
阿尔巴尼亚大使馆,39.918657,116.455174,北京市朝阳区光华路28号,91c13f931de22d8420f017ab,(010)65321120,1,91c13f931de22d8420f017ab
美国驻华大使馆第二签证审理处,39.917871,116.455542,北京市朝阳区秀水东街2号,9c954c3f37e2d2e48b2fb5d4,,1,9c954c3f37e2d2e48b2fb5d4
圭亚那大使馆,39.921587,116.455707,北京市朝阳区建国门外秀水东街1号,6fddd7fd5ffb0b013417dcb7,(010)65321337,1,6fddd7fd5ffb0b013417dcb7
芬兰共和国驻华大使馆,39.919706,116.466857,北京市朝阳区光华路1号北京嘉里中心南楼26层,77e90c1667bac22ecae33c99,(010)85198300,1,77e90c1667bac22ecae33c99
保加利亚共和国大使馆,39.917153,116.455197,北京市朝阳区建国门外秀水北街4号,1df0409e7f44357c744ff18a,(010)65321946,1,1df0409e7f44357c744ff18a
白俄罗斯大使馆,39.922247,116.455358,北京市朝阳区日坛东一街1号,e116be54f8bc7c06c91b954b,(010)65321691,1,e116be54f8bc7c06c91b954b
越南驻华大使馆-武官处,39.918871,116.452285,建国门外光华路32号,adce9d2f769d4fa4c61b7519,(010)65323593,1,adce9d2f769d4fa4c61b7519
越南驻华大使馆-商务处,39.918871,116.452285,建国门外光华路32号,5a72492004d316d416c90549,(010)65327035,1,5a72492004d316d416c90549
斯里兰卡驻华大使馆-武官处,39.917746,116.451162,建国门外建华路3号,198ee41920e3c171d91318e9,(010)65321862,1,198ee41920e3c171d91318e9
越南驻华大使馆-科技处,39.918963,116.452086,建国门外光华路32号,41ade56d339f8ce6c61e5115,(010)65327055,1,41ade56d339f8ce6c61e5115
希腊大使馆-领事处,39.919347,116.446266,光华路19号,41572e00f6e9ebcab55f1eab,(010)65321588,1,41572e00f6e9ebcab55f1eab
奥地利大使馆-文化处,39.915303,116.450661,齐家园外交公寓7-4-33室,62ba5633aa7a1ea595f08cfa,(010)65329269,1,62ba5633aa7a1ea595f08cfa
埃及使馆商务处,39.915256,116.445185,秀水街1号建外公寓1号楼5单元7层,823f42436384aeec9cf779a4,,1,823f42436384aeec9cf779a4
伊拉克驻华大使馆-文化处,39.91791,116.444878,建国门外秀水北街25号,2887cc1667703c44e5073859,(010)65323248,1,2887cc1667703c44e5073859
古巴驻华大使馆-领事处,39.916187,116.452589,建国门外秀水南街1号,022fca3913d012036f3e1b69,(010)65322656,1,022fca3913d012036f3e1b69
新加坡驻华大使馆-商务处,39.917419,116.45094,建国门外秀水北街1号,e006443b2bb36500047ce817,(010)65059393,1,e006443b2bb36500047ce817
朝鲜驻华大使馆-经济处,39.923722,116.451358,建国门外日坛北路11号,aa933271c0477f78c03644a7,(010)65325018,1,aa933271c0477f78c03644a7
泰国驻华大使馆-农业处,39.918856,116.44509,光华路40号,42685c1a2e448f7b57bfff9f,,1,42685c1a2e448f7b57bfff9f
蒙古国驻华大使馆领事处,39.916288,116.452843,建国门外秀水北街2号蒙古大使馆,cf2469c25723c611a11de9f0,,1,cf2469c25723c611a11de9f0
苏里南驻华大使馆,39.915636,116.444494,北京市朝阳区秀水街1号建外外交公寓2-2-22,d6c5d9914f3e999631169bb7,(010)65322939,1,d6c5d9914f3e999631169bb7
加蓬大使馆,39.91881,116.446925,北京市朝阳区光华路36号,606ab0d039dad1540f3ddab7,(010)65322810,1,606ab0d039dad1540f3ddab7
马尔代夫大使馆,39.915673,116.444373,北京市朝阳区秀水街1号建外外交公寓1-5-31,be54cde949ef132679f796b7,(010)85323847,1,be54cde949ef132679f796b7
斯洛伐克大使馆,39.917074,116.448003,建国门外日坛路,7d5f3a0a598977352db908ab,(010)65321531,1,7d5f3a0a598977352db908ab
卢森堡大公国大使馆,39.92571,116.427816,内务部街21号,,(010)65135937,1,8e596236b26d2bacfa42b255
埃塞俄比亚大使馆,39.915739,116.452542,北京市朝阳区建国门外秀水南街3号,e96b4420e96e552783288ab7,(010)65327906,1,e96b4420e96e552783288ab7
巴西大使馆,39.919553,116.443781,北京市朝阳区光华路27号,81d6a5091a599e3d6e20b939,(010)65322881,1,81d6a5091a599e3d6e20b939
波兰大使馆,39.918402,116.44906,北京市朝阳区建国门外日坛路1号,25ec69fcfbebb603c36c14ab,(010)65321235,1,25ec69fcfbebb603c36c14ab
捷克大使馆,39.916864,116.448461,北京市朝阳区建国门外日坛路2号,2cc3c8e8841b47a84c2fdfb7,(010)85329500,1,2cc3c8e8841b47a84c2fdfb7
菲律宾大使馆,39.918054,116.445841,北京市朝阳区建国门外秀水北街23号,7524cb4fd37d944a05026fa0,(010)65321872,1,7524cb4fd37d944a05026fa0
莱索托使馆,39.915569,116.455432,北京市朝阳区建外大街9号齐家园外交公寓6-4,c030a2fab8b5f716734b87a4,,1,c030a2fab8b5f716734b87a4
希腊驻华大使馆北京,39.921918,116.459957,光华路9号天阶大厦17层,cbf92a752aa2e4b07ab55c66,,1,cbf92a752aa2e4b07ab55c66
伊拉克驻华大使馆-商务处,39.91791,116.444878,建国门外秀水北街25号,6f5f16d1f2a6d0277ec876cb,(010)65321394,1,6f5f16d1f2a6d0277ec876cb
奥地利大使馆-武官处,39.915865,116.451244,建国门外秀水南街5号,72e57fd7bf274ed1f9dc85a5,(010)65325590,1,72e57fd7bf274ed1f9dc85a5
朝鲜驻华大使馆-政务处,39.923722,116.451358,建国门外日坛北路11号,c69372bf023680092fe67bea,(010)65321154,1,c69372bf023680092fe67bea
越南驻华大使馆-交际处,39.918871,116.452285,建国门外光华路32号,47efa1bff3cbf27c01294f6f,(010)65321125,1,47efa1bff3cbf27c01294f6f
奥地利共和国驻华大使馆领事部,39.915543,116.450551,北京市朝阳区齐家园外交公寓7-4-33室,d6d01f238c49a10f0c3dda5e,,1,d6d01f238c49a10f0c3dda5e
密克罗尼西亚大使馆,39.915529,116.445222,北京市朝阳区建国门外大街外交公寓1-1-11,d991e116137cea2b1e3894b7,(010)65324708,1,d991e116137cea2b1e3894b7
美国大使馆住宅,39.919331,116.446841,光华路17号,,,1,4371eefe3561630f8415414a
阿塞拜疆大使馆,39.915071,116.451693,北京市朝阳区齐家园外交公寓B-3号别墅,f3313cf479448c9d43ab9a90,,1,f3313cf479448c9d43ab9a90
卢旺达共和国驻华大使馆,39.917938,116.446507,北京市朝阳区秀水北街30号,c8e8f63311429712aa0dd8b7,"(010)65321762,(010)65322193",1,c8e8f63311429712aa0dd8b7
科威特国大使馆,39.919676,116.445032,北京市朝阳区光华路23号,b0d056f298bed400cbc3dbb7,(010)65322216,1,b0d056f298bed400cbc3dbb7
斯里兰卡大使馆,39.91792,116.451159,北京市朝阳区建国门外建华路3号,832e4af6a6784d11eaf85334,(010)65321861,1,832e4af6a6784d11eaf85334
罗马尼亚大使馆,39.921193,116.45378,北京市朝阳区日坛路东二街2号,108b1cea44875bd13486f4b2,(010)65323442,1,108b1cea44875bd13486f4b2
埃及大使馆,39.918167,116.453948,北京市朝阳区日坛东路2号,dcc8f44236399e6d9d9d6890,(010)65321825,1,dcc8f44236399e6d9d9d6890
孟加拉国大使馆,39.918786,116.444393,北京市朝阳区光华路42号,3a0a78bd70c3f684621809ab,(010)65322521,1,3a0a78bd70c3f684621809ab
希腊大使馆,39.919655,116.446441,北京市朝阳区光华路19号,44207646eccd5815dfee8bb7,(010)65321588,1,44207646eccd5815dfee8bb7
蒙古大使馆,39.917084,116.45243,北京市朝阳区建国门外秀水北街2号,55fa2c0b66edfe531de999b7,(010)65321203,1,55fa2c0b66edfe531de999b7
泰国大使馆,39.919403,116.445685,北京市朝阳区光华路21号,9b8e9f5bdde59e567069d30c,,1,9b8e9f5bdde59e567069d30c
保加利亚大使馆-商务处,39.917369,116.455127,建国门外秀水北街4号,7aea43b73cb080867d29bda6,(010)65322969,1,7aea43b73cb080867d29bda6
英国驻华大使馆发展处,39.919706,116.466857,光华路1号嘉里中心南座30层,a1c5e3a64da943b29b68b4e1,(010)85296882,1,a1c5e3a64da943b29b68b4e1
白俄罗斯驻华大使馆-武官处,39.922326,116.455295,日坛东一街1号,a14927849d82e6e386420ea8,(010)65326504,1,a14927849d82e6e386420ea8
芬兰驻华大使馆芬兰贸易科技中心办公处,39.919706,116.466857,光华路1号北京嘉里中心南塔楼14层1418,128b414071c6dd7a87154183,(010)85298625,1,128b414071c6dd7a87154183
摩纳哥公国驻北京名誉领事馆,39.918426,116.467824,北京市朝阳区建国门外大街国贸三期A座37层3701室,c503c7af54a8cf84c61b7548,,1,c503c7af54a8cf84c61b7548
新西兰驻华大使馆,39.921331,116.4555,北京市朝阳区日坛东二街1号,,(010)85327000,1,739b4391e450d56207026fc3
哥伦比亚驻华大使馆-武官处,39.918905,116.451211,光华路34号,430027c2d6a0ee1bb21e36b9,(010)65326461,1,430027c2d6a0ee1bb21e36b9
斯里兰卡驻华大使馆-商务处,39.917746,116.451162,建国门外建华路3号,bfa5024591b9a1bc1ce9990a,(010)65325372,1,bfa5024591b9a1bc1ce9990a
罗马尼亚大使馆-领事处,39.921106,116.453518,日坛路东二街2号,d1595f99047e03affca778a8,,1,d1595f99047e03affca778a8
古巴驻华大使馆-商务处,39.916315,116.451243,建国门外秀水南街1号,3bee19a9609428f7b817e777,(010)65320227,1,3bee19a9609428f7b817e777
斯里兰卡大使馆-住宅,39.917934,116.450559,建国门外建华路3号,2c0bd6c576abc6d442ab9aa1,(010)65321861,1,2c0bd6c576abc6d442ab9aa1
汤加王国大使馆,39.915355,116.4455,北京市朝阳区建国门外外交公寓1-3-22号,4cf8d24e58df279a9df779ab,(010)65327203,1,4cf8d24e58df279a9df779ab
冈比亚共和国驻华大使馆,39.917337,116.44412,北京市朝阳区秀水街1号,,,1,990908c207addde19e82ea71
牙买加大使馆,39.917583,116.443109,北京市朝阳区秀水街1号建国门外外交公寓6-2-72,e116be5461c1c505c81b95b7,(010)65320670,1,e116be5461c1c505c81b95b7
哥斯达黎加大使馆,39.915712,116.444669,北京市朝阳区建国门外外交公寓1号楼5单元41号,a6e1fdca5b9e356a6240a9e5,,1,a6e1fdca5b9e356a6240a9e5
贝宁大使馆,39.918741,116.446204,北京市朝阳区光华路38号,f633606ac0f871300a69d9b7,(010)65322741,1,f633606ac0f871300a69d9b7
布隆迪大使馆,39.919607,116.444331,北京市朝阳区光华路25号,56f2f6969eea10fe0ba8d4b7,(010)65321801,1,56f2f6969eea10fe0ba8d4b7
伊拉克大使馆,39.91812,116.444726,北京市朝阳区建国门外秀水北街25号,680fb703485d63e28ab988a5,(010)65323385,1,680fb703485d63e28ab988a5
哥伦比亚大使馆,39.918787,116.451077,北京市朝阳区光华路34号,05dd7d5f183e5f7fac080fab,(010)65323377,1,05dd7d5f183e5f7fac080fab
古巴大使馆,39.916532,116.451177,北京市朝阳区建国门外秀水南街1号,7fd72311f22522e15dbe86a5,,1,7fd72311f22522e15dbe86a5
爱尔兰大使馆,39.916512,116.453741,北京市朝阳区日坛东路3号,cac5fc764e023bf22db96db9,(010)85316200,1,cac5fc764e023bf22db96db9
新加坡共和国大使馆,39.917198,116.451197,北京市朝阳区建国门外秀水北街1号,f70cc064a5dbb7432cb90883,(010)65321115,1,f70cc064a5dbb7432cb90883
英国大使馆官邸,39.919254,116.45374,光华路15号,200957ec8be1fe24b45f1eee,,1,200957ec8be1fe24b45f1eee
奥地利大使馆,39.91583,116.451053,北京市朝阳区建国门外秀水南街5号,2c0bd6c576b9c6d442ab9ab7,(010)65322061,1,2c0bd6c576b9c6d442ab9ab7
越南大使馆,39.918726,116.452445,北京市朝阳区建国门外光华路32号,2ad32cc3bbc0d1f19c95deb7,(010)65321155,1,2ad32cc3bbc0d1f19c95deb7
英国大使馆,39.919627,116.45528,北京市朝阳区光华路11号,81f6a7c350c953e2a0acc470,(010)51924000,1,81f6a7c350c953e2a0acc470
朝鲜大使馆,39.924248,116.451355,北京市朝阳区建国门外日坛北路11号,a5097bfac7d4b41df13cbab7,(010)65321154,1,a5097bfac7d4b41df13cbab7
塞舌尔大使馆-签证处,39.925308,116.458201,东大桥路8号尚都国际中心,8264a96a95fbd62808b93a9b,,1,8264a96a95fbd62808b93a9b
白俄罗斯大使馆-签证处,39.922326,116.455295,北京市朝阳区日坛东一街1号,b632102e772464b58b2fb558,(010)65326426,1,b632102e772464b58b2fb558
芬兰大使馆-签证处,39.919706,116.466857,北京市朝阳区光华路1号北京嘉里中心南塔楼26层,f8877e9cd2055847f503b88a,(010)85198300,1,f8877e9cd2055847f503b88a
英国驻华大使馆领事处及签证处,39.919993,116.467103,光华路1号北京嘉里中心北楼21层,,(010)85296600,1,fd70148a8926c69284330413
布隆迪大使馆-签证处,39.919347,116.444315,光华路25,909dd4ff8a8d11fa6c3e1bce,,1,909dd4ff8a8d11fa6c3e1bce
蒙古驻华大使馆-商务处,39.917298,116.452557,建国门外秀水北街2号,fd140cc18afa94fe220220a7,(010)65321952,1,fd140cc18afa94fe220220a7
古巴大使馆-签证处,39.916315,116.451243,建国门外秀水南街1号,11fe10a17d9e10ce8d7727e1,,1,11fe10a17d9e10ce8d7727e1
苏里南大使馆签证处,39.915349,116.445372,秀水街1号外交公寓2-2-22,92526b9ee8c90d723517dce2,,1,92526b9ee8c90d723517dce2
贝宁共和国大使馆-东门,39.918302,116.447431,北京市朝阳区日坛路7号附近,37e78f8de6a8e25c0ab93a75,,1,37e78f8de6a8e25c0ab93a75
卢森堡大公国大使馆-南门,39.925359,116.427978,内务部街21号附近,,,1,3d43b2905edb6edb5a10936f
伊拉克大使馆-签证处,39.91791,116.444878,建国门外秀水北街25号,7b814ef5917ef5462efaa725,,1,7b814ef5917ef5462efaa725
哥伦比亚大使馆-签证处,39.918906,116.451211,光华路34号,be4fc9439d827d999122e02e,,1,be4fc9439d827d999122e02e
斯里兰卡民主社会主义共和国驻华大使馆签证处,39.917654,116.451571,建国门外建华路3号,,,1,985336a0a8f3fb50e812e4a6
孟加拉国大使馆-签证处,39.918878,116.444365,光华路42号,fbf2d06c9f705f8533621271,,1,fbf2d06c9f705f8533621271
新加坡大使馆-签证处,39.917074,116.450608,建国门外秀水北街1号,75bb7aae7c405b153be4a6ca,,1,75bb7aae7c405b153be4a6ca
蒙古驻华大使馆-签证处,39.916256,116.452739,建国门外秀水北街2号蒙古大使馆,519bfb7dea17e3ac2102201e,,1,519bfb7dea17e3ac2102201e
波兰大使馆-南1门,39.917682,116.448599,北京市朝阳区秀水北街26号附近,1dd2b54d5729cbd48bdb7337,,1,1dd2b54d5729cbd48bdb7337
朝鲜驻华大使馆领事部,39.925882,116.451831,建国门外日坛北路11号,fdbb9e2ea2bdef8e354aae7b,,1,fdbb9e2ea2bdef8e354aae7b
克罗地亚大使馆签证处,39.915198,116.455059,北京市朝阳区建国门外大街9号院5号楼,cf6acf5d3a3de5c86c3e1bc6,,1,cf6acf5d3a3de5c86c3e1bc6
芬兰大使馆住宅,39.918788,116.453809,光华路30号,af92f8372f1a3ec522f0171a,,1,af92f8372f1a3ec522f0171a
圭亚那大使馆-签证处,39.921632,116.455727,建国门外秀水东街1号,35001c558f90f1a7adcb663b,,1,35001c558f90f1a7adcb663b
保加利亚大使馆-签证处,39.917369,116.455127,建国门外秀水北街4号,4dafddce15f7ba3ce5e965d2,,1,4dafddce15f7ba3ce5e965d2
朝鲜驻华大使馆-商务处,39.923722,116.451358,建国门外日坛北路11号,979118f54b24518ab320a868,(010)65324308,1,979118f54b24518ab320a868
越南大使馆-领事处,39.918031,116.452094,建国门外光华路32号,34f19779741a3adc28b97c81,,1,34f19779741a3adc28b97c81
贝宁大使馆-签证处,39.918877,116.446246,光华路38号,0eb82a8b445d66d23a04b18a,,1,0eb82a8b445d66d23a04b18a
卢旺达共和国驻华大使馆-南门,39.917731,116.446632,秀水北街30号,316e02724744050582288a67,,1,316e02724744050582288a67
阿塞拜疆大使馆-签证处,39.915303,116.450661,齐家园外交公寓B-3号别墅,e90c05aa762ab9e0734b87dc,,1,e90c05aa762ab9e0734b87dc
捷克共和国大使馆-西1门,39.916454,116.447761,建国门外日坛路2号,3e9c45f5f46d58d930870ad0,,1,3e9c45f5f46d58d930870ad0
新加坡共和国驻华大使馆-北2门,39.917461,116.451591,建国门外秀水北街1号,9665adb1fe90f4e0c91b95a5,,1,9665adb1fe90f4e0c91b95a5
新加坡共和国驻华大使馆-北1门,39.917455,116.450915,北京市朝阳区建国门外秀水北街1号,f47f585e06a047ac1b94c606,,1,f47f585e06a047ac1b94c606
蒙古国驻华大使馆-北门,39.917428,116.452455,建国门外秀水北街2号,e76a42ec9e51fb0cda131859,,1,e76a42ec9e51fb0cda131859
蒙古国驻华大使馆领事处-南门,39.916258,116.45248,秀水南街101号附近,8cd4c886eb26d525c5effba6,,1,8cd4c886eb26d525c5effba6
英国大使馆-签证处,39.919609,116.455045,北京市朝阳区光华路11号,e5ce88907337560b6d20b928,,1,e5ce88907337560b6d20b928
泰国大使馆-南门,39.919358,116.445658,北京市朝阳区光华路21号附近,beff8eb7db89c8f654bfff4f,,1,beff8eb7db89c8f654bfff4f
希腊大使馆-签证处,39.919347,116.446266,光华路19号,1a6da61ff2cf02d9f50e77cc,,1,1a6da61ff2cf02d9f50e77cc
菲律宾大使馆-签证处,39.917787,116.445624,建国门外秀水北街23号,6c1ce0b18964e64f1894c6d5,,1,6c1ce0b18964e64f1894c6d5
英国大使馆签证处,39.928084,116.438153,东水井胡同5,29b5b12c7f2a166bd92f28d6,,1,29b5b12c7f2a166bd92f28d6
保加利亚共和国大使馆-北门,39.917454,116.45527,建国门外秀水北街4号,bcd06d71e5c9776db05c6a7c,,1,bcd06d71e5c9776db05c6a7c
阿拉伯埃及共和国大使馆-西2门,39.918481,116.453314,日坛东路4号附近,56b4ca6fff0b4a52fea778d5,,1,56b4ca6fff0b4a52fea778d5
加蓬大使馆-签证处,39.918915,116.446989,光华路36号,f412edeb6cd20bcbf503b8fd,,1,f412edeb6cd20bcbf503b8fd
斯洛伐克共和国大使馆大使住宅,39.916989,116.450065,建国门外,,,1,c0cd33e66e1bf9bbca291532
阿尔巴尼亚大使馆-签证处,39.91891,116.455035,光华路28号,e71ca54f885894804e5547c9,,1,e71ca54f885894804e5547c9
哥伦比亚驻华大使馆-领事部,39.918905,116.451211,光华路34号,fae15c4b4f31f92d59bbbcda,(010)65320740,1,fae15c4b4f31f92d59bbbcda
斯洛伐克大使馆-签证处,39.916952,116.447916,建国门外日坛路,e146ede38c911190dbd89190,(010)65321531,1,e146ede38c911190dbd89190
阿拉伯埃及共和国大使馆-西1门,39.918113,116.453341,日坛东路2号,0dd62c6dfaa9429af5c59caa,,1,0dd62c6dfaa9429af5c59caa
波兰大使馆-南2门,39.917686,116.448179,日坛路与秀水北街交叉口东50米,c08878abe1c993ae616858e2,,1,c08878abe1c993ae616858e2
牙买加大使馆-签证处,39.915349,116.445372,秀水街1号建国门外外交公寓6-2-72,a638aab43ad5b1313b221c7f,,1,a638aab43ad5b1313b221c7f
埃及大使馆-签证处,39.918279,116.453319,北京市朝阳区日坛东路2号,84fde2158bc921915cbe86e1,,1,84fde2158bc921915cbe86e1
奥地利大使馆-签证处,39.915303,116.450661,北京市朝阳区齐家园外交公寓7-4-33室,4214f644aa0e00859e95deb1,,1,4214f644aa0e00859e95deb1
罗马尼亚大使馆-签证处,39.921106,116.453518,日坛路东二街2号,6604e06013bda2d9ebe5820c,,1,6604e06013bda2d9ebe5820c
波兰大使馆-签证处,39.918292,116.447874,北京市朝阳区建国门外日坛路1号,ff9bd546077d0d1f26d2bbc7,(010)65321235,1,ff9bd546077d0d1f26d2bbc7
泰国大使馆签证处,39.919532,116.445718,北京市朝阳区光华路21号,7947de65c57283936849f303,,1,7947de65c57283936849f303
越南大使馆-签证处,39.917769,116.452437,建国门外光华路32号,80eb75e9503f98325810935b,,1,80eb75e9503f98325810935b
捷克大使馆-签证处,39.916633,116.447889,北京市朝阳区建国门外日坛路2号,ee4c2cbfe6b7a1176240a9b6,(010)85329500,1,ee4c2cbfe6b7a1176240a9b6
菲律宾驻华大使馆-贸易投资中心,39.919592,116.497909,东四环中路58号远洋国际中心C座17层1703,345c22d94f9c7561b1077d48,,1,345c22d94f9c7561b1077d48
沙特阿拉伯王国驻华大使馆沙特阿拉伯学校,39.877271,116.522156,北京市朝阳区化工路86号,,,1,293d37406323d2d558109397
美国大使馆,39.960129,116.474277,北京市朝阳区安家楼路55号,a5097bfad8fab51df13cba95,(010)85313000,1,a5097bfad8fab51df13cba95
以色列大使馆,39.958195,116.474442,北京市朝阳区天泽路17号,f05cc08fbd7bd85f1df74d06,(010)85320500,1,f05cc08fbd7bd85f1df74d06
大韩民国驻华大使馆,39.958855,116.471402,北京市朝阳区东方东路20号,baff8ff978c53bb65abbbc35,(010)85310700,1,baff8ff978c53bb65abbbc35
意大利大使馆,39.941935,116.467582,北京市朝阳区三里屯东二街2号,b83fb0766adfb78b2cb908e1,(010)85327600,1,b83fb0766adfb78b2cb908e1
土耳其驻华大使馆-国防处,39.949681,116.463594,三里屯东五街9号,118fa62c9fa75dc745e274cc,(010)65321258,1,118fa62c9fa75dc745e274cc
埃及驻华大使馆旅游处,39.962412,116.469867,霄云路36号国航大厦A1001,cf9efa2e2a8e5c07acee7a26,(010)84475180,1,cf9efa2e2a8e5c07acee7a26
以色列驻华大使馆-行政和领事处,39.958028,116.474642,天泽路17号,ed8426bbb0f9033725d2bb82,(010)85320661,1,ed8426bbb0f9033725d2bb82
巴基斯坦驻华大使馆-新闻文化处,39.947226,116.467074,东直门外大街1号,89fbe2338548ccdb2a02e11d,(010)65326660,1,89fbe2338548ccdb2a02e11d
比利时大使馆法兰德斯商务处,39.948874,116.462312,三里屯路6号,d52831f9aa33e1d92ffaa7b7,(010)65324964,1,d52831f9aa33e1d92ffaa7b7
比利时大使馆瓦隆区商务处,39.948874,116.462312,三里屯路6号,8fde79ccf10d52c194ca07a0,(010)65326695,1,8fde79ccf10d52c194ca07a0
阿尔及利亚驻华大使馆-武官处,39.948617,116.461671,三里屯路7号,0d52f7dc8fd03fc921f01724,(010)65321220,1,0d52f7dc8fd03fc921f01724
土耳其大使馆文化新闻处,39.955448,116.471527,亮马桥路50号北京燕莎中心写字楼S118,8aba621523dbec634251c077,(010)64638032,1,8aba621523dbec634251c077
巴巴多斯大使馆,39.957187,116.472266,北京市朝阳区东方东路22号院亮马外交公寓A区09-02号,f386583040e4317b3a04b153,,1,f386583040e4317b3a04b153
德国大使馆行政处,39.951213,116.457824,北京市朝阳区亮马河南路14号塔园外交办公大楼二单元二层德国大使馆,b23cc095e9e51d4d9ee321d2,,1,b23cc095e9e51d4d9ee321d2
几内亚比绍大使馆,39.950681,116.456462,北京市朝阳区塔园外交公寓4-2-112,04bdf4a3fe812031344aaeb7,(010)65327393,1,04bdf4a3fe812031344aaeb7
法国大使馆,39.958299,116.475686,北京市朝阳区天泽路60号,ba6e2f9a8c386684eb56fa1c,(010)85312000,1,ba6e2f9a8c386684eb56fa1c
科摩罗大使馆,39.949243,116.456328,北京市朝阳区新东路1号塔园外交公寓3号楼1单元032,2e82bb6e393599eeb42655e0,(010)85322041,1,2e82bb6e393599eeb42655e0
萨摩亚大使馆,39.951259,116.457532,北京市朝阳区亮马河南路14号塔园外交办公楼2单元072号,07f3c8b50dc7691d6340a9b7,(010)65321673,1,07f3c8b50dc7691d6340a9b7
沙特阿拉伯大使馆文化处,39.9541,116.457084,新源里16号院2琨莎中心2203,0fc06d091f4c221a3686f440,(010)84682863,1,0fc06d091f4c221a3686f440
巴布亚新几内亚大使馆,39.951259,116.457638,北京市朝阳区亮马河南路14号塔园外交人员办公楼2单元11层2号,93df0dc314054155892fb5b7,(010)65324709,1,93df0dc314054155892fb5b7
沙特阿拉伯大使馆-签证处,39.950765,116.458877,三里屯北小街1号,ffa94e40b7c9e2aaa7c75677,(010)85316555,1,ffa94e40b7c9e2aaa7c75677
巴林王国驻华大使馆,39.95666,116.472151,北京市朝阳区东方东路22号亮马桥外交公寓10-06,4edf9fbf53c5f2eacd06a4a4,(010)65326483,1,4edf9fbf53c5f2eacd06a4a4
特力尼达和多巴哥大使馆,39.96168,116.471412,东方东路与亮马桥北小街交叉口东北100米,,,1,61cb91b9bcdbe67561685834
斐济大使馆,39.951272,116.457895,北京市朝阳区亮马河南路14号塔园外交办公楼1-15-2,beabdbf4b0c6a0e67169d3b7,(010)65327305,1,beabdbf4b0c6a0e67169d3b7
中非大使馆,39.949141,116.455644,北京市朝阳区新东路1号塔园外交公寓1-1-132,28e700f101d3237f085cb3b7,(010)65327353,1,28e700f101d3237f085cb3b7
卡塔尔国大使馆,39.957076,116.472233,北京市朝阳区东方东路22号亮马桥外交公寓A区7号楼,c7eca12b3a683749e015f9b7,(010)65322233,1,c7eca12b3a683749e015f9b7
索马里大使馆,39.950401,116.462648,三里屯路2号,69150466823152642cb96d7e,(010)65321651,1,69150466823152642cb96d7e
马达加斯加大使馆,39.948201,116.464733,北京市朝阳区三里屯东街3号,f44609188db94c6bb11e36f0,(010)65321353,1,f44609188db94c6bb11e36f0
沙特大使馆商务处,39.965751,116.476889,北京市朝阳区京润水上花园别墅G-11别墅,,,1,e82ffbbca4c6085c32870a47
吉尔吉斯斯坦大使馆,39.967376,116.47619,北京市朝阳区霄云路18号京润水上花园别墅H区10-11号,0ed20a1555d786e956bfffa0,(010)64681292,1,0ed20a1555d786e956bfffa0
拉脱维亚大使馆,39.957621,116.472188,北京市朝阳区东方东路22号院亮马桥外交公寓A区02-02别墅,b8e216cb4829d95a43afe6e7,(010)85323009,1,b8e216cb4829d95a43afe6e7
乌拉圭大使馆,39.957014,116.471356,朝阳区东方东路22号亮马桥外交公寓A区3-1,1c5324898afe213701897286,,1,1c5324898afe213701897286
阿联酋驻华大使馆,39.957572,116.471987,北京市朝阳区东方东路22号亮马桥外交公寓LA10-04,50fb64ff4521ad20e9f853df,(010)65327650,1,50fb64ff4521ad20e9f853df
塞尔维亚大使馆,39.951089,116.467317,北京市朝阳区三里屯东六街1号,6ee010205a34799153e5c5a0,(010)65323516,1,6ee010205a34799153e5c5a0
南非大使馆,39.947557,116.464481,北京市朝阳区东直门外大街5号,49d95938ba38413dc61e51db,(010)85320000,1,49d95938ba38413dc61e51db
肯尼亚大使馆,39.94968,116.458554,北京市朝阳区三里屯西六街4号,f757e6ee46fa9969270bd0b7,"(010)65322473,(010)65323381",1,f757e6ee46fa9969270bd0b7
突尼斯大使馆,39.948703,116.464767,北京市朝阳区三里屯东街1号,3810c879ea62488a9c09f77d,(010)65322435,1,3810c879ea62488a9c09f77d
柬埔寨大使馆,39.947568,116.462576,北京市朝阳区东直门外大街9号,a5ef680f1534cea9b8df8fa4,(010)65322790,1,a5ef680f1534cea9b8df8fa4
哈萨克斯坦驻华大使馆签证处,39.951589,116.464336,三里屯东六街9号,ba821a0e70027d4081288a5d,(010)65324189,1,ba821a0e70027d4081288a5d
尼泊尔大使馆,39.95043,116.457845,北京市朝阳区三里屯西六街1号,e93761f6b3dead72233bf2b7,(010)65321795,1,e93761f6b3dead72233bf2b7
匈牙利大使馆,39.946345,116.463411,北京市朝阳区三里屯东直门外大街10号,72aa2513f5e11439067ce8b7,(010)65321431,1,72aa2513f5e11439067ce8b7
比利时大使馆,39.948877,116.46247,北京市朝阳区三里屯路6号,231169139f158683724b87a5,(010)65321736,1,231169139f158683724b87a5
葡萄牙大使馆,39.949219,116.463938,北京市朝阳区三里屯东五街8号,669775d041320f25fc0eb0b7,(010)65323497,1,669775d041320f25fc0eb0b7
印度大使馆,39.959188,116.474002,北京市亮马桥北街五号,e93761f63d412f0d223bf229,(010)85312500,1,e93761f63d412f0d223bf229
大使馆区,39.947784,116.464695,北京市朝阳区三里屯东街5号,44c43aa1450448b6e5073867,(010)65321708,1,44c43aa1450448b6e5073867
哈萨克斯坦大使馆,39.951045,116.464722,北京市朝阳区三里屯东六街9号,f696f3c25b14d0951a11d5b7,(010)65326182,1,f696f3c25b14d0951a11d5b7
加拿大大使馆,39.947705,116.455931,北京市朝阳区东直门外大街19号,606289fdb0acd433a304648f,(010)51394000,1,606289fdb0acd433a304648f
智利驻华大使馆-农业处,39.945115,116.467443,三里屯东四街1号,2b9266492451d04502294ff9,(010)65322925,1,2b9266492451d04502294ff9
意大利驻华大使馆-武官处,39.942135,116.467723,三里屯东二街2号,d04dfcdddcc9b58af13cbaab,(010)65322146,1,d04dfcdddcc9b58af13cbaab
马里大使馆,39.944644,116.464495,北京市朝阳区三里屯东四街8号,b703e96be41651848e1a89a5,(010)65321704,1,b703e96be41651848e1a89a5
也门大使馆,39.944096,116.465542,北京市朝阳区三里屯东三街5号,d146b388f9d647a0750269b0,,1,d146b388f9d647a0750269b0
马耳他驻华大使馆,39.939776,116.4653,工体北路1号三里屯外交公寓,febd5ddf97c4a3ef1ce999c6,(010)65323114,1,febd5ddf97c4a3ef1ce999c6
厄瓜多尔大使馆,39.939998,116.464921,北京市朝阳区工人体育场北路1号院三里屯外交公寓办公楼2单元62号,04bdf4a3fe9e2031344aaea4,,1,04bdf4a3fe9e2031344aaea4
黑山大使馆,39.939665,116.465041,北京市朝阳区三里屯外交公寓3号楼1单元12号,764672e5e2e104d395ec84a5,(010)65327610,1,764672e5e2e104d395ec84a5
意大利驻华大使馆-领事处,39.942135,116.467723,三里屯东二街2号,0432e0f49fe0caeefd0eb090,(010)85327627,1,0432e0f49fe0caeefd0eb090
瓦努阿图大使馆,39.940309,116.464536,北京市朝阳区三里屯外交公寓办公楼2单元11号,0a46dc0f2de8c420316212ab,(010)65320337,1,0a46dc0f2de8c420316212ab
卢森堡大公国大使馆,39.938635,116.465903,北京市朝阳区工人体育场北路甲2号北京盈科中心B座17层1701室,d1dc6ea7db9fa0a8b75f1e48,(010)85880900,1,d1dc6ea7db9fa0a8b75f1e48
津巴布韦大使馆,39.944083,116.464501,北京市朝阳区三里屯东三街7号,108b1cea98811fd23486f4b7,(010)65323795,1,108b1cea98811fd23486f4b7
毛里求斯驻华大使馆-领事处,39.947655,116.452684,东直门外大街23号东外外交办公楼202,3ce1cedfe1fab8187c29bd1f,(010)65325698,1,3ce1cedfe1fab8187c29bd1f
东帝汶民主共和国驻华大使馆,39.947575,116.452715,北京市朝阳区东直门外大街23号东外外交办公大楼203-B ,3a0fbba84bb0f83f9fe321a7,,1,3a0fbba84bb0f83f9fe321a7
俄罗斯大使馆-签证处,39.950876,116.434816,东直门北中街4号,a54ee12081feda1990114cef,,1,a54ee12081feda1990114cef
澳大利亚大使馆,39.947714,116.454271,北京市朝阳区三里屯东直门外大街21号,e6ee2fd2b03d5a352b11d10a,(010)51404111,1,e6ee2fd2b03d5a352b11d10a
瑞典大使馆贸易处,39.943769,116.439501,东直门南大街5号中青旅大厦6层609室,67b2eb5429fe7e30b05c6a13,(010)58156006,1,67b2eb5429fe7e30b05c6a13
新西兰签证中心,39.946064,116.441676,北京市东城区东直门外大街48号东方银座写字楼8层J、K、L室,,,1,2c8ae0484c9b99239e82ea8c
阿联酋驻华大使馆-武官处,39.957572,116.471987,东方东路22号亮马桥外交公寓LA05,2e00c5ddfe3c6e62d6851fab,(010)65325881,1,2e00c5ddfe3c6e62d6851fab
比利时驻华大使馆武官处,39.957366,116.470938,东方东路19号亮马桥外交公寓B区3号楼2单元021号,9250a5f1c8b2bc718f1a89ea,(010)80796401,1,9250a5f1c8b2bc718f1a89ea
秘鲁大使馆商务处,39.962366,116.465191,北京市朝阳区霞光里18号佳程广场A座10层B2,c3c875746286a9f5871541af,,1,c3c875746286a9f5871541af
塞拉利昂驻华大使馆-商务处,39.9472,116.463363,东直门外大街7号,b0ea082c948d42f40ab93a65,,1,b0ea082c948d42f40ab93a65
哈萨克斯坦驻华大使馆-武官处,39.950909,116.464577,三里屯东六街9号,f0d3fae3f7c20a9dafee7a8b,(010)65320776,1,f0d3fae3f7c20a9dafee7a8b
爱尔兰使馆商务处,39.955448,116.471527,亮马桥路50号北京燕莎写字楼,850815e14f7602e542e192b7,(010)84488080,1,850815e14f7602e542e192b7
马来西亚大使馆旅游处,39.962412,116.469867,霄云路36号国航大厦5层506室,91473fc66e0d98c4c9e33c99,(010)84475056,1,91473fc66e0d98c4c9e33c99
西班牙驻华大使馆-新闻处,39.947938,116.461821,三里屯路9号,eb1b4cebbf0ea56403294f08,(010)65326507,1,eb1b4cebbf0ea56403294f08
乌兹别克斯坦驻华大使馆领事处,39.948391,116.458184,三里屯北小街11号,14ae6451729bdf229122e025,(010)65323621,1,14ae6451729bdf229122e025
安哥拉大使馆-商务处,39.950686,116.456653,塔园外交公寓3-1-32,7bfa08fc5df72a0124d2bbb7,(010)65326562,1,7bfa08fc5df72a0124d2bbb7
立陶宛大使馆-商务处,39.967578,116.475268,霄云路18号京润水上花园A-18,0523a141169ca863b33c81b7,(010)65906207,1,0523a141169ca863b33c81b7
吉尔吉斯斯坦驻华大使馆商务处,39.967706,116.475336,霄云路18号京润水上花园别墅H区10/11号,6d1d1f45879ce4d39122e0de,(010)64681295,1,6d1d1f45879ce4d39122e0de
摩尔多瓦大使馆,39.951213,116.457824,北京市朝阳区亮马河南路塔园外交办公楼2-9-1,fd13a3f20adaf284b0077dab,(010)65325494,1,fd13a3f20adaf284b0077dab
巴基斯坦驻华大使馆商务处,39.94774,116.467123,北京市朝阳区东直门外大街1号,e7017cd818fcb88333169b92,(010)65322581,1,e7017cd818fcb88333169b92
科威特大使馆武官处,39.967853,116.475873,朝阳区霄云路18号京润水上花园别墅H-6,3c0ea7c530db37e2faf0cba0,(010)64649930,1,3c0ea7c530db37e2faf0cba0
厄立特里亚国大使馆,39.951213,116.457824,北京市朝阳区亮马河南路14号塔园外交办公楼2-10-1,c8b5cdeff1f7b87d120daab7,(010)65326534,1,c8b5cdeff1f7b87d120daab7
佛得角大使馆,39.951117,116.456466,北京市朝阳区塔园外交公寓5-1-71,650c4d3aa66707207bf796cd,,1,650c4d3aa66707207bf796cd
格林纳达大使馆,39.951076,116.456357,北京市朝阳区新东路1号塔园外交公寓5-2-52,00f1c7fbc195d361c156acb7,(010)65321208,1,00f1c7fbc195d361c156acb7
日本大使馆-领事处,39.958953,116.478933,北京市朝阳区亮马桥东街1号,10f4130d5f52d3ad932ca3e7,,1,10f4130d5f52d3ad932ca3e7
多哥大使馆,39.947513,116.461012,北京市朝阳区东直门外大街11号,bd5046e818f5f03fd62ce2b7,(010)65322202,1,bd5046e818f5f03fd62ce2b7
格鲁吉亚大使馆,39.967443,116.476067,北京市朝阳区霄云路18号京润水上花园别墅G-39号,2527be1e01c74fcd4bfc8db7,(010)64681203,1,2527be1e01c74fcd4bfc8db7
阿曼大使馆,39.951933,116.465775,北京市朝阳区亮马河南路6号,dbf4d6eee20caa546ea3ccb7,(010)65323692,1,dbf4d6eee20caa546ea3ccb7
黎巴嫩大使馆,39.95173,116.463729,北京市朝阳区三里屯东六街10号,bba87388e8c544debda822a7,(010)65321560,1,bba87388e8c544debda822a7
阿富汗大使馆,39.94639,116.46451,北京市朝阳区东直门外大街8号,e96b4420e970552783288aa5,(010)65321582,1,e96b4420e970552783288aa5
立陶宛大使馆,39.967547,116.475236,霄云路18号京润水上花园别墅A-18,8398317abc9892cf17948e22,(010)84518520,1,8398317abc9892cf17948e22
坦桑尼亚大使馆,39.951418,116.464546,北京市朝阳区三里屯亮马河南路8号,f3c2373c9c7fc12cd32dd6b7,(010)65321491,1,f3c2373c9c7fc12cd32dd6b7
塔吉克斯坦大使馆,39.957111,116.472227,北京市朝阳区东方东路22号院亮马桥外交公寓LA01-04,a12baa409fa33b28e956fab7,(010)65322598,1,a12baa409fa33b28e956fab7
加纳大使馆,39.948196,116.462621,北京市朝阳区三里屯路8号,fa835ce21e55d1c8e912e4b7,(010)65321319,1,fa835ce21e55d1c8e912e4b7
喀麦隆大使馆,39.949871,116.464362,北京市朝阳区三里屯东五街7号,691305233877a976735e80a5,(010)65321828,1,691305233877a976735e80a5
巴基斯坦驻华大使馆,39.94734,116.466867,东直门外大街1号,015c3b01fa1fbbcc601c67f6,(010)65322504,1,015c3b01fa1fbbcc601c67f6
沙特阿拉伯大使馆,39.950759,116.458497,北京市朝阳区三里屯北小街1号,61f634f60c98f8066a49f3b7,(010)85316555,1,61f634f60c98f8066a49f3b7
西班牙大使馆,39.94795,116.461867,北京市朝阳区三里屯路9号,c879fa01601f4634c809f0b7,"(010)65323629,(010)65323728",1,c879fa01601f4634c809f0b7
马来西亚大使馆,39.958061,116.473621,北京市朝阳区三里屯亮马桥北街2号,a3f21eee7ef9c3392fb17edc,(010)65322531,1,a3f21eee7ef9c3392fb17edc
乌克兰大使馆,39.951209,116.4636,北京市朝阳区三里屯东六街11号,0ed20a1509964a9657bfff65,,1,0ed20a1509964a9657bfff65
荷兰大使馆,39.952221,116.466691,北京市朝阳区亮马河南路4号,0dc3d82dadbf521274e5b6b7,(010)85320200,1,0dc3d82dadbf521274e5b6b7
丹麦大使馆,39.949734,116.467488,北京市朝阳区三里屯东五街1号,f60a15ed29e69a92ba17e7b7,(010)85329900,1,f60a15ed29e69a92ba17e7b7
印度尼西亚大使馆,39.946451,116.466455,北京市朝阳区东直门外大街4号,dfc496b6f18202d18836eeb7,(010)65325486,1,dfc496b6f18202d18836eeb7
北京西班牙签证申请中心,39.954096,116.457106,新东路琨莎中心10层,fb1d1055184bf2ba734b87eb,(010)65323629,1,fb1d1055184bf2ba734b87eb
厄瓜多尔驻华大使馆领事处,39.939665,116.465041,工人体育场北路1号,7cfe84f2fb97c617d4851fd9,(010)65329209,1,7cfe84f2fb97c617d4851fd9
智利驻华大使馆-武官处,39.945115,116.467443,三里屯东四街1号,02ac436a69ca19e73b221c11,(010)65323345,1,02ac436a69ca19e73b221c11
法国大使馆文化科技处,39.939665,116.465041,三里屯办公楼1单元41号～42号,31f9101b7f33f4c727e0a0b7,,1,31f9101b7f33f4c727e0a0b7
马其顿大使馆,39.939898,116.465003,北京市朝阳区三里屯外交公寓1-32,d305db1f8ffc1840922ca3b7,(010)65327846,1,d305db1f8ffc1840922ca3b7
毛里塔尼亚大使馆,39.944086,116.46365,北京市朝阳区三里屯东三街9号,8fde79ccf10252c194ca07ab,(010)65321346,1,8fde79ccf10252c194ca07ab
巴勒斯坦大使馆,39.943309,116.467431,北京市朝阳区三里屯东三街2号,0a15c7ec30108d82ec74f8a0,(010)65323327,1,0a15c7ec30108d82ec74f8a0
赞比亚大使馆,39.945322,116.465585,北京市朝阳区三里屯东四街5号,1020060f056888d81994c6a0,(010)65321554,1,1020060f056888d81994c6a0
叙利亚大使馆,39.944607,116.465602,北京市朝阳区三里屯东四街6号,1cea15a9b438efbb06fef5b7,(010)65321372,1,1cea15a9b438efbb06fef5b7
秘鲁大使馆,39.939901,116.464897,北京市朝阳区工人体育场北路1号院三里屯外交人员办公楼1-91,d0096343e37e4cd65fbe86ce,,1,d0096343e37e4cd65fbe86ce
苏丹大使馆,39.942035,116.467429,北京市朝阳区三里屯东二街1号,8d96925c31b1f03bc1f1cfdd,(010)65322205,1,8d96925c31b1f03bc1f1cfdd
西班牙使馆领事处,39.94519,116.464407,北京市朝阳区三里屯东四街9号,9fbfeef2691f163bece4a5a4,(010)65320782,1,9fbfeef2691f163bece4a5a4
委内瑞拉大使馆,39.944622,116.462626,北京市朝阳区三里屯路14号,49a02a7a0ad84e3e2a201aab,(010)65321295,1,49a02a7a0ad84e3e2a201aab
北京丹麦签证申请中心,39.941686,116.455838,工体北路13号院1号楼北京海隆石油大厦2楼,934a76bc58f0c5b515764383,"(010)84059490,(010)84059629",1,934a76bc58f0c5b515764383
奥地利签证中心,39.934125,116.469003,东三环北路甲26号,eebc8b16b55f4f9e0b1cc769,(010)84004065,1,eebc8b16b55f4f9e0b1cc769
澳大利亚驻华大使馆-商务处,39.947282,116.454762,东直门外大街21号,03e4924d86534e0b9d82eac0,(010)85328686,1,03e4924d86534e0b9d82eac0
毛里求斯驻华大使馆,39.947515,116.452904,北京市朝阳区东直门外大街23号,75d0881ae0cf27333b04b1b7,(010)65325695,1,75d0881ae0cf27333b04b1b7
马拉维共和国驻华大使馆,39.947565,116.452648,北京市朝阳区东直门外大街23号东外外交办公大楼503室,9fbfeef26900163bece4a5b7,(010)65325889,1,9fbfeef26900163bece4a5b7
吉布提大使馆,39.949164,116.454278,北京市朝阳区新东路1号塔园外交公寓1-1-122,093cce6b4a22a1ab9ee321aa,(010)65327857,1,093cce6b4a22a1ab9ee321aa
塞内加尔共和国大使馆,39.94739,116.452966,北京市朝阳区东直门外大街23,71407d12a6d51b96c4f50d59,(010)65325035,1,71407d12a6d51b96c4f50d59
澳大利亚签证申请中心,39.953646,116.451536,东直门外斜街小关56号文创园1号楼1层102室,,,1,e5a3e1e98fb170a3f8221329
以色列驻华大使馆-新闻处,39.958028,116.474642,天泽路17号,69f39024f2cafd72213bf2cb,(010)85320667,1,69f39024f2cafd72213bf2cb
巴巴多斯驻华大使馆签证处,39.957572,116.471987,东方东路22号亮马外交公寓A区09,0c7f64cc1272baba441a3292,,1,0c7f64cc1272baba441a3292
巴基斯坦驻华大使馆-政务处,39.947226,116.467074,东直门外大街1号,969dc674640bbf49d4851f69,(010)65322695,1,969dc674640bbf49d4851f69
西班牙大使馆武官处,39.950686,116.456653,新东路1号塔园外交人员公寓5-1-111,c7fb04bd308b1a6bfb0cadb7,(010)65325547,1,c7fb04bd308b1a6bfb0cadb7
委内瑞拉驻华大使馆武官处,39.950888,116.457323,东三环北路丙二号天元港中心A座,999faad210ddca71d3ff2372,(010)85323261,1,999faad210ddca71d3ff2372
匈牙利驻华大使馆商务处,39.94669,116.463372,三里屯东直门外大街10号,f0c233d73acd3d62b5147f7c,(010)65323845,1,f0c233d73acd3d62b5147f7c
马来西亚大使馆商务处,39.962381,116.465167,霞光里18号佳程广场B座E单元11层,874f0aac3cd0123dd72ce26c,(010)84515109,1,874f0aac3cd0123dd72ce26c
匈牙利大使馆-领事处,39.946644,116.463871,北京市朝阳区三里屯东直门外大街10号,e38ff6b30aa5bcb70f0e6bec,,1,e38ff6b30aa5bcb70f0e6bec
多米尼克国大使馆,39.949495,116.455341,北京市朝阳区新东路1号塔园外交公寓5号楼1单元22号,,(010)65322791,1,8ffea0042032efec81a12e8c
尼日尼亚联邦共和国大使馆,39.96471,116.473072,北京市朝阳区霄云路26号鹏润大厦B座2303室,571dd74564738f56724b8797,,1,571dd74564738f56724b8797
西班牙大使馆旅游处,39.951213,116.457824,亮马河南路14号塔园外交办公楼2单元12层2号,9ee7cc7893ea5e0e17c905ab,(010)65329306,1,9ee7cc7893ea5e0e17c905ab
以色列驻华大使馆-商务处,39.958028,116.474642,天泽路17号,5de6eec98dfdfc4eb21e36eb,(010)85320664,1,5de6eec98dfdfc4eb21e36eb
土耳其驻华大使馆-经济处,39.949571,116.463629,三里屯东五街9号,f4b5fd2472d660a80b69d968,(010)65322726,1,f4b5fd2472d660a80b69d968
阿尔及利亚民主共和国大使馆官邸,39.946437,116.467367,东直门外大街2号,9e890de84d746a2632f71d98,,1,9e890de84d746a2632f71d98
沙特阿拉伯驻华大使馆武官处,39.949491,116.455327,新东路1号塔园外交公寓1单元8楼61号,bf0f894bf7aed832f942b2b7,,1,bf0f894bf7aed832f942b2b7
波斯尼亚和黑塞哥维那大使馆,39.9512,116.458046,北京市朝阳区亮马河南路14号塔园外交人员办公楼1单元5层1号,3d2b8baaa4080c6138e4a69a,(010)65326587,1,3d2b8baaa4080c6138e4a69a
巴哈马大使馆,39.951213,116.457824,北京市朝阳区亮马河南路14号塔园外交人员办公楼2-4,161a0ed2992ee02e5dd4fea0,(010)65322922,1,161a0ed2992ee02e5dd4fea0
玻利维亚大使馆,39.951213,116.457824,北京市朝阳区马河南路14号塔园外交办公楼2-3-2号,fd13a3f20adaf284b0077dab,(010)65323074,1,2fd2beabbcdcf12c7bdbd2b7
乍得共和国大使馆,39.949764,116.456422,北京市朝阳区新东路1号塔园外交公寓4号楼2单元4层,881a28e7c7d9e039f842b2b7,(010)85323822,1,881a28e7c7d9e039f842b2b7
利比里亚共和国大使馆,39.965263,116.475498,北京市朝阳区京润水上花园西门G36号,cdef4edf2197c93029d7abb7,(010)64403007,1,cdef4edf2197c93029d7abb7
利比亚大使馆,39.951148,116.46663,北京市朝阳区三里屯东六街3号,d16d9b52d162cbd349fd3fd6,(010)65323666,1,d16d9b52d162cbd349fd3fd6
阿根廷驻华大使馆-领事处,39.949211,116.456558,朝阳区新东路1号塔园外交公寓3-1-12,500e14fe245ba728018972b8,,1,500e14fe245ba728018972b8
南苏丹大使馆,39.967366,116.475661,北京市朝阳区霄云路18号京润花园,f0d766d90595fac5d3ff23fd,(010)64649921,1,f0d766d90595fac5d3ff23fd
欧洲联盟驻华代表处,39.947139,116.459636,东直门外大街15号,08fc93dfc0ebffef9a68b4b7,(010)84548000,1,08fc93dfc0ebffef9a68b4b7
纳米比亚大使馆,39.951213,116.457824,北京市朝阳区亮马河南路14号塔园外交人员办公楼2-9-2,46e86fdd2816b412d13ce3f0,(010)65324810,1,46e86fdd2816b412d13ce3f0
安哥拉大使馆,39.951213,116.457824,北京市朝阳区亮马河南路14号,0adce3e2e8a9221f81a00cab,(010)65326839,1,0adce3e2e8a9221f81a00cab
莫桑比克大使馆,39.951213,116.457824,北京市朝阳区亮马河南路14号塔园外交人员办公楼1单元7层2号,cc788fde62f7ccf489fc06a0,(010)65323664,1,cc788fde62f7ccf489fc06a0
大韩民国大使馆领事部,39.958638,116.472779,北京市朝阳区东方东路20号,7f5741102263f9e2841541ea,(010)85320404,1,7f5741102263f9e2841541ea
几内亚大使馆,39.949648,116.457707,三里屯西六街2号,3019b081f9f39ed56fc02c09,(010)65323649,1,3019b081f9f39ed56fc02c09
约旦大使馆,39.951183,116.46573,北京市朝阳区三里屯东六街5号,15ed53cec478612a9322e0b7,(010)65323906,1,15ed53cec478612a9322e0b7
冰岛共和国大使馆,39.961433,116.474337,亮马桥北小街1号,ce96adf0ab90ab65d72ce298,(010)85316900,1,ce96adf0ab90ab65d72ce298
科特迪瓦大使馆,39.948528,116.457601,北京市朝阳区三里屯北小街9号,373cf7578cc608104254d7b7,(010)65321223,1,373cf7578cc608104254d7b7
巴拿马驻华大使馆,39.96146,116.471424,北京市朝阳区亮马桥外交公寓c区别墅lc-04-04,,,1,323b719d8dc2e53cc51b75e1
塞浦路斯共和国大使馆,39.9512,116.457535,北京市朝阳区亮马河南路14号塔园外交人员办公楼2-13-2号,881a28e7c7c6e039f842b2a4,(010)65325057,1,881a28e7c7c6e039f842b2a4
土库曼斯坦大使馆,39.967642,116.475701,北京市朝阳区霄云路18号,c8e8f63370e53810ab0dd812,(010)65326975,1,c8e8f63370e53810ab0dd812
尼日利亚大使馆,39.94922,116.467541,北京市朝阳区三里屯东5街2号,34f68ab05aecb1748e55ecb7,,1,34f68ab05aecb1748e55ecb7
塞拉利昂大使馆,39.947509,116.463463,北京市朝阳区东直门外大街7号,dffd4642777252cc3d9a5ea6,(010)65321222,1,dffd4642777252cc3d9a5ea6
阿尔及利亚大使馆,39.948803,116.461588,北京市朝阳区三里屯路7号,a7c56ee04d1b21cda2acc4a0,(010)65321496,1,a7c56ee04d1b21cda2acc4a0
爱沙尼亚共和国驻华大使馆,39.961464,116.474238,北京市朝阳区亮马桥北小街1号,ce95aa38df59728899005081,(010)85316700,1,ce95aa38df59728899005081
文莱大使馆,39.958224,116.471814,北京市朝阳区亮马桥北街1号,d6ee8724e9beb59ea9f0cdb7,(010)65329773,1,d6ee8724e9beb59ea9f0cdb7
乌兹别克斯坦大使馆,39.948578,116.458293,北京市朝阳区三里屯北小街11号,7388dffd55246695d2ff23a7,,1,7388dffd55246695d2ff23a7
缅甸大使馆,39.946399,116.465631,北京市朝阳区东直门外大街6号,96b672aaa73b530bcf04efb7,(010)65320359,1,96b672aaa73b530bcf04efb7
土耳其大使馆,39.949866,116.463809,北京市朝阳区三里屯东五街9号,5ce2637d8a22322faf31e5b7,(010)65321715,1,5ce2637d8a22322faf31e5b7
伊朗大使馆,39.951737,116.462849,北京市朝阳区三里屯东六街13号,764672e5e2ff04d395ec84b7,(010)65324870,1,764672e5e2ff04d395ec84b7
墨西哥大使馆,39.949876,116.465225,北京市朝阳区三里屯东五街5号,534bbad58299675f3517dcf8,(010)65322574,1,534bbad58299675f3517dcf8
阿根廷大使馆,39.949795,116.462596,北京市朝阳区三里屯东五街11号,0523a1411682a863b33c81a5,(010)65321406,1,0523a1411682a863b33c81a5
瑞典大使馆,39.947261,116.466471,北京市朝阳区三里屯东直门外大街3号,15a938104351ddc315c8f6b7,(010)85311800,1,15a938104351ddc315c8f6b7
瑞士驻华大使馆,39.949777,116.466142,北京市朝阳区三里屯东五街3号,06d2dffda06bb1f489f15db5,(010)85328888,1,06d2dffda06bb1f489f15db5
苏丹驻华大使馆-武官处,39.942135,116.467723,三里屯东二街1号,148fd504c5cfc8f9d813180f,(010)65325783,1,148fd504c5cfc8f9d813180f
约旦大使馆武官处,39.939665,116.465041,三里屯外交公寓3-2-31,6835e3a7eb278430e21103ab,(010)65325762,1,6835e3a7eb278430e21103ab
老挝驻华大使馆-武官处,39.945154,116.463427,三里屯东四街11号,2653353d21796e1426e0a019,(010)65325445,1,2653353d21796e1426e0a019
老挝驻华大使馆-商务处,39.945154,116.463427,三里屯东四街11号,9dd94d9e36583a186c47604e,(010)65323601,1,9dd94d9e36583a186c47604e
尼日尔大使馆,39.939911,116.464926,北京市朝阳区三里屯外交人员办公楼1-21,db1f39d48aaa4911f4c59cb7,(010)65324279,1,db1f39d48aaa4911f4c59cb7
赤道几内亚共和国大使馆,39.944565,116.467368,北京市朝阳区三里屯东四街2号,f9fd606277d769610e0e6bb0,(010)65323679,1,f9fd606277d769610e0e6bb0
博茨瓦纳大使馆,39.944104,116.467355,北京市朝阳区三里屯东三街1号,d82d6697bff8afd8d418b7b7,,1,d82d6697bff8afd8d418b7b7
刚果共和国(刚果布)驻华大使馆,39.945062,116.465143,北京市朝阳区三里屯东四街7号,393513d6f4253b1414c90508,(010)65321387,1,393513d6f4253b1414c90508
老挝大使馆,39.945368,116.463651,北京市朝阳区三里屯东四街11号,eef2d5288ace37d93ae4a6a4,(010)65321224,1,eef2d5288ace37d93ae4a6a4
智利大使馆,39.94527,116.467431,北京市朝阳区三里屯东四街1号,74c933fb85ab7b209f82eab7,(010)65321591,1,74c933fb85ab7b209f82eab7
挪威大使馆,39.941018,116.467088,北京市朝阳区三里屯东一街1号,fa01e937e9de1334764ff1b7,(010)85319600,1,fa01e937e9de1334764ff1b7
瑞典使馆科学创新处,39.947655,116.452684,东直门外大街23号,e047aeaf8cebad5a4251c05e,,1,e047aeaf8cebad5a4251c05e
俄罗斯大使馆-商务代表处,39.952503,116.438887,北京市东城区马杓胡同甲27号,374823e5dfb5e60a276e9842,(010)65322201,1,374823e5dfb5e60a276e9842
亚美尼亚大使馆,39.948528,116.454471,北京市朝阳区塔园南小街9号,9f97b1c5bbd0ab78b74f54a6,(010)65325677,1,9f97b1c5bbd0ab78b74f54a6
瑞典签证申请中心VFS,39.953684,116.451615,北京市朝阳区东直门外斜街小关56号1号楼1层101室,,,1,f1d0b071e4d998a738221c8c
西班牙大使馆经济商务处,39.932235,116.453443,工体南路甲1号塞万提斯学院大厦B座5～6层,9fb5d99b8052ac1c21f01701,(010)58799733,1,9fb5d99b8052ac1c21f01701
德国大使馆,39.947678,116.458025,北京市朝阳区东直门外大街17号,e85e252719d1802d95f08ccc,(010)85329000,1,e85e252719d1802d95f08ccc
日本大使馆,39.959454,116.478487,北京市朝阳区亮马桥东街1号,2746f4afbecd10c42806cea5,(010)85319800,1,2746f4afbecd10c42806cea5
俄罗斯大使馆,39.951582,116.43527,北京市东城区东直门北中街4号,e30828481d0bf1c1b34c49fd,,1,e30828481d0bf1c1b34c49fd
刚果民主共和国大使馆,39.949115,116.464529,北京市朝阳区三里屯东五街6号,251374c9b3d3dd41a01de9b7,(010)65323224,1,251374c9b3d3dd41a01de9b7
莫桑比克共和国驻华大使馆签证处,39.95034,116.456649,北京市朝阳区亮马河南路14号塔园外交人员办公楼1单元7层2号,9f44c4ea59617f45a5da3922,,1,9f44c4ea59617f45a5da3922
立陶宛驻华大使馆签证处,39.966519,116.479205,北京市朝阳区霄云路18号京润水上花园A-18号,90ada085cc2f001c100daa4b,(010)84518520,1,90ada085cc2f001c100daa4b
7天优品(北京燕莎使馆区美国大使馆店),39.962951,116.46831,北京市朝阳区三元桥霄云路35号,78db854974aff3a6b2077df8,(010)52011666,1,78db854974aff3a6b2077df8
美国大使馆-非移民签证处,39.960216,116.474376,安家楼路55号,87e34e804aaee86afa42b20d,,1,87e34e804aaee86afa42b20d
北京奥加国际公寓三里屯大使馆店,39.946221,116.45469,北京市朝阳区东直门外大街26号(澳大利亚大使馆南面),c7eca12b2ef5232ee115f907,13701203959,1,c7eca12b2ef5232ee115f907
阿尔及利亚民主人民共和国大使馆官邸-北1门,39.946772,116.46716,东三环北路与东直门外大街交叉口西100米,3542b909f420636d40024567,,1,3542b909f420636d40024567
几内亚比绍大使馆-签证处,39.950686,116.456653,塔园外交公寓2,99e1d60f0c00ad6f441a32d7,,1,99e1d60f0c00ad6f441a32d7
阿富汗伊斯兰共和国大使馆-北2门,39.946714,116.464676,东直门外大街8号,b789b30f298e9c655bf6be1f,,1,b789b30f298e9c655bf6be1f
格林纳达大使馆-签证处,39.950686,116.456653,塔园外交公寓5,d6bfaf317ad35fed067ce835,,1,d6bfaf317ad35fed067ce835
厄立特里亚大使馆签证处,39.950888,116.457323,亮马河南路14号塔园外交人员办公楼2-10-1,4aa93f6f8f4d4aff8b36ee46,(010)65326534,1,4aa93f6f8f4d4aff8b36ee46
塞拉利昂大使馆签证处,39.9472,116.463363,东直门外大街7号,6aceaa7c3c0dc825cd04ef07,,1,6aceaa7c3c0dc825cd04ef07
东帝汶大使馆签证处,39.967578,116.475268,霄云路18号京润水上花园别墅雅趣园D区15号,aa7e7c3450f7fddaad31e546,,1,aa7e7c3450f7fddaad31e546
土耳其大使馆商务参赞办公室,39.955448,116.471527,亮马桥路50号北京燕莎中心写字楼C812A,ec67a4731a606d28220220a8,(010)64649538,1,ec67a4731a606d28220220a8
阿尔及利亚大使馆-签证处,39.948617,116.461671,三里屯路7号,873f9849d8cc2a2383a00c83,,1,873f9849d8cc2a2383a00c83
斐济大使馆-签证处,39.950888,116.457323,北京市朝阳区亮马河南路14号塔园外交人员办公楼1-15-2,9bbbacbd904be7209d95dec0,,1,9bbbacbd904be7209d95dec0
多哥大使馆-签证处,39.947201,116.461109,东直门外大街11号,3270b544b0127851e856fae9,,1,3270b544b0127851e856fae9
吉布提大使馆-签证处,39.950608,116.456489,北京市朝阳区塔园外交公寓1号,4d23f1a502a358a53ce2315a,,1,4d23f1a502a358a53ce2315a
科特迪瓦大使馆-签证处,39.948433,116.457772,三里屯北小街9号,f657b2a41e47d1bfc036448b,,1,f657b2a41e47d1bfc036448b
文莱大使馆-南门,39.95792,116.471943,亮马桥北街1号,110a23f32393da0bc51b75db,,1,110a23f32393da0bc51b75db
阿富汗伊斯兰共和国大使馆-北1门,39.946702,116.464371,东直门外大街8号,11292111d4070868167643c0,,1,11292111d4070868167643c0
文莱大使馆-签证处,39.958021,116.472009,亮马桥北街1号,1d3a37ab8296d24016a190d1,,1,1d3a37ab8296d24016a190d1
奥地利大使馆商务处,39.952698,116.471395,麦子店街37号盛福大厦2280室,f6152435e199aaef78f796da,(010)85275050,1,f6152435e199aaef78f796da
土库曼斯坦大使馆-签证处,39.967578,116.475268,霄云路18号京润水上花园别墅雅趣园D-1,edf19b7613479ec1aeb22ad3,,1,edf19b7613479ec1aeb22ad3
波黑大使馆-签证处,39.951216,116.457919,亮马河南路14号塔园外交人员办公楼1单元5楼1号,322a31e888a1709dfe0eb077,,1,322a31e888a1709dfe0eb077
缅甸联邦驻华大使馆-北1门,39.946782,116.46532,东直门外大街6号,ecc85e18c659ae7db54f54eb,,1,ecc85e18c659ae7db54f54eb
玻利维亚大使馆-签证处,39.950888,116.457323,北京市朝阳区塔园外交人员办公楼2,c0ef4be04b74466d593ac8ce,,1,c0ef4be04b74466d593ac8ce
匈牙利大使馆-北门,39.946781,116.463146,东直门外大街10号,b37ffd33232842cc32870a7f,,1,b37ffd33232842cc32870a7f
加纳大使馆-签证处,39.948206,116.462372,三里屯路8号,e26884aa44f5243d25e0a037,"(010)65321544,(010)65321319",1,e26884aa44f5243d25e0a037
乌兹别克斯坦大使馆-签证处,39.948391,116.458184,三里屯北小街11号,0b97fa97fd2d4817d1f49e03,,1,0b97fa97fd2d4817d1f49e03
荷兰大使馆-西北门,39.952572,116.466633,北京市朝阳区亮马河南路4号附近,,,1,aba92450d876f573c1f1cf12
柬埔寨大使馆-签证处,39.947194,116.462532,东直门外大街9号,5671f853bb1e514ab23c81a7,,1,5671f853bb1e514ab23c81a7
马来西亚大使馆-北门,39.958431,116.473574,北京市朝阳区外交公寓A区,2eb15fc28d06cce939e4a67d,,1,2eb15fc28d06cce939e4a67d
尼泊尔大使馆-签证处,39.950217,116.457503,三里屯路西六街1号,d801f5f8a2e596bd990050a5,,1,d801f5f8a2e596bd990050a5
加拿大大使馆-北1门,39.948177,116.455837,塔园南小街与新东路交叉口西150米,07da0050b85fa2dbe5e965b7,,1,07da0050b85fa2dbe5e965b7
瑞士驻华大使馆-签证处,39.949777,116.466142,北京市朝阳区三里屯东五街3号,f8558f2ff5902126d72ce2ab,,1,f8558f2ff5902126d72ce2ab
加拿大大使馆-南门,39.947306,116.455859,东直门外大街19号,d09757c2bb6325b9980050bc,,1,d09757c2bb6325b9980050bc
印度大使馆-2号门,39.958656,116.473958,亮马桥北街与天泽路交叉口西100米印度共和国大使馆,238f7adb4a4c84853586f4ed,,1,238f7adb4a4c84853586f4ed
美利坚合众国驻华大使馆签证处-东北门,39.960585,116.47455,安家楼路55号,c5896f325ccc2a25364aae5c,,1,c5896f325ccc2a25364aae5c
苏丹驻华大使馆-商务处,39.942135,116.467723,三里屯东二街1号,fab27787c22005f8213bf248,(010)65324454,1,fab27787c22005f8213bf248
马其顿大使馆-签证处,39.939665,116.465041,三里屯外交公寓1-32,eda2ca6ea65231851e1d1109,,1,eda2ca6ea65231851e1d1109
博茨瓦纳共和国大使馆-南门,39.943788,116.467273,三里屯东三街1号,,,1,f6b79eb2b11c3d0ad1f49ef3
叙利亚大使馆-签证处,39.944726,116.465463,三里屯东四街6号,f721eb174db2e8292cb908d7,,1,f721eb174db2e8292cb908d7
刚果共和国大使馆-南门,39.945063,116.464851,三里屯东四街7号,6e38cacef68d86f5b21e3609,,1,6e38cacef68d86f5b21e3609
秘鲁大使馆-商务处,39.939901,116.464785,三里屯外交人员办公楼1单元91号,c61bd3056c371e16c37da2b7,(010)65322976,1,c61bd3056c371e16c37da2b7
委内瑞拉大使馆-签证处,39.944594,116.4623,三里屯路14号,076062227e394fee84330402,,1,076062227e394fee84330402
赞比亚大使馆-签证处,39.945066,116.465473,三里屯东四街5号,ecb7a497c582a4a62b11d147,,1,ecb7a497c582a4a62b11d147
沙特阿拉伯驻华大使馆官邸,39.944603,116.466513,三里屯东四街4号,fa6804697522cb303ce23175,,1,fa6804697522cb303ce23175
赞比亚共和国驻华大使馆-南门,39.945052,116.465667,三里屯东四街5号,3c6bf78ba072df38d5b74eb9,,1,3c6bf78ba072df38d5b74eb9
黑山大使馆-签证处,39.939665,116.465041,三里屯外交公寓3号楼1单元12号,80f2030cdac1c6091894c626,,1,80f2030cdac1c6091894c626
智利大使馆-签证处,39.945115,116.467443,三里屯东四街1号,7863709134fffdf3b320a8ce,,1,7863709134fffdf3b320a8ce
老挝大使馆-签证处,39.945154,116.463427,北京市朝阳区三里屯东四街11号,4cc78422d9b78d2acae33c8d,(010)65321224,1,4cc78422d9b78d2acae33c8d
意大利大使馆-签证处,39.942135,116.467723,三里屯东二街2号,e4628969e79d0e709e95de48,,1,e4628969e79d0e709e95de48
意大利驻华大使馆-文化处,39.941869,116.467669,北京市朝阳区三里屯东二街2号,0fc904e8fe56527a7069d3cb,(010)65322187,1,0fc904e8fe56527a7069d3cb
澳大利亚大使馆-签证处,39.947281,116.454762,三里屯东直门外大街21号,411a8b2986f451a3c91b9556,,1,411a8b2986f451a3c91b9556
澳大利亚大使馆-南门,39.947322,116.454823,三里屯东直门外大街21号,9c33ea18600bea8ff7e73b54,,1,9c33ea18600bea8ff7e73b54
澳大利亚大使馆-北门,39.948166,116.454401,北京市朝阳区塔园南小街9号附近,59d10121d442dc860d3dda30,,1,59d10121d442dc860d3dda30
科特迪瓦大使馆-南门,39.948261,116.457567,三里屯西五街与新东路交叉口东50米,d6ad9f720980289d6f4760b3,,1,d6ad9f720980289d6f4760b3
阿尔及利亚民主人民共和国大使馆官邸-北2门,39.946773,116.467464,东三环北路与东直门外大街交叉口西100米,d4773839c1270e887f29bdfb,,1,d4773839c1270e887f29bdfb
索马里大使馆-签证处,39.950415,116.462283,三里屯路2号,8beba094ee77d67cd42ce23e,,1,8beba094ee77d67cd42ce23e
巴哈马大使馆-签证处,39.950888,116.457323,亮马河南路14号塔园外交人员办公楼2,69c1d101c1a97828b020a863,,1,69c1d101c1a97828b020a863
马来西亚驻华大使馆-邸西北门,39.959801,116.476501,亮马桥中街与安家楼路交叉口西100米,e2e3b3a9d85b3c0d6240a9ee,,1,e2e3b3a9d85b3c0d6240a9ee
阿根廷大使馆-签证处,39.949644,116.462623,三里屯东五街11号,cadf920e43cbb6831e580096,,1,cadf920e43cbb6831e580096
安哥拉大使馆-签证处,39.950888,116.457323,亮马河南路14号塔园外交人员办公楼1-8-1,aa387315f560026122f01700,,1,aa387315f560026122f01700
印度大使馆-1号门,39.959119,116.474589,北京市朝阳区天泽路与亮马桥北街交口处西北角,88735b0dfaba2fe28bdb73d2,,1,88735b0dfaba2fe28bdb73d2
印度尼西亚大使馆-北1门,39.946771,116.466384,东直门外大街4号,aed8bd9cec1a72300bf5ebd5,,1,aed8bd9cec1a72300bf5ebd5
刚果大使馆-签证处,39.949289,116.464415,三里屯东五街6号,c6ad330b8c0d160b29fc4836,,1,c6ad330b8c0d160b29fc4836
阿富汗大使馆-签证处,39.946728,116.464623,东直门外大街8号,8040758efb294e88eaf85302,,1,8040758efb294e88eaf85302
坦桑尼亚大使馆-签证处,39.95171,116.464317,三里屯亮马河南路8号,fe659c6c7395f9592cb17ed2,,1,fe659c6c7395f9592cb17ed2
格鲁吉亚大使馆-签证处,39.967341,116.475705,霄云路18号京润水上花园别墅D区17号,9b8ce8534d9310d8f603b857,,1,9b8ce8534d9310d8f603b857
乌克兰大使馆-签证处,39.95089,116.463785,三里屯东六街11号,800eede658cf0c452806ce25,,1,800eede658cf0c452806ce25
乍得大使馆签证处,39.949956,116.456286,北京市朝阳区新东路1号塔园外交公寓4号楼2单元4层,ea7edca6af6d18b62bb97cd8,,1,ea7edca6af6d18b62bb97cd8
印度尼西亚大使馆-签证处,39.946725,116.466274,东直门外大街4号,54c1a9eb3d00b5df715e801a,,1,54c1a9eb3d00b5df715e801a
阿拉伯埃及共和国驻华大使馆北京文化处,39.965361,116.475759,朝阳区霄云路18号京润水上花园别墅G区39号,,,1,870569a74d7b0955b45f1ea3
缅甸大使馆-签证处,39.946746,116.465435,北京市朝阳区东直门外大街6号,be810ce1bb5e438484330412,(010)65320359,1,be810ce1bb5e438484330412
缅甸联邦驻华大使馆-北2门,39.946788,116.465542,东直门外大街6号,69cca1547b6bb4429a00504a,,1,69cca1547b6bb4429a00504a
大韩民国驻华大使馆-西门,39.959026,116.471325,东方东路20号,8040418758db8e4ef90cad08,,1,8040418758db8e4ef90cad08
巴布亚新几内亚大使馆-签证处,39.950888,116.457323,塔园外交办公楼2-11-1,77f7f3e7d26437932bb97c05,,1,77f7f3e7d26437932bb97c05
印度大使馆-3号门,39.958634,116.473144,北京市朝阳区天泽路与亮马桥北街交口处西北角,20e0ec76618942a0a21de915,,1,20e0ec76618942a0a21de915
日本大使馆-新闻文化中心,39.958639,116.478879,亮马桥东街1号(近中日青年交流中心),cfbb725ef1722fa21894c69a,(010)65325847,1,cfbb725ef1722fa21894c69a
比利时大使馆-签证处,39.948697,116.462494,三里屯路6号,8d874d7a247856bd9e9d686b,,1,8d874d7a247856bd9e9d686b
乌干达大使馆-签证处,39.947877,116.464984,北京市朝阳区三里屯东街5号,20f5c10c99b1840e100daa1e,(010)65321708,1,20f5c10c99b1840e100daa1e
日本大使馆-签证处,39.958879,116.479297,北京市朝阳区亮马桥东街1号,018e3b20b2503bc2774ff1df,(010)65322007,1,018e3b20b2503bc2774ff1df
瑞典大使馆-签证处,39.947226,116.465514,东直门外大街3号,858486de99a8ddc87ec87662,,1,858486de99a8ddc87ec87662
美国大使馆-西门,39.960331,116.471229,北京市朝阳区东方东路20号,60c25a974eaf752c882fb5f2,,1,60c25a974eaf752c882fb5f2
德国大使馆-领事签证处,39.948023,116.457772,北京市朝阳区东直门外大街17号,a3e61c114b432736a8f0cd23,(010)85329000,1,a3e61c114b432736a8f0cd23
毛里塔尼亚大使馆-签证处,39.943869,116.463591,三里屯东三街9号,7d2c48c43ce6cc88da2f2849,,1,7d2c48c43ce6cc88da2f2849
马里共和国驻华大使馆-北门,39.944797,116.464422,三里屯东四街8号,1d9e2140c3aff8e40f0e6b7d,,1,1d9e2140c3aff8e40f0e6b7d
沙特阿拉伯驻华大使馆官邸-北门,39.944773,116.466451,三里屯东四街3号附近,c9a7aef2ccee2cb844e274c1,,1,c9a7aef2ccee2cb844e274c1
赤道几内亚大使馆-签证处,39.944715,116.467443,三里屯东四街2号,d093b242f8e8ff527bf79605,,1,d093b242f8e8ff527bf79605
马里大使馆-签证处,39.944727,116.464562,三里屯东四街8号,3e2f9b106ab0e0b40782c2fe,,1,3e2f9b106ab0e0b40782c2fe
摩洛哥大使馆-签证处,39.944183,116.46248,三里屯路16号,adbf08673147e19521026205,,1,adbf08673147e19521026205
尼日尔大使馆-签证处,39.939665,116.465041,三里屯公寓1-21,ea877373b7ee75aca0acc41a,,1,ea877373b7ee75aca0acc41a
毛里塔尼亚伊斯兰共和国驻华大使馆-南门,39.943778,116.463689,三里屯东三街9号,de74a39d8feae7e8b426558d,,1,de74a39d8feae7e8b426558d
巴勒斯坦国驻华大使馆-北门,39.943533,116.467204,三里屯东三街2号,888a389d2aa5bc112902e171,,1,888a389d2aa5bc112902e171
也门驻华大使馆-领事处,39.943856,116.465422,三里屯东三街5号,48741be19b4af53694031994,(010)65323804,1,48741be19b4af53694031994
也门驻华大使馆-文化处,39.943856,116.465422,三里屯东三街5号,2c8e9195e77aca0c9cec2b22,(010)65325710,1,2c8e9195e77aca0c9cec2b22
委内瑞拉玻利瓦尔共和国驻华大使馆-西2门,39.944532,116.462181,三里屯路14号,88f7bb7e41b64f31d13ce3ac,,1,88f7bb7e41b64f31d13ce3ac
摩洛哥大使馆-西门,39.943953,116.462174,三里屯路16号,44961dd483caa37e30169bc2,,1,44961dd483caa37e30169bc2
智利共和国驻华大使馆-南门,39.945067,116.467227,三里屯东四街1号,306ef15015ef26cb25d2bb24,,1,306ef15015ef26cb25d2bb24
委内瑞拉玻利瓦尔共和国驻华大使馆-西1门,39.9444,116.462204,三里屯路14号附近,6a59815b8d7d2814441a328d,,1,6a59815b8d7d2814441a328d
马耳他大使馆签证处,39.939814,116.464789,三里屯外交人员办公楼1-51,70e6bca5160f435f28d7abbf,,1,70e6bca5160f435f28d7abbf
亚美尼亚共和国大使馆-南门,39.948302,116.454641,塔园南小街9号,0c8094a6f95de3b3b6147fac,,1,0c8094a6f95de3b3b6147fac
俄罗斯联邦驻华大使馆领事处,39.951021,116.434735,北京市东城区东直门北中街4号,3fe11bf5560c0f3efa0cadf4,,1,3fe11bf5560c0f3efa0cadf4
西班牙大使馆经济商务处-对外贸易发展局,39.932236,116.453443,工体南路甲1号B座,99b866e49fcf4472b1077d45,,1,99b866e49fcf4472b1077d45
美国大使馆-西1门,39.959956,116.471222,北京市朝阳区东方东路与安家楼路交叉口北50米,,,1,4fc0b54652f28f0440e1921d
巴林大使馆商务处,39.967547,116.475236,霄云路18号京润水上花园别墅B22室,be1ea5efcb2790c115948eb7,,1,be1ea5efcb2790c115948eb7
匈牙利大使馆领事处-东门,39.94665,116.463904,三里屯中街与东直门外大街交叉口西南50米,b033e2a22f2fe86c8bfc0658,,1,b033e2a22f2fe86c8bfc0658
加拿大大使馆国际贸易发展,39.948368,116.455134,东直门外大街19号,2ab29f29623641969fec2b91,,1,2ab29f29623641969fec2b91
佛得角大使馆-签证处,39.950686,116.456653,塔园外交公寓5,9fb90e261ee730df3686f446,,1,9fb90e261ee730df3686f446
阿联酋驻华大使馆-签证处,39.957572,116.471987,东方东路22号亮马桥外交公寓LA10,04bda6cec0c415ac3b221c0e,,1,04bda6cec0c415ac3b221c0e
萨摩亚大使馆-签证处,39.950888,116.457323,亮马河南路14号塔园外交办公楼2单元,5cf352f9a9135fe4354aae27,,1,5cf352f9a9135fe4354aae27
利比亚大使馆-签证处,39.950886,116.466657,三里屯东六街3号,7d7afc535017a9a7b8bd63f8,,1,7d7afc535017a9a7b8bd63f8
摩尔多瓦大使馆-签证处,39.950888,116.457323,塔园外交人员办公楼2,e4525e761ee5fe962ce67b00,,1,e4525e761ee5fe962ce67b00
塞浦路斯大使馆签证处,39.950888,116.457323,北京市朝阳区亮马河南路14号塔园外交人员办公楼2,aed5a9130a47dc5372455bce,,1,ca11dafc93f14c229122e0c7
塞尔维亚大使馆签证处,39.950957,116.467577,三里屯东六街1号,e92b15b602d91f1115c905dd,,1,e92b15b602d91f1115c905dd
爱尔兰大使馆签证处,39.950887,116.457323,塔园外交办公楼2-11-1,44207646ecd35815dfee8ba5,(010)65326945,1,44207646ecd35815dfee8ba5
突尼斯大使馆-签证处,39.948756,116.46483,北京市朝阳区三里屯东街1号,7a9d784d3937e399ce04efda,,1,7a9d784d3937e399ce04efda
莫桑比克大使馆-签证处,39.950886,116.457323,新东路1号塔园外交公寓5号楼,aed5a9130a47dc5372455bce,,1,aed5a9130a47dc5372455bce
丹麦大使馆-签证处,39.949696,116.466806,三里屯东五街1号,8dcd766b45ce15ca704b8790,,1,8dcd766b45ce15ca704b8790
纳米比亚大使馆-签证处,39.950888,116.457323,亮马河南路14号塔园外交人员办公楼1-8-1,da7a6d7bba3e8c510c0e6b0b,,1,da7a6d7bba3e8c510c0e6b0b
几内亚大使馆-签证处,39.949946,116.457503,三里屯西六街2号,8c8e8b1a81c621b38415410b,,1,8c8e8b1a81c621b38415410b
马来西亚大使馆签证处(麦子店分点),39.958167,116.473611,北京市朝阳区亮马桥北街2号,4fc9179c735d5e9b48cc4a0e,(010)65322531,1,4fc9179c735d5e9b48cc4a0e
墨西哥大使馆-签证处,39.949747,116.465366,北京市朝阳区三里屯东五街5号,de4bd0977d369604c42ba176,"(010)65322070,(010)65322574",1,de4bd0977d369604c42ba176
土耳其大使馆-签证处,39.949681,116.463594,三里屯东五街9号,5b12ed8a92aafc865a3ac8ed,,1,5b12ed8a92aafc865a3ac8ed
南非大使馆-签证处,39.947227,116.464545,东直门外大街5号,6ff3998e3b5311794c6d46f9,,1,6ff3998e3b5311794c6d46f9
喀麦隆大使馆-签证处,39.949699,116.464385,三里屯东五街7号,da3b04bd19a881074207c1b0,,1,da3b04bd19a881074207c1b0
阿根廷大使馆签证处,39.949167,116.456563,北京市朝阳区新东路1号塔园外交人员公寓3-1-12,570a49896128198bbfa8224c,,1,570a49896128198bbfa8224c
爱沙尼亚大使馆签证处,39.961649,116.474491,亮马桥北小街1号,5972505cf067358fcf06a490,,1,5972505cf067358fcf06a490
英国大使馆文化教育处,39.951205,116.471014,东三环北路8号亮马大厦4层,e2c734e42c20322314a190b7,(010)65906903,1,e2c734e42c20322314a190b7
新西兰大使馆-签证处,39.951229,116.457955,亮马河南路14号2-151A附近,ab07d714616549f56e20b9cb,,1,ab07d714616549f56e20b9cb
荷兰大使馆-签证处,39.952216,116.466458,亮马河南路4号,21ac02717b8acaa7c1f1cf16,,1,21ac02717b8acaa7c1f1cf16
匈牙利大使馆-签证处,39.94669,116.463372,北京市朝阳区三里屯东直门外大街10号,90b409b07c077089a104641c,(010)65321431,1,90b409b07c077089a104641c
加拿大大使馆-签证处,39.948364,116.455365,东直门外大街19号,2ec78d1841521fd4c72ba15f,(010)51394000,1,2ec78d1841521fd4c72ba15f
加拿大大使馆-北门,39.948032,116.456398,东外大街19号,46e86fdda1d50d11d03ce3b7,,1,46e86fdda1d50d11d03ce3b7
法国驻华大使馆-签证处,39.957866,116.476215,天泽路60号,bea7f9f5f09c9583e9f85315,,1,bea7f9f5f09c9583e9f85315
巴基斯坦大使馆-签证处,39.947226,116.467074,东直门外大街1号,7d6226dbc089121d9e82ea89,,1,7d6226dbc089121d9e82ea89
阿拉伯叙利亚共和国驻华大使馆-北门,39.944802,116.465662,三里屯东四街6号,67f7901eaffa7b55d92f28b7,,1,67f7901eaffa7b55d92f28b7
巴勒斯坦大使馆-签证处,39.943455,116.467572,三里屯东三街2号,40b8a1c543a642e8ca09f068,,1,40b8a1c543a642e8ca09f068
芬兰大使馆签证处,39.941838,116.456143,北京市朝阳区工体北路13号世茂国际中心,e680b18f0cf3ad00cac3dbab,,1,e680b18f0cf3ad00cac3dbab
厄瓜多尔大使馆-签证处,39.939665,116.465041,三里屯外交人员办公楼2单元62号,6bfef8cde842988f82288aaf,,1,6bfef8cde842988f82288aaf
津巴布韦大使馆-南门,39.943779,116.464487,三里屯东三街7号,d4d9340732113f209cf77983,,1,d4d9340732113f209cf77983
也门大使馆-签证处,39.943856,116.465422,三里屯东三街5号,1612d1e6b51217a3ca1b954a,,1,1612d1e6b51217a3ca1b954a
老挝驻华大使馆-文化教育处,39.945154,116.463427,三里屯东四街11号,784073bbab56fd2a744ff116,(010)65325652,1,784073bbab56fd2a744ff116
博茨瓦纳大使馆-签证处,39.943905,116.467583,北京市朝阳区三里屯东三街1博茨瓦纳共和国大使馆,edd7db8b3da126b2400245d9,,1,edd7db8b3da126b2400245d9
赤道几内亚共和国大使馆-北门,39.944765,116.467201,三里屯东四街2号,18ec508140c6229925e0a074,,1,18ec508140c6229925e0a074
挪威王国驻华大使馆-南门,39.940806,116.467599,三里屯东一街1号,8fa9316fa3d4951a25d2bb96,,1,8fa9316fa3d4951a25d2bb96
西班牙大使馆-签证处,39.945177,116.464332,北京市朝阳区三里屯东四街9号,e0abcbda13b1245cf8dc8516,(010)65320780,1,e0abcbda13b1245cf8dc8516
挪威大使馆-签证处,39.953716,116.451614,北京市朝阳区东直门外斜街56号东外56号文创园一层,021cc071226b73acd7851f65,,1,021cc071226b73acd7851f65
俄罗斯联邦驻华大使馆-南门,39.950772,116.435313,东直门北中街4号,,,1,82b46f4f804738e728b97c73
北京美国大使馆之家酒店式公寓,39.963018,116.472872,北京市朝阳区小亮马桥西路6号院华远九都汇7号楼407室,bdd34f059518ce9748cc4af2,,1,bdd34f059518ce9748cc4af2
寓生活公寓(北京大使馆店),39.963029,116.472679,北京市朝阳区小亮马桥西路华远九都汇6号院7号楼,5de6f493e690303b0c0e6b4e,13120000611,1,5de6f493e690303b0c0e6b4e
寓居服务公寓(北京燕莎大使馆店),39.962169,116.4727,小亮马桥西路6号院华远九都汇7号楼一层寓居服务中心,433e38c11bae02bb283a9fb1,(010)84353678,1,433e38c11bae02bb283a9fb1
如家派柏云酒店(美国大使馆店),39.962927,116.467749,北京市朝阳区霄云路甲35号,7bc2649331b7f178eb56fad1,(010)64183188,1,7bc2649331b7f178eb56fad1
如家派柏·云酒店(北京美国大使馆店)(原霄云路店),39.962469,116.468426,北京市朝阳区霄云路35号,50f7d1468c2effdd72210b33,(010)64645193,1,50f7d1468c2effdd72210b33
北京市使馆清洁运输管理处,40.010064,116.509506,五元桥附近,667a13d71db9fa33bea240fe,,1,667a13d71db9fa33bea240fe
