name,lat,lng,adderss,street_id,telephone,detail,uid
昊天公园,39.740006,116.161341,北京市房山区东关村,d1469ee7b3a64a62843304c6,,1,d1469ee7b3a64a62843304c6
良香公园,39.714972,116.152918,北京市房山区白杨西路南150米,d9f34cbc1426e626a2acc49f,,1,d9f34cbc1426e626a2acc49f
昊天公园-良乡塔,39.741482,116.161135,良乡镇燎石岗,5090416797e53a66df1e52bb,,1,5090416797e53a66df1e52bb
良园,39.715047,116.155823,北京市房山区良香公园(良常路西),af74b1ceb05b1d24e81e97cf,,1,af74b1ceb05b1d24e81e97cf
赛纳园,39.732496,116.137949,苏庄北路南100米,1e085fce082eb3c4ce04ef30,,1,1e085fce082eb3c4ce04ef30
北潞园健身公园,39.742153,116.131778,苏庄东街与良乡西路交叉口,9ee7cc78f100bc7016c905c6,,1,9ee7cc78f100bc7016c905c6
文体公园,39.746206,116.142415,北京市房山区月华大街13号西南100米,,,1,2b8c192243091330ab0dd8e7
三街健身公园,39.739359,116.145971,北京市房山区良乡镇北巷15号附近,,,1,2e3c3d72b0faeca1e856fa5a
伊林郡公园,39.760578,116.149544,北京市房山区拱辰北大街与机场桥交叉口东北100米,,,1,0ecb361f63bc120a601c6755
郊野生态区公园,39.745932,116.205963,房山区清苑北街,ee926063002ffad717948e50,,1,ee926063002ffad717948e50
房山新城滨水森林公园,39.737082,116.202587,长阳镇清苑北街,b124e9087d257eb0b05c6a6b,,1,b124e9087d257eb0b05c6a6b
大学城公园,39.721544,116.182949,北京市房山区于管营村南大街29号,695a85540988445a2811d150,,1,695a85540988445a2811d150
长阳滨河公园西,39.760995,116.192859,北京市房山区中央休闲购物区CSD(长阳核心区)的万亩滨河公园,f30b4c0d267fa9d0f4e73bb2,,1,f30b4c0d267fa9d0f4e73bb2
北京理工大学人工湖休闲公园,39.740594,116.176268,北京市房山区,4355802eaad6736cb1077ddb,,1,4355802eaad6736cb1077ddb
房山区新城滨水森林公园南区,39.758671,116.194687,长阳路北200米,5d3b9fc501eebe8a1df74d10,,1,5d3b9fc501eebe8a1df74d10
金隅公园,39.746005,116.19524,北京市房山区阜盛大街,,,1,6dfa6e08cba0e1a4b320a8f3
广阳城森林公园,39.746514,116.191277,城建广悦居小区西侧,,,1,c6de8e391801ac458605bfaa
念坛公园,39.712913,116.319335,新源大街(近义和庄地铁站),de134f5dc2c5a2fb82288aca,(010)61210476,1,de134f5dc2c5a2fb82288aca
清源公园,39.742184,116.310222,北京市黄村镇清源西路孙庄子村北口向西200米,e48980feaac71684120daafc,,1,e48980feaac71684120daafc
康庄公园,39.761283,116.34884,北京市大兴区康庄路2号,2c0bd6c5cb7a25aa43ab9afa,(010)69250081,1,2c0bd6c5cb7a25aa43ab9afa
大兴滨河森林公园,39.721751,116.316608,北京大兴区义和庄,9e993921547ec0bef4b91620,,1,9e993921547ec0bef4b91620
黄村公园,39.747544,116.341416,北京市大兴区清源路,d52831f90df102a72efaa7fb,,1,d52831f90df102a72efaa7fb
街心公园,39.734676,116.345346,黄村兴丰大街三段197号,eef2d5282f13d4a73be4a6fb,(010)69250487,1,eef2d5282f13d4a73be4a6fb
枣林公园,39.757797,116.342755,清源街道办事处对面,d146b38825e92bc7750269e7,,1,d146b38825e92bc7750269e7
兴旺公园(北区),39.754117,116.315858,北京市大兴区兴旺路,0f4084b699a6ae144107c16a,,1,0f4084b699a6ae144107c16a
兴旺公园(南区),39.742111,116.323556,北京市大兴区兴旺路,38c4ff5c92e4c32d59bbbc1a,,1,38c4ff5c92e4c32d59bbbc1a
北京南宫鹦鹉园,39.799956,116.161031,北京市丰台区南宫迎宾路1号,793597d9f31d8a3ce70738fe,(010)83319768,1,793597d9f31d8a3ce70738fe
南宫旅游景区-南宫热带植物园,39.799697,116.162015,北京市丰台区王佐镇南宫南路1号世界地热博览园内,bc939d675c79409e0f0e6b6b,(010)83318649,1,bc939d675c79409e0f0e6b6b
怪村亲子动物园,39.8022,116.111205,魏各庄路西150米,,,1,828d056be917f73a7af79657
五洲植物乐园,39.801405,116.160573,北京市丰台区王佐镇南宫南路1号南宫旅游景区内,fc6e4514dfd809fbebe582dc,(010)83318032,1,fc6e4514dfd809fbebe582dc
南宫体育公园,39.804322,116.149983,南宫滨河路,9271a6024fc2257ed518b735,(010)83396161,1,9271a6024fc2257ed518b735
滨河公园,39.799431,116.153472,王佐,5b25f446a78399ea10293505,,1,5b25f446a78399ea10293505
北京市丰台区南宫苑,39.799308,116.158904,北京丰台区王佐镇南宫世界地热博览园内,947df9a1af7d957a2fb90840,(010)83316030,1,947df9a1af7d957a2fb90840
美薇婷婚礼主题生态观光园,39.77849,116.103631,大庙路,ecb060648f5497e003ff2da7,,1,ecb060648f5497e003ff2da7
翠林漫步公园,39.76743,116.160067,北京市房山区二十一号路与翠林路交叉口北150米,,,1,1ef709a5f499462e72455b1a
黄辛庄绿荫健身公园,39.765048,116.15536,北京市房山区松林西路与黄辛庄路交叉口北50米,0184e7c446c438f90e3ddaf5,,1,0184e7c446c438f90e3ddaf5
南宫旅游景区-温室公园,39.800369,116.161538,北京市丰台区王佐镇南宫南路1号南宫世界地热博览园内,813fd2d17f7d803f047ce88c,(010)83316030,1,9d1521e5f6783f2f3586f4e3
南宫旅游景区-南宫郊野休闲公园,39.80131,116.16148,王佐镇迎宾路北京南宫旅游景区南宫世界地热博览园内,,,1,1b89ef684f9b5bde9f09f773
长阳公园,39.76609,116.186301,北京市房山区长阳镇军留庄村长阳公园,6636a25db867fd81ad080fc5,,1,6636a25db867fd81ad080fc5
长阳体育公园,39.76704,116.208914,北京市房山区长阳体育公园(长于路东110米),72e57fd74edf3facf8dc85d0,,1,72e57fd74edf3facf8dc85d0
兰花文化休闲公园,39.789568,116.224726,京深路与稻田路交汇处东北角,dc4c8bf8fa1347bc76e5b608,,1,dc4c8bf8fa1347bc76e5b608
房山区新城滨水森林公园东区,39.763672,116.195672,北京市房山区长阳东环路新城滨水森林公园东区,cf3487f97fefcb47f603b81e,,1,cf3487f97fefcb47f603b81e
水务局公园,39.765017,116.196264,东环路与规划一路交叉口东南100米,f694028fd6bb3179a2d2304b,,1,f694028fd6bb3179a2d2304b
长阳公园管理中心,39.7633,116.208138,北京市房山区长于路3号,7b5c9b7daa43bda5f1193717,,1,7b5c9b7daa43bda5f1193717
世界公园-长城,39.816827,116.294675,北京市丰台区花乡丰葆路158号世界公园内,bb1d38e45af55e4e0c0a70df,,1,bb1d38e45af55e4e0c0a70df
世界公园-比萨斜塔,39.816334,116.293822,北京市丰台区花乡丰葆路158号世界公园欧洲景区内,889591a00f7e0770c7f50dda,(010)83613561,1,889591a00f7e0770c7f50dda
世界公园(恐龙王国),39.81796,116.290822,北京市丰台区花乡大葆台158号,ba9189abb8941fa1e31103d1,(010)83613681,1,ba9189abb8941fa1e31103d1
世界公园-婆罗浮屠,39.816088,116.295757,花乡丰葆路158号世界公园亚洲景区内,17a696323cd550c82fb96d7c,,1,17a696323cd550c82fb96d7c
世界公园-爱鸽园,39.815572,116.293981,花乡丰葆路158号世界公园内,9e1dd05d0e46f55ed82f28b0,,1,9e1dd05d0e46f55ed82f28b0
世界公园-墨西哥土著图腾柱,39.815181,116.291065,花乡丰葆路158号世界公园美洲景区内,58d951c9479579c5fa0cad64,,1,58d951c9479579c5fa0cad64
世界公园-吴哥寺,39.816191,116.296589,北京市丰台区花乡丰葆路158号世界公园亚洲景区内,0d40f561171f7967c8291510,(010)83613561,1,0d40f561171f7967c8291510
世界公园童话世界,39.818192,116.292799,花乡丰葆路158号世界公园内,72204c27a9aa6b6ed8131811,,1,72204c27a9aa6b6ed8131811
世界公园-唐吉诃德,39.815748,116.29312,花乡丰葆路158号世界公园欧洲景区内,e1bcb57b6e0271b8eb1e97f5,,1,e1bcb57b6e0271b8eb1e97f5
世界公园-罗马城徽,39.816223,116.294021,北京市丰台区花乡丰葆路158号世界公园欧洲景区内,1ed5b553749ffcfee215f95a,,1,1ed5b553749ffcfee215f95a
世界公园-山林女神·宁芙,39.818028,116.295772,花乡丰葆路158号世界公园欧洲景区内,ff750ffe8fd3866d871541c2,(010)83613344,1,ff750ffe8fd3866d871541c2
世界公园-独柱寺,39.81573,116.295857,花乡丰葆路158号世界公园亚洲景区内,ace740f80dee956fe8f8539f,,1,ace740f80dee956fe8f8539f
滨河公园,39.774055,116.331477,北京市大兴区兴业大街和双高路交叉口,1bc3d0ed280ad958e9f853ad,,1,1bc3d0ed280ad958e9f853ad
兴海公园(宏福路),39.794891,116.340191,北京市大兴区西红门镇兴海家园星苑对面,55fa2c0bc52e1d2d1ce999fa,,1,55fa2c0bc52e1d2d1ce999fa
金星公园,39.767707,116.348184,滨河街,d6c5d991f0fd7ae830169bfa,,1,d6c5d991f0fd7ae830169bfa
地铁文化公园,39.787468,116.33272,北京市大兴区西红门镇南环路,488823073c13132a077ce8bc,,1,488823073c13132a077ce8bc
兴华公园,39.80099,116.333247,北京市大兴区欣宁街与西红门北二街交汇处,0523a141faa0c404b33c81e4,,1,0523a141faa0c404b33c81e4
友乐汇(绿地缤纷城店),39.769758,116.341303,大兴区金星西路3号院一号楼绿地集团2楼,5012b63d34450e0322f01707,(010)60255656,1,5012b63d34450e0322f01707
高鑫公园,39.804021,116.305176,北京市丰台区樊羊路(近世界公园),d5464cf85ce2e22afda77833,,1,d5464cf85ce2e22afda77833
星光生态文化休闲公园,39.782744,116.354745,西红门北兴路双星桥东,89aaad5e4f2b00f828d7ab3b,,1,89aaad5e4f2b00f828d7ab3b
翡翠公园,39.773544,116.32683,双高路163号,4642844ab6c197dac9fa5fd2,,1,4642844ab6c197dac9fa5fd2
西红门九龙口休闲公园,39.810364,116.349631,京良路与黄陈路交叉口东南200米,81df3b6eed7370dff90cad60,,1,81df3b6eed7370dff90cad60
高米店公园,39.770609,116.347864,北京市大兴区高米店乐园路跟辅高路交叉口,40bef207ab9c10caeb1e970f,,1,40bef207ab9c10caeb1e970f
兴华公园-B区,39.802994,116.337792,宏大南园斜对面,7f33efa29c8e224ad6b74e41,,1,7f33efa29c8e224ad6b74e41
高立庄公园,39.797247,116.325681,北京市丰台区高立庄公园(京良路南100米),be8a68876479e42226e0a0c4,,1,be8a68876479e42226e0a0c4
金星公园-西区,39.767676,116.344724,北京市大兴区金星公园(金星西路南110米),2ec9d052cbdb60db0f0a70ff,,1,2ec9d052cbdb60db0f0a70ff
兴华公园-A区,39.79864,116.331975,欣宁街与西红门北二街交叉口西150米,,,1,c4e9e2b918bdf797b320a851
高米店公园-北区,39.773381,116.347621,高米店,af9ae68ae793a95d6f3e1b64,,1,af9ae68ae793a95d6f3e1b64
高米店公园-南区,39.771306,116.347835,北京市大兴区京开路辅路,c0af30075383ba4f0bf5eb30,,1,c0af30075383ba4f0bf5eb30
兴华公园-南区,39.800023,116.333493,欣宁街与西红门北二街交叉口西150米,988e488362dd214ed4851fec,,1,988e488362dd214ed4851fec
兴华公园-北区,39.801035,116.333436,欣宁街与西红门北二街交叉口西北150米,cd9b5a9bbf4d3f257ec87643,,1,cd9b5a9bbf4d3f257ec87643
滨河公园停车场-出入口,39.773529,116.328936,乐园路与兴业大街交叉口北150米,6fe0004d0c61fd813ce2314b,,1,6fe0004d0c61fd813ce2314b
北宫国家森林公园,39.871839,116.12471,北京市丰台区长辛店镇大灰厂东路55号,f60a15ed8f5278ecbb17e704,(010)83840830,1,f60a15ed8f5278ecbb17e704
云岗森林公园,39.831392,116.165512,北京市丰台区云岗北环路,4382635c0f5203c9e011036d,,1,4382635c0f5203c9e011036d
北宫国家森林公园-动物园,39.874594,116.124186,长辛店镇大灰厂东路55号北宫国家森林公园内,,,1,82a1698d92ea7145250bd0dc
北京市丰台区园林绿化局长辛店公园,39.837554,116.213101,丰台区长辛店桥西花园南里甲1号,4edf9fbf77e69e8dcd06a4e4,(010)83876262,1,4edf9fbf77e69e8dcd06a4e4
晓月郊野公园,39.863448,116.215066,北京市丰台区宛平城园博大道,923f7bbacdf187dba1d23079,,1,923f7bbacdf187dba1d23079
休闲公园,39.859372,116.191562,北京市丰台区园博园南路,d4ea9a68d8bf514f4afc8d89,,1,d4ea9a68d8bf514f4afc8d89
塔西公园,39.82166,116.173019,云岗北区西里42号楼旁,7b8ff080619093292102621e,,1,7b8ff080619093292102621e
中心公园,39.866455,116.17543,大灰厂东路11号,7aea43b7de1462f87c29bd04,,1,7aea43b7de1462f87c29bd04
长体城市休闲公园,39.840972,116.192067,北京市丰台区长体城市休闲公园(中奥广场·首站附近),dfcabd1523ad15fc6e4760b3,,1,dfcabd1523ad15fc6e4760b3
沁园,39.856034,116.201548,北京市丰台区张郭庄南路,3b3482dc3909bde5882fb5ff,,1,3b3482dc3909bde5882fb5ff
绿堤公园,39.846416,116.232938,北京市丰台区左堤路,104c000e1430730582a00c5e,,1,104c000e1430730582a00c5e
丰台花园,39.870093,116.292561,丰台区西四环南路60号,2a13bcb5a7c25b96ca09f029,(010)63853740,1,2a13bcb5a7c25b96ca09f029
世纪森林公园,39.831251,116.250648,农场路(近卢沟桥老庄子),d52e5c22e85812530c0e6bf4,,1,d52e5c22e85812530c0e6bf4
丰台区榆树庄公园,39.843904,116.268093,北京市丰台区看丹路418号甲1号,,,1,b7da1eeb38c6553e0e3dda94
宛平湖,39.845502,116.232259,永定河卢沟新桥下游河段,b9a9eb23ff5d163bca1b95ba,,1,b9a9eb23ff5d163bca1b95ba
御康公园,39.821228,116.288163,花乡六圈村丰葆路168号,231169133bdb2280734b87e4,,1,231169133bdb2280734b87e4
看丹公园,39.837674,116.273496,北京市丰台区看丹南路路南,2cc3c8e882cc45a84d2fdf9c,,1,2cc3c8e882cc45a84d2fdf9c
榆园,39.843622,116.267863,北京市丰台区看丹南路榆树庄,cee2e994a622fc3a7069d3c9,,1,cee2e994a622fc3a7069d3c9
郭庄公园,39.871202,116.265436,北京市丰台区卢沟桥路郭庄公园(五里店北里附近),12709320b3903e409fec2b4f,,1,6c6a4d7de608db62bda240da
世界公园-国际街,39.819752,116.296793,大葆台158号世界公园,,,1,3d67df47e45f51f4eb1e979a
小公园,39.840582,116.293526,北京市丰台区新村街道南四环西路昌宁大厦东50米,5671072f5b9b64511811d5de,,1,5671072f5b9b64511811d5de
御康公园银杏广场,39.820713,116.294794,北京市丰台区丰葆路附近,eb6b3772abd2b212b020a8f5,,1,eb6b3772abd2b212b020a8f5
御康公园-法桐广场,39.823013,116.286573,御康公园内,b727100eda4ac7dcbe4842f5,,1,b727100eda4ac7dcbe4842f5
世界公园-生肖园,39.818622,116.292678,花乡丰葆路158号世界公园游艺区内,,,1,3a96007d2b862c008b2fb517
世界公园-丰收神,39.818397,116.295484,花乡丰葆路158号世界公园欧洲景区内,3b0f33fe8900b584a8f7294d,(010)83613344,1,3b0f33fe8900b584a8f7294d
海子公园,39.822631,116.355127,花乡新发地村,691305239cb90d75725e80e4,,1,691305239cb90d75725e80e4
丰台科技园生态主题公园,39.845252,116.301531,北京市丰台区科兴路1号(科怡路口),9fbfeef2b5d1b238ede4a5e7,(010)63730113,1,9fbfeef2b5d1b238ede4a5e7
庄怡公园,39.86617,116.312375,"丰管路53号(东大街,泥洼,丰益桥)",cc788fdee16b41f788fc0634,,1,cc788fdee16b41f788fc0634
新发地海子公园停车场-出入口,39.826142,116.358972,南苑西路182号附近,1b1614b32e8d1f07badf8fec,,1,1b1614b32e8d1f07badf8fec
科丰公园,39.836127,116.300994,北京市丰台区科丰公园(科丰桥东南100米),24b246642491fcbf2b3a9f82,,1,24b246642491fcbf2b3a9f82
丰益公园,39.866956,116.319329,北京市丰台区丰管路1号,e7d4fbe11e76e9aaf82213b8,,1,e7d4fbe11e76e9aaf82213b8
东管头城市休闲公园,39.864044,116.331568,丰益桥西丰管路北,87c13c2799701f8c3010aff0,,1,87c13c2799701f8c3010aff0
莲石湖公园,39.91066,116.158352,北京市门头沟区莲石西路,bdbb0fef71320e9ce812e476,(010)68623448,1,bdbb0fef71320e9ce812e476
莲石湖湿地公园-永定河河岸公园,39.916959,116.152802,永定河西大堤,069663e02ebc747478b55c84,,1,069663e02ebc747478b55c84
石门营公园,39.900446,116.116953,北京市门头沟区石龙南路南端,,,1,a69a01e062ca16aa6b49f331
葡山公园,39.93117,116.120236,滨河路葡山小区对面葡山公园,ea4a3dc98365762e4e554708,(010)69841870,1,ea4a3dc98365762e4e554708
永定湖公园,39.903815,116.138516,莲石湖西路,,,1,5a43bfaa58dda83c0b1cc738
冯村公园,39.912656,116.116584,门头沟区冯村后街68号信园小区对面,17c3067da73556da45572649,,1,17c3067da73556da45572649
科普郊野公园,39.930231,116.135338,北京市门头沟区G4501(西六环路),,,1,d7d5436202f38dc4c8213d1c
北京园博园,39.881916,116.197275,北京市丰台区射击场路15号,0da4ab592afbcc14fb2d61b8,(010)63915561,1,14076deea795edf402294f07
永定河休闲森林公园,39.895655,116.183872,北京市石景山区京原路55号(石景山燕山水泥厂附近),a3fc98b199ecaf2eadb22a9c,(010)52473949,1,a3fc98b199ecaf2eadb22a9c
首钢工业遗址公园,39.9159,116.17008,北京市石景山区石景山路68号,,(010)88294331,1,e64a222ec880db9728201a4a
老山城市休闲公园,39.920565,116.231188,北京市石景山区老山南路与上庄大街交叉口西,ba5cefa74e8e9c1efe0eb08c,(010)88982079,1,ba5cefa74e8e9c1efe0eb08c
石景山雕塑公园,39.917639,116.20639,北京市石景山区八角南路49号,e116be54c22a267bc91b9522,(010)68875143,1,e116be54c22a267bc91b9522
西郊砂石坑,39.926812,116.226897,田村山南路与五景桥东街交叉口北200米路东,cd5e188efc62d01c14c90560,,1,cd5e188efc62d01c14c90560
田村城市休闲公园,39.922622,116.21718,北京市海淀区八角北路建西苑东50米,d05f1d18a765e81dbca24076,,1,d05f1d18a765e81dbca24076
鹰山森林公园,39.884636,116.172345,长辛店镇射击场路,c2a1b9d14716dcc3e311031f,,1,c2a1b9d14716dcc3e311031f
松林公园,39.911228,116.214026,北京市石景山区八角桥街与石景山路交叉口,a0de497bba229c6a7ec8765d,,1,a0de497bba229c6a7ec8765d
鲁谷奥运文化公园,39.906252,116.228064,鲁谷南路12号,89ea5dfaa24534cf84330444,,1,89ea5dfaa24534cf84330444
体育休闲园,39.925965,116.193534,北京市石景山区杨庄大街,d82d669758144ca6d518b7dd,,1,d82d669758144ca6d518b7dd
鲁谷奥运文化公园-半月科普园,39.906259,116.228122,鲁谷南路14号,ec55deecf420f57a80a00ca0,(010)57239696,1,ec55deecf420f57a80a00ca0
鹰山森林公园桃花沟,39.888247,116.181426,射击场路7号附近,0011ffa4c322a39cdad8917a,,1,0011ffa4c322a39cdad8917a
丁香园,39.888044,116.178049,北京市丰台区射击场路15号北京园博园内,6e06e91a2e1555d0b8bd6320,,1,6e06e91a2e1555d0b8bd6320
经仪公园-西区,39.879501,116.231715,卢沟桥乡张仪村南路,b0b1bd56a8f50fa8471a32cd,,1,b0b1bd56a8f50fa8471a32cd
永定河休闲森林公园(观光小火车),39.895635,116.177989,京原路55号,,,1,d5fa13cfdd14beb6fa42b266
龙山园,39.886964,116.185501,北京市丰台区河堤路,293ff57931c03fbe25e0a09d,,1,293ff57931c03fbe25e0a09d
鹰山森林公园峰顶酩香,39.886639,116.180134,射击场路9号附近,32ff88da561010e543d63ea1,,1,32ff88da561010e543d63ea1
鹰山森林公园栾树沟,39.888003,116.184437,射击场路7号附近,57aae0c153b3bbfca11de9d4,,1,57aae0c153b3bbfca11de9d4
好时光公园(喜隆多新国际购物中心店),39.928868,116.178284,北京市石景山区阜石路300号喜隆多新国际购物中心F3,,,1,0827b9918e2e8dc08a36ee3e
经仪公园-南区,39.87806,116.231822,张仪村路,438e09538fad6770fbf0cbe8,,1,438e09538fad6770fbf0cbe8
天元公园,39.883502,116.26724,北京市丰台区青塔西路,c0cd709909ef4895b35c6afd,,1,c0cd709909ef4895b35c6afd
北京国际雕塑公园西区,39.912449,116.244861,石景山路2西门,be54cde9ec04f05878f79622,,1,be54cde9ec04f05878f79622
足球公园,39.890702,116.288935,岳各庄东路附近,9ca26156ed57323b3d9a5e9b,,1,9ca26156ed57323b3d9a5e9b
小屯公园,39.877,116.256436,北京市丰台区小屯西路(近天弘美域),81d6a5094967cd406e20b904,,1,81d6a5094967cd406e20b904
公园星期八,39.922358,116.260899,北京市海淀区玉泉路,f4460918f178286ab01e36b6,,1,f4460918f178286ab01e36b6
青塔街心公园,39.898523,116.266877,北京市丰台区大成北里路五棵树乐园青塔街心公园,7f1c386ca31acc3dd2f49e18,,1,7f1c386ca31acc3dd2f49e18
定慧公园,39.926827,116.292322,北京市海淀区阜成路66号,,,1,b948d72420126f3c2cb9089c
北京国际雕塑公园东区,39.911774,116.257257,石景山路2号,c0bcb28504d5d4628936eec1,,1,c0bcb28504d5d4628936eec1
生态公园,39.891442,116.292369,北京市丰台区岳各庄东路,dd396a4098afa24340e19275,,1,dd396a4098afa24340e19275
五棵松奥林匹克文化公园-南区,39.915358,116.281558,北京市海淀区复兴路,baf990ee5770024ad8d891f4,,1,baf990ee5770024ad8d891f4
五棵松奥林匹克文化公园-北区,39.921744,116.281725,北京市海淀区西四环中路辅路,789d19eb84a03de7593ac8b5,,1,789d19eb84a03de7593ac8b5
定慧公园怡趣园,39.926726,116.28952,北京市海淀区西翠路15号,bbc3bf6b644f7f4b43e1928e,,1,bbc3bf6b644f7f4b43e1928e
绚秋园,39.881021,116.267327,大屯路附近,3f3265bd2d3424443b221c45,,1,3f3265bd2d3424443b221c45
北京市社区服务站(三山园社区),39.90837,116.238089,鲁谷路114-1号附近,be2d7ae09f781efe8bfc064f,,1,be2d7ae09f781efe8bfc064f
五棵松奥林匹克文化公园-中区,39.919839,116.282064,北京市海淀区玉渊潭南路,4e95f0f40b8650632afc48a6,,1,4e95f0f40b8650632afc48a6
天元公园-门卫室,39.884194,116.263923,双林东路北200米,494247b7e46184a13fe231a2,,1,494247b7e46184a13fe231a2
玉渊潭公园,39.922467,116.326526,北京市海淀区西三环中路10号,3810c87916332c8b9d09f7b2,(010)88653800,1,3810c87916332c8b9d09f7b2
月坛公园,39.922132,116.358874,北京市西城区月坛北街6号,06881d62cb48756c7069d3f4,(010)68020940,1,06881d62cb48756c7069d3f4
莲花池公园,39.898299,116.319518,北京市丰台区西三环南路38号,edbd1d7e2b8a8760471a3244,(010)63972892,1,edbd1d7e2b8a8760471a3244
金中都公园,39.877073,116.356383,北京市西城区广安门南街64号,99df5229edbb223d2d4733e1,,1,99df5229edbb223d2d4733e1
南礼士路公园,39.916486,116.361022,南礼士路58号,691305235ddf4a08725e8006,(010)62023200,1,691305235ddf4a08725e8006
万丰公园,39.889524,116.29842,万丰路莲怡园小区西侧,dc0f0adc14389b22f82213c7,,1,dc0f0adc14389b22f82213c7
玉渊潭公园八一湖,39.920239,116.324955,玉渊潭南路11号,a2a8087faa7a308fbe4842c0,,1,a2a8087faa7a308fbe4842c0
会城门公园,39.906691,116.339883,北京市海淀区双贝子坟路1号,5c56edd6e7cfc95aa0d230b6,(010)63467342,1,5c56edd6e7cfc95aa0d230b6
西局玉璞园,39.878351,116.310127,北京市丰台区西局后街8号,2a002d97b05b8e982bb97c11,,1,2a002d97b05b8e982bb97c11
莲花河城市休闲公园,39.898118,116.337038,广源小区西区北门附件,9ae53fe3336db5b3a8175a8a,,1,9ae53fe3336db5b3a8175a8a
白云叠翠公园,39.908243,116.352245,真武庙路四条8号,ede5f2b40296c34411882478,,1,ede5f2b40296c34411882478
滨河公园,39.898771,116.355983,广安门北街甲1号,d0b8923f59efb9e2b5f42ff1,(010)63464481,1,d0b8923f59efb9e2b5f42ff1
翠微烟雨公园,39.922641,116.307533,翠微路甲2号旁,ce02fbfce7b02e3708ccdddf,,1,ce02fbfce7b02e3708ccdddf
中塔公园,39.926635,116.314592,北京市海淀区西三环中路,32278f50f4e6078b471a3282,,1,32278f50f4e6078b471a3282
北京营城建都滨水绿道,39.888953,116.356558,广安门南街与枣林前街交叉口西南50米,93200b622a48212ad0ff2347,,1,93200b622a48212ad0ff2347
北京银杏树林,39.928409,116.339031,北京市海淀区阜成路2号(近钓鱼台国宾馆东门),e2c1d14cff7768ceb9df8fd6,,1,e2c1d14cff7768ceb9df8fd6
人口文化园,39.892756,116.32856,北京市丰台区马连道路太平桥东里,940a819e6f6c35ca601c6787,,1,940a819e6f6c35ca601c6787
钓鱼台银杏林,39.919926,116.340812,三里河路钓鱼台国宾馆东墙外(钓鱼台国宾馆东侧路),38c5c0ea07316a568bfc060d,,1,38c5c0ea07316a568bfc060d
新优植物示范园,39.92188,116.341729,三里河路49号附近,4bd0b3149d840f35c1f1cfba,,1,4bd0b3149d840f35c1f1cfba
小天鹅公园,39.919185,116.315688,北京市海淀区水利医院附近,befdb2921c9813f886154185,,1,befdb2921c9813f886154185
北京滨河公园-蓟城纪念柱,39.897547,116.355836,广安门北街10号,045918a5028eb9f4eae582cc,,1,045918a5028eb9f4eae582cc
玉渊潭公园-柳桥映月,39.923934,116.323943,北京市海淀区玉渊潭南路玉渊潭公园(东一门)附近,17825793ac0c11ac84154144,,1,17825793ac0c11ac84154144
宣武区人口文化园,39.89807,116.337963,西城区广安门外大街377号(广莲路),59f0c67941f96d56da2f2810,,1,59f0c67941f96d56da2f2810
玉渊潭公园-景观大道记,39.92114,116.332197,北京市海淀区风景名胜,7384ad6a34f61b6a0289725e,,1,7384ad6a34f61b6a0289725e
莲花池公园-露天舞场,39.895815,116.323825,莲花池南路北50米,dc0bf2f374abe55321022005,,1,dc0bf2f374abe55321022005
玉渊潭公园-留春园,39.920568,116.335539,北京市海淀区玉渊潭公园,75cdd69744d5cbb0616858d5,,1,75cdd69744d5cbb0616858d5
围山捕猎,39.89241,116.300182,北京市丰台区万丰路与莲花池西路交叉口西150米,12d683f1608d0972f4e73be6,,1,12d683f1608d0972f4e73be6
玉渊潭公园-中堤桥,39.923226,116.326205,北京市海淀区西三环中路10号玉渊潭公园内,d4c2493779c851d8725e8081,(010)88653800,1,d4c2493779c851d8725e8081
中华世纪坛,39.916466,116.327888,北京市海淀区复兴路甲9号,ca0a5de32ff30868a7c7566c,"(010)84187900,(010)84186161",1,09185c5641f8895df01937b6
玉渊潭公园-留春方亭,39.920918,116.334595,玉渊潭南路9号,905862e73582a889eae58286,,1,905862e73582a889eae58286
团河行宫遗址公园,39.753739,116.385257,北京市团河路9号,c5cccafbe8bb0e43db2f2841,,1,c5cccafbe8bb0e43db2f2841
神龙公园,39.760162,116.553142,北京市马驹桥乡兴华中街,f7d35f31e0113252f8dc8503,,1,f7d35f31e0113252f8dc8503
体育公园,39.761266,116.494034,千倾堂街附近,a970bfeeddea71a8e8f853ae,,1,a970bfeeddea71a8e8f853ae
天恒金融街公园懿府,39.796891,116.377152,北京市丰台区西红门南一街206号院,cd3acb5c322753cef942b2ba,(010)67919999,1,cd3acb5c322753cef942b2ba
南苑公园,39.812567,116.384999,北京市丰台区南苑西路5号,a7c56ee0afbcc3b3a3acc404,,1,a7c56ee0afbcc3b3a3acc404
北京国际露营公园,39.788237,116.38849,南苑村团河路369号,ab6f32c68cc345c121f017fd,,1,ab6f32c68cc345c121f017fd
志远庄公园,39.765583,116.41749,志远庄,f9550ad9c8d5bfd321f01725,,1,f9550ad9c8d5bfd321f01725
寿保庄公园,39.781746,116.390822,金安路,6c13f7fb66159b51c6effbe1,,1,6c13f7fb66159b51c6effbe1
北京凤河植物园,39.775896,116.379572,金西路8号,8eb48fa1753b95dbf32d83e4,,1,8eb48fa1753b95dbf32d83e4
大兴生态文明教育公园,39.782742,116.363485,S50南五环附近,dbfd94cec05f1fbcdf1e52a4,,1,dbfd94cec05f1fbcdf1e52a4
老三余公园,39.785738,116.382721,北京市大兴区西红门寿宝庄,3736d0797eb9245ae856fa64,,1,3736d0797eb9245ae856fa64
新三余公园,39.780111,116.377325,北京市大兴区金西路北京凤河植物园北200米,,,1,d9fdc83514002c7b9cf779d2
南海子公园,39.779482,116.475558,黄亦路16号,f1f5cac51d653e8137b06ce4,(010)69271456,1,f1f5cac51d653e8137b06ce4
碧海公园,39.81645,116.445588,北京市大兴区庑殿路,bc4808cb781b7d026849f333,,1,bc4808cb781b7d026849f333
大兴区亦庄文化园,39.814048,116.490515,北京市大兴区南五环路,,,1,9fc4ee5ef4f8794ceddfca2a
南海子二期,39.788421,116.471646,北环路,,,1,d5ed4a7fc16808d697ec8491
南海子公园花卉观赏区,39.778572,116.483672,北京市大兴区,c607d58e4265be37c42ba167,,1,c607d58e4265be37c42ba167
市民公园,39.786204,116.430383,北京市大兴区旧宫市民公园(S50南五环西),,,1,5399934f18ca98d98bf15d44
河滨公园(东马路),39.807715,116.474012,北京市大兴区旧宫凯达华建材城西南(007县道),72631f26a73b66d66f476053,,1,72631f26a73b66d66f476053
亦庄公园,39.812511,116.480156,三台山路与亦庄桥交叉口西北100米,,,1,4b048ca73a5e1b749cec2b4b
北京市大兴区旧宫镇庑殿路碧海公园对面,39.815901,116.450322,庑殿路53号附近,d0b3b8dbadaca792fbf0cb86,13810590306,1,d0b3b8dbadaca792fbf0cb86
碧海公园-湖区,39.816295,116.448873,北京市大兴区旧宫清逸园社区宣颐路碧海公园景观桥,3abdeedceebb97af3110afaa,,1,3abdeedceebb97af3110afaa
南海子公园月季园,39.780291,116.48649,北京市大兴区黄亦路16号南海子公园内,,,1,11d03463a06b9d3a3617dc03
南海子公园(南4门)(建设中),39.774917,116.46873,北京市大兴区公园南环路,,,1,dd6c8edd26e92df91811d5c0
南海子公园-望原亭,39.776334,116.470123,北京市大兴区黄亦路16号南海子公园内,,,1,447e660f9a114b0584154168
碧海公园-林中小径,39.817031,116.448045,北京市大兴区旧宫清逸园社区吉百利路碧海公园,cc70c4df3f72e22ffda77802,,1,cc70c4df3f72e22ffda77802
南海子公园-麋鹿苑,39.779526,116.469302,南海子公园,,,1,a1f68133e9447969593ac856
国际企业文化园(西园),39.81438,116.492851,亦庄开发区五环文化园西路6号院,96b672aaa70f530bcf04ef83,,1,96b672aaa70f530bcf04ef83
博大公园,39.802655,116.509722,北京市大兴区亦庄开发区内核心(中心)区域博大大厦北侧,5e1ac855cc32a91ead31e511,,1,5e1ac855cc32a91ead31e511
凉水河公园一区,39.77695,116.528901,北京市大兴区景园南街凉水河公园一区,23e51c78e92fdcbef7e73b37,,1,23e51c78e92fdcbef7e73b37
米拉公园,39.766897,116.551225,北京市通州区马驹桥西环南路米拉village小区北,059d76699c7b14fbd72ce2a1,,1,059d76699c7b14fbd72ce2a1
凉水河公园三区,39.772241,116.533302,凉水河公园三区(博兴三路南),6b9fda3b291b24a31e1d1106,,1,6b9fda3b291b24a31e1d1106
亦庄湿地,39.781775,116.591154,科创十七街,,,1,4cc54e2efa9de62c250bd077
花历园,39.797669,116.579952,排干渠西路与科创十二街交叉口北100米,,,1,48cbf2a44b0676e880a00c73
金马公园,39.764649,116.588825,北京市通州区马驹桥镇马大路珠江四季悦城金马公园,2873db543db3f6e661685812,,1,2873db543db3f6e661685812
万芳亭,39.864933,116.382511,北京市丰台区南三环西路3号,8606df55d5fe8885fbf0cb00,(010)67211666,1,8606df55d5fe8885fbf0cb00
槐新公园,39.833246,116.368176,北京市丰台区槐房西路北口,55fa2c0b517c89341ce99903,,1,55fa2c0b517c89341ce99903
石榴庄城市休闲公园,39.841384,116.425179,北京市丰台区南苑乡石榴庄金桥西街南150米,74b33159242eb009b020a81b,,1,c38b000790ae5a8e601c67b4
嘉河公园,39.859257,116.36934,北京市丰台区马家堡,41572e00507d09b4b45f1e00,,1,41572e00507d09b4b45f1e00
槐房钓鱼公园,39.824884,116.385005,槐房路,00f1c7fb986ea406c056ac25,,1,00f1c7fb986ea406c056ac25
嘉囿城市休闲公园,39.847197,116.375402,北京市丰台区马家堡西路甲2号,,,1,37588bff853a5ec53686f40c
桃苑公园,39.833597,116.389352,北京丰台区南四环南侧,9b54b6ec01a684b0047ce8e4,,1,9b54b6ec01a684b0047ce8e4
和义公园,39.826365,116.392377,北京市丰台区大红门南路(和义西里社区卫生服务站附近),1c0c448075d0b59b71210b80,,1,1c0c448075d0b59b71210b80
嘉园三里公园,39.849681,116.375051,马家堡西路与嘉和路交叉口,78f89d7fbdb19f710289720a,,1,78f89d7fbdb19f710289720a
祥和园,39.86862,116.388307,洋桥北里小区内,051b37dedd3f425508f5eb1e,,1,051b37dedd3f425508f5eb1e
马家堡街道人口文化园,39.850444,116.37538,丰台区马家堡嘉园三里(近派出所),1d16cbf7d8e83b1c3586f455,,1,1d16cbf7d8e83b1c3586f455
石榴庄公园-2号园,39.839625,116.425136,南四环东路与南四环中路入口交叉口西北200米,4fc8c57e4c71db2b84154128,,1,4fc8c57e4c71db2b84154128
神州租车万芳亭公园点,39.861431,116.399402,北京市丰台区万芳亭公园(紧邻南三环),7387bbedcc28377ed7851feb,,1,7387bbedcc28377ed7851feb
方庄体育公园,39.873208,116.434995,芳古路芳古园三区1号楼(近芳城路),b3aa435d4249860b1576433d,(010)67677108,1,b3aa435d4249860b1576433d
旺兴湖公园,39.820353,116.442755,旧宫镇绿化隔离区内(近庑殿路),e1f0c47cefdc2826f50e77c8,,1,e1f0c47cefdc2826f50e77c8
鸿博公园(红坊路),39.82499,116.485394,小红门乡博大路与红坊路交叉口附近,b3aa435d0012c076157643e7,,1,b3aa435d0012c076157643e7
清风园公园,39.858936,116.469567,北京市丰台区分钟寺新村西北(京沪高速公路南),da3ebbd1e19964fcfb2d6193,,1,da3ebbd1e19964fcfb2d6193
旺兴湖郊野公园北区,39.827052,116.450697,旧宫镇绿化隔离区内,0f06bb9e351b6e9debe582d7,,1,0f06bb9e351b6e9debe582d7
榴彩公园,39.845758,116.42755,北京市丰台区榴乡路榴彩公园(京深海鲜批发市场东南),3f5bd2d16e09dabd15c905f2,,1,3f5bd2d16e09dabd15c905f2
博大水库公园,39.833715,116.488181,十八里店南桥博大路,67915823b3eac67f8733048d,,1,67915823b3eac67f8733048d
石榴庄公园-1号园,39.840349,116.431318,榴乡桥与榴乡路交叉口东北200米,8ab75cf2aa3a4870e9f8539a,,1,8ab75cf2aa3a4870e9f8539a
群乐园,39.869123,116.432809,北京市丰台区芳群路,,,1,b62481f57c4460fcc61b750c
旺兴湖公园南区,39.820826,116.444196,北京市大兴区旧宫镇人民政府西20米,dbd6bc90f39a3aa8130daa62,,1,dbd6bc90f39a3aa8130daa62
老君堂公园,39.837861,116.525875,北京市朝阳区十八里店乡老君堂公园,44b6b2fdf8ffd1522b11d1df,,1,44b6b2fdf8ffd1522b11d1df
翠城公园,39.865697,116.513567,东垡头路临70号,99046717612742c2c16c148d,,1,99046717612742c2c16c148d
海棠公园,39.842166,116.511259,北京市朝阳区十八里店乡老君堂村,e56bf5e347543c390782c2e1,,1,e56bf5e347543c390782c2e1
北焦公园,39.855576,116.538494,北京市朝阳区化工路,5211d219d713fe587cc87696,,1,5211d219d713fe587cc87696
国际企业文化园-东园,39.819951,116.506463,北京市大兴区文化园东路,d52831f99bc990a42efaa7cc,,1,d52831f99bc990a42efaa7cc
亦新公园,39.831354,116.528058,北京市大兴区亦新公园(金色·漫香林北100米),fddf2076f543f25cb54f54d3,,1,fddf2076f543f25cb54f54d3
个园,39.874186,116.522139,王四营乡(化工路与金蝉北路交叉口),3be122e1a1ed3b511ef74df7,,1,3be122e1a1ed3b511ef74df7
垡头科普文化公园,39.87044,116.515588,垡头街与金蝉南路交叉口西北100米,48eb00580e0694ad2ee67b96,,1,48eb00580e0694ad2ee67b96
镇海寺郊野公园,39.834682,116.493455,北京市朝阳区红坊路北,08fc93dfc20ffdef9b68b4d3,,1,08fc93dfc20ffdef9b68b4d3
沁春园,39.87482,116.518365,垡头东街与金蝉北路交叉口北150米,d5083f99777572e8e60738fe,,1,d5083f99777572e8e60738fe
老君堂公园-林荫栈道,39.839848,116.526142,北京市朝阳区十八里店老君堂公园(五环北),df6451a8ae55e90e0c0e6be4,,1,df6451a8ae55e90e0c0e6be4
海棠公园-北区,39.843979,116.511325,十八里店乡东南四环十八里店北桥出口向东海棠公园(东南郊灌渠)附近,538bc1bea03903b5fa0cad77,,1,538bc1bea03903b5fa0cad77
亦新公园-西区,39.831044,116.524508,北京市大兴区亦庄镇S50东五环天尊苑旁,31a9e93c592bd9444c5547da,,1,31a9e93c592bd9444c5547da
海棠公园西停车场-出入口,39.843934,116.508525,北京市朝阳区十八里店海棠公园北区(东南郊灌渠),db3c61b0220ffd407369d37f,,1,db3c61b0220ffd407369d37f
梧桐公园,39.829474,116.540282,北京市通州区渠羊路88号,,,1,27edbb28b2e0a8cef6e73b53
马家湾湿地公园,39.849174,116.568049,北京市朝阳区大鲁店北路富力又一城南200米,,,1,4b2b2cbc31c827dea204647b
东石公园,39.824515,116.582682,站前街与通马路交叉口西南100米,0ad300b22f146908100daa1a,,1,0ad300b22f146908100daa1a
红军公园,39.851242,116.588638,北京市朝阳区大鲁店北路黑庄户乡郎各庄,d5464cf8a0408e57fca77896,,1,d5464cf8a0408e57fca77896
金福湿地公园,39.831986,116.60752,北京市通州区台湖镇张台路,baa6fb91130b354115c905d0,,1,baa6fb91130b354115c905d0
乐跑公园,39.821756,116.594308,东小路,115c030d3c0c2beac356acc3,,1,115c030d3c0c2beac356acc3
富力又一城公园,39.853012,116.560042,北京市朝阳区大鲁店北路,0c13c368980e506fc51b7542,,1,0c13c368980e506fc51b7542
憩园(郎各庄村南街),39.855475,116.582622,郎各庄村东路与郎各庄村南街交叉口东北100米,626177d5e975a10e42e192af,,1,626177d5e975a10e42e192af
陶然亭公园,39.88066,116.388442,北京市西城区太平街19号,fa01e9378b06f14a774ff1f0,(010)63511596,1,fa01e9378b06f14a774ff1f0
三里河公园,39.900561,116.411777,北京市东城区南芦草园胡同与群智胡同交叉口东50米,660c392abe08f032a8175a72,,1,660c392abe08f032a8175a72
中山公园,39.916702,116.400582,北京市东城区中华路4号,e2c734e489d8d15d15a190d1,(010)66055431,1,e2c734e489d8d15d15a190d1
万寿公园,39.885845,116.37434,北京市西城区白纸坊东街甲29号,78bd50f7ce73b92530870aaa,(010)63542172,1,78bd50f7ce73b92530870aaa
宣武公园,39.900955,116.365768,北京市西城区槐柏树街12号,42402829d79254f1932ca36b,,1,42402829d79254f1932ca36b
东单公园,39.911124,116.423745,北京市东城区崇文门内大街9号,dffd46421aee09b33c9a5e3f,(010)65129353,1,dffd46421aee09b33c9a5e3f
皇城根遗址公园,39.929613,116.412997,北京市东城区北河沿大街与地安门东大街交叉口南,af1ae56b4e2c78124207c1d1,,1,af1ae56b4e2c78124207c1d1
菖蒲河公园,39.914756,116.409932,北京市东城区天安门东侧劳动人民文化宫东侧,9ee392b869507140bbbd631d,,1,9ee392b869507140bbbd631d
永定门公园,39.882846,116.405496,永定门东滨河路18号,9e28725eb9e2cbcff603b848,,1,9e28725eb9e2cbcff603b848
玉蜓公园,39.878469,116.424628,北京市东城区永定门东滨河路17号,c61bd305c31fff68c37da2e1,(010)67692146,1,c61bd305c31fff68c37da2e1
广阳谷城市森林公园,39.896391,116.380007,北京市西城区广安门内大街49号,d5e73889c59d76b75abbbcdb,,1,d5e73889c59d76b75abbbcdb
西单口袋公园,39.915765,116.383019,小石虎胡同与横二条交叉口东50米,f72d3a63b5093491c909f001,,1,f72d3a63b5093491c909f001
广宁公园,39.895617,116.364613,北京市西城区广安门内大街临89号,7ef601829ac5642e30169bc8,,1,7ef601829ac5642e30169bc8
西便门小公园,39.905848,116.364385,宣武门西大街131号,100a6131fc0125dab817e76a,,1,100a6131fc0125dab817e76a
景泰公园,39.875571,116.408179,北京市东城区永定门外东滨河路临门14号,b5018db8f04767d8a1d230f6,,1,4b2696fadcb658089ff7791d
月亮湾公园,39.905071,116.40347,前门西河沿街7号附近,2cf20108be26bce0e5e965f3,,1,2cf20108be26bce0e5e965f3
二十四节气公园,39.879124,116.41394,东城区永定门东街(天坛南门),1ec74c951ccd8bc69f82eaad,,1,1ec74c951ccd8bc69f82eaad
怡心园,39.87547,116.423877,枣林街6号附近,ea4a3dc9825e772e4e55473d,,1,ea4a3dc9825e772e4e55473d
百花园,39.900535,116.395704,北京市西城区小沙土园胡同百花园(东南园东100米),a2d874602cf1a88de111034a,,1,a2d874602cf1a88de111034a
南礼士路公园-曦园春早,39.916575,116.362793,复兴门北大街与复兴门桥交叉口西南100米,fa44ef31bd4f0481eddfcab5,,1,fa44ef31bd4f0481eddfcab5
西城区前孙公园,39.898801,116.389233,北京市西城区前孙公园胡同7号,cce96943cd2e124e2b3a9f90,,1,cce96943cd2e124e2b3a9f90
薰衣草森林,39.900003,116.404496,前门街道前门大街115号(步行街),,,1,ffdb1a804bca6770a8175a0a
天坛公园-九龙柏,39.884978,116.419203,北京市东城区天坛内东里7号天坛公园内,22e1140729ee25b4d4b74ee0,,1,22e1140729ee25b4d4b74ee0
云中公园避暑圣地,39.916848,116.413398,北京市东城区南河沿大街天安大厦旁(北京饭店西北),,,1,54343ee1f4f6c4550e3dda0a
翠芳园,39.904352,116.364412,北京市西城区宣武门西大街24号楼,8326527bb5e7707b250bd050,,1,8326527bb5e7707b250bd050
中山公园-格言亭,39.918944,116.401094,中山公园(东北门)附近,22e4e580b1b1468eb817e7e6,,1,22e4e580b1b1468eb817e7e6
静雅园,39.900689,116.366127,宣武艺园内,9d403b84b689a7e9ae080f0c,,1,9d403b84b689a7e9ae080f0c
陶然亭公园冰雪嘉年华,39.878718,116.386663,北京市西城区太平街9号陶然亭公园内,51c8a47e4440d8fcd3ff2396,(010)63511596,1,51c8a47e4440d8fcd3ff2396
北海公园-赏荷区,39.930657,116.397514,北京市西城区文津街1号(故宫北)北海公园内,d9feb353e92e3a6d9d82ea41,,1,d9feb353e92e3a6d9d82ea41
天坛公园-喷水池,39.88861,116.41601,北京市东城区天坛路甲1号天坛公园内,1d9bfd9e1c3c8789f21937c2,,1,1d9bfd9e1c3c8789f21937c2
后孙公园,39.899871,116.388621,北京市西城区后孙公园胡同37号附近,,,1,1b92ad5b18b5add0ab175ad3
陶然亭公园-报春亭(太平街),39.884027,116.39331,北京市西城区太平街19号陶然亭公园内,ff78421c9ac0f93d0aa8d444,(010)63511596,1,ff78421c9ac0f93d0aa8d444
月季园,39.880617,116.384942,太平街19号陶然亭公园,,,1,12ebdba70b7383a87069d3e0
植物世界,39.889567,116.406434,天桥南大街126号北京自然博物馆内,45d53d1230eed944c9fa5fac,,1,45d53d1230eed944c9fa5fac
陶然亭公园-南屏晚眺亭,39.878919,116.390896,北京市西城区太平街19号陶然亭公园内,8119cc1c249b09682ce67b19,,1,8119cc1c249b09682ce67b19
天坛公园-导游图,39.887825,116.422737,北京市东城区天坛东里甲1号,68189c7feece94794afd3fe8,(010)67028866,1,68189c7feece94794afd3fe8
东城青年林,39.877748,116.41826,东滨河路11-8号,a853e46deb2a5b7709a8d48d,,1,a853e46deb2a5b7709a8d48d
中山公园-兰亭八柱亭,39.915965,116.399748,北京市东城区中山公园,a6cd67bd929750922dfaa762,,1,a6cd67bd929750922dfaa762
人口文化园,39.876961,116.408224,北京市东城区永定门海友酒店(安定门店)东80米,96b672aadad6de08ce04efda,,1,96b672aadad6de08ce04efda
天坛公园-钟楼,39.886507,116.413936,北京市东城区天坛东路甲1号天坛公园斋宫内,d82d669746b736a6d518b77e,(010)67028866,1,d82d669746b736a6d518b77e
北京北海公园纪念币自动售币机,39.931423,116.395493,北京市西城区文津街1号(故宫北)北海公园内,09a54da1d88e6085cac3db75,,1,09a54da1d88e6085cac3db75
牺牲所大殿柱础,39.884914,116.413455,北京市东城区天坛东路甲1号天坛公园内,426b814f3ab6ed8ec2f1cf1c,(010)67028866,1,426b814f3ab6ed8ec2f1cf1c
景山公园-周赏亭,39.930912,116.404853,景山东街19号,7c845291a65a36ec354aae23,,1,7c845291a65a36ec354aae23
陶然亭公园-二泉亭,39.878599,116.386177,北京市西城区太平街19号陶然亭公园华夏名亭园内,4beec1ff5f1d4da0f72310ef,,1,4beec1ff5f1d4da0f72310ef
陶然亭公园-倚新亭,39.881014,116.391284,北京市西城区太平街19号陶然亭公园内,7e8f52f0091e9d3a08ccdd18,,1,7e8f52f0091e9d3a08ccdd18
北海公园停车场景山前街,39.929471,116.393031,北京市西城区文津街附近,3a89892f76b128959cf779a7,,1,3a89892f76b128959cf779a7
北海公园船渡,39.929572,116.396578,文津街1号北海公园南门附近,5ba63e18aac07e8558f6be27,,1,5ba63e18aac07e8558f6be27
陶然亭公园-中央岛,39.880098,116.388431,北京市西城区太平街19号陶然亭公园内,76e05304818c92d9d618b7dd,,1,76e05304818c92d9d618b7dd
陶然亭公园-水榭(太平街),39.882265,116.391441,北京市西城区太平街19号陶然亭公园内,c38fd681edb04616b31e3657,,1,c38fd681edb04616b31e3657
天坛公园三音石,39.884601,116.419505,北京市东城区天坛路甲1号天坛公园内,fb8a1a9e7a7c44fbfda77828,(010)67028866,1,fb8a1a9e7a7c44fbfda77828
白纸坊文化绿廊,39.884412,116.370127,北京市西城区右安门内大街新安北里旁,365fb97ad3aafd13d12dd683,,1,365fb97ad3aafd13d12dd683
天坛公园-丹陛桥,39.886722,116.419502,北京市东城区天坛内东里7号天坛公园内,925c550f1f9082b25a3ac87b,,1,925c550f1f9082b25a3ac87b
中山公园-槐柏合抱,39.916265,116.40224,故宫内,bcffae000f17f05ead080fde,,1,bcffae000f17f05ead080fde
陶然亭公园-西湖,39.88155,116.386726,北京市西城区太平街B19北京全明星少年儿童活动中心附近,105c8e4f9c63a441740269f9,,1,105c8e4f9c63a441740269f9
景山公园明代古山道,39.931306,116.40552,北京市东城区景山公园内,e06b9445048d871e87154184,,1,e06b9445048d871e87154184
陶然亭公园北门站自行车租赁点,39.884979,116.388004,北京市西城区陶然亭路41号,b1ed871bbca92a9c35b06cd3,,1,b1ed871bbca92a9c35b06cd3
陶然亭公园-平顶亭,39.880387,116.391539,北京市西城区太平街19号陶然亭公园内,d03a3f91463b900581288a3d,,1,d03a3f91463b900581288a3d
中山公园石狮,39.916373,116.401165,北京市东城区故宫内,4886a12a752eed0fc06c145c,,1,4886a12a752eed0fc06c145c
陶然亭公园-四角亭,39.879574,116.392205,北京市西城区太平街35号凤龙青年酒店附近,a1d2a21ab1107f7f49fc8d35,,1,a1d2a21ab1107f7f49fc8d35
陶然亭公园-澄光亭,39.879395,116.388934,北京市西城区太平街19号陶然亭公园内,b5d12ac5a52a4b4ca6da3985,,1,b5d12ac5a52a4b4ca6da3985
龙潭公园,39.885848,116.444742,北京市东城区龙潭路8号,090059e354c3dd9114b54b97,(010)67144336,1,090059e354c3dd9114b54b97
日坛公园,39.921342,116.450437,北京朝阳门外日坛北路6号,3dc9befd7c6f810fbea240fe,(010)85616301,1,3dc9befd7c6f810fbea240fe
庆丰公园,39.908668,116.471207,北京市朝阳区厂坡村街甲2号,8ad3ee02803d4162a3acc4de,(010)67780738,1,8ad3ee02803d4162a3acc4de
明城墙遗址公园,39.90723,116.434463,北京市东城区崇文门东大街9号,6ee01020b9c09aef52e5c5d1,(010)65270574,1,6ee01020b9c09aef52e5c5d1
松榆里公园,39.880371,116.476754,北京市朝阳区松榆里33号,eef2d5282df2d6a73ae4a69a,,1,eef2d5282df2d6a73ae4a69a
窑洼湖公园,39.888225,116.490672,北京市朝阳区北工大路,415ef73ff95c69cc31f71d44,(010)67316688,1,415ef73ff95c69cc31f71d44
官舍朝阳公园,39.931218,116.484291,北京市朝阳区甜水园三条15号,4b8436f3da587f3fc9e33c6e,,1,6f2d29fb412d0de1c1f1cfc3
万科公园,39.931333,116.48383,北京市朝阳区甜水园街21号,69a9a964ea5cbbd27bf79601,(010)65865555,1,69a9a964ea5cbbd27bf79601
CBD历史文化公园,39.92217,116.462236,光华路7号,f6daf344b483db8a2cb17e56,13520820572,1,f6daf344b483db8a2cb17e56
劲松五区公园,39.888414,116.458232,劲松五区512-1号附近,5c0175898ed734ccc7f50dcb,,1,5c0175898ed734ccc7f50dcb
双龙公园,39.875412,116.48932,北杨庄路138号,d52831f90b1000a72ffaa79a,,1,d52831f90b1000a72ffaa79a
同心园,39.903495,116.447235,北京市东城区白桥大街10号东行60米,bff8fa7d16e8f2a0c9213de0,,1,bff8fa7d16e8f2a0c9213de0
广渠春晓,39.900049,116.4518,北京市东城区广渠春晓(首东国际西北150米),b3344093bca66fba4f6d46c5,,1,b3344093bca66fba4f6d46c5
庆丰公园-东园,39.90971,116.475177,北京市朝阳区庆丰闸前街6号,ff5fa6d7fc231c9c51e5c5ee,,1,ff5fa6d7fc231c9c51e5c5ee
呼家楼社区公园,39.928135,116.472772,呼家楼,ea4a3dc985ef742e4f554792,(010)65917045,1,ea4a3dc985ef742e4f554792
龙潭西湖公园,39.886193,116.437777,北京市东城区龙潭路甲1号,d991e116b0540b551e3894e1,,1,d991e116b0540b551e3894e1
庆丰公园-西园,39.908934,116.466578,北京市朝阳区双花园16号,fcd8b0786dde665930621289,(010)67780738,1,fcd8b0786dde665930621289
建国门健身乐园,39.916587,116.440613,东城区建国门北顺城街19号,c02cfb747c71561088fc06bf,,1,550fd5f9ffc16379931fc9d1
龙潭西湖公园-北京教学植物园,39.880649,116.442753,东城区龙潭湖百果园3号,bb1d38e4ebc8cd4d0c0a70e1,(010)87550315,1,bb1d38e4ebc8cd4d0c0a70e1
梦梨园,39.880868,116.464278,北京市朝阳区潘家园路,4d1b9e261fd48d638f1a89dd,,1,4d1b9e261fd48d638f1a89dd
军民共建护城河休闲公园,39.893858,116.450092,东二环出口与广和路交叉口西150米,0c19afea8c45493625e0a03e,,1,0c19afea8c45493625e0a03e
龙潭公园-龙亭,39.886075,116.444656,北京市东城区龙潭路18号,6ecdeee69ae2f51917c8f653,,1,6ecdeee69ae2f51917c8f653
百米芳华园,39.877456,116.445569,北京市丰台区左安门内大街95号,6c684b8a0735243af8dc856a,,1,6c684b8a0735243af8dc856a
联馨园,39.926795,116.47537,金台西路2号,fab53e898584c8395fd4fe2c,,1,fab53e898584c8395fd4fe2c
龙字石林,39.884807,116.44939,北京市东城区龙潭路18号龙潭公园内,7a405295b356315c74026953,,1,7a405295b356315c74026953
木头公园,39.913282,116.47758,北京市朝阳区建国路甲92号世茂大厦18层,2910e958be5f82aac5effb80,,1,2910e958be5f82aac5effb80
龙潭公园-曲壁扬坡,39.882101,116.447333,北京市东城区龙潭路8号(近华普超市)龙潭公园内,7984ba3c7eb459212902e153,,1,7984ba3c7eb459212902e153
龙潭公园-玉龙桥,39.88562,116.445071,北京市东城区龙潭路18号,,,1,ff89420bf6290eaf1e3894a4
龙潭西湖公园-松树林,39.880274,116.432504,北京市东城区龙潭路甲1号,828f529ab0115cd87adbd2f6,,1,828f529ab0115cd87adbd2f6
日坛公园-宰牲亭,39.922475,116.451376,日坛北路6号,d6330383bf3f136cd23ce3e6,,1,d6330383bf3f136cd23ce3e6
龙潭公园豪华转马,39.88527,116.443057,北京市东城区龙潭路8号(近华普超市)龙潭公园内,677428fe8f32c81771210bdd,,1,677428fe8f32c81771210bdd
兴隆公园,39.919156,116.540303,北京市朝阳区高碑店乡兴隆庄甲8号,a3f21eeea1488a442eb17e96,,1,a3f21eeea1488a442eb17e96
古塔公园,39.884924,116.541838,北京市朝阳区高碑店路,65e192ffa258393f8936eed0,,1,65e192ffa258393f8936eed0
石门休闲公园,39.903434,116.509353,石门东路2号,,,1,c8250f62249159436168584a
运动公园,39.903512,116.511725,百子湾南路与有条斜街三条交叉口东南100米,892c87aa8cbd213f1d389464,,1,892c87aa8cbd213f1d389464
清风绿屿,39.928557,116.501783,红领巾公园路8号,cfa96a6e4c896f96593ac802,,1,cfa96a6e4c896f96593ac802
古塔公园-观音禅寺,39.886147,116.540228,北京市朝阳区高碑店王四营北路古塔公园观音禅寺,f5fb1959ed9013a8f60e7766,,1,f5fb1959ed9013a8f60e7766
十北公园,39.926408,116.51511,北京市朝阳区朝阳北路十里堡北里十北文化公园,137098e6041e9ae41d580021,,1,37ed64cb2327bc2e9d95de6e
八里庄绿无限公园,39.925479,116.518009,北京市朝阳区朝阳北路八里庄绿无限公园,8ecaa5584138bdb66b49f3bb,,1,8ecaa5584138bdb66b49f3bb
朝阳高碑店兴隆公园北门充电桩,39.922392,116.540588,朝阳区兴隆公园北门南门涮肉停车场,bd711fa1a1d08d9af4eafc18,,1,bd711fa1a1d08d9af4eafc18
儿童主题公园,39.931183,116.534699,四季星河南街与四季星河路交叉口南150米,fda3815f72faeea1fb2d6108,,1,fda3815f72faeea1fb2d6108
善哉善哉,39.912604,116.545723,高碑店东区B14-1号,,,1,fa4f34e4cef1c9cd0f0e6bee
甘露艺术园,39.921231,116.52166,北京市朝阳区甘露园南里一区4号楼,bb4541536cf6792d30621207,,1,bb4541536cf6792d30621207
公园商卖部,39.931482,116.50211,北京市朝阳区朝阳北路耀中国际学校(红领巾公园附近),87f10798d94e12f51ce999d3,,1,87f10798d94e12f51ce999d3
杜仲公园,39.899004,116.575839,北京市朝阳区三间房乡杨家沟,d6ee87248eca1a9ca8f0cd41,,1,d6ee87248eca1a9ca8f0cd41
常营体育公园,39.928692,116.612543,东十里堡路,,,1,003f41188e19647c4e776e4a
白鹿公园,39.884316,116.560838,北京市朝阳区王四营乡白鹿司北街,bff8fa7d5b12b7ddc8213de1,,1,bff8fa7d5b12b7ddc8213de1
金田公园,39.893202,116.569249,北京市朝阳区双桥路与王四营北路交叉口北,5e53af1a189176224151c0e1,,1,5e53af1a189176224151c0e1
西会公园,39.913597,116.597878,北京市朝阳区建国路,d6ee87246c59389da8f0cdcc,,1,d6ee87246c59389da8f0cdcc
百花公园,39.901198,116.55717,山东北京市朝阳区二环东路3361号东门洪家,72aa25132c82635e067ce8ad,,1,72aa25132c82635e067ce8ad
金田公园(南区),39.8858,116.568155,北京市朝阳区双桥路北京新东方烹饪学校西南250米,3a8eb4c51cf14a5ebadf8f09,,1,3a8eb4c51cf14a5ebadf8f09
东1时区公园,39.905475,116.620922,北京市朝阳区司辛庄东路,bcaebff803872029c9e33ce1,,1,bcaebff803872029c9e33ce1
绿丰休闲公园,39.875759,116.592556,北京市朝阳区东马各庄京哈高速公路绿丰休闲公园,1c54ee50c3c5adebbea240be,,1,1c54ee50c3c5adebbea240be
百花公园东区,39.902105,116.565026,北京市朝阳区百花公园东区(双园路北70米),1a83bdb23aabc70fcac3dbc2,,1,1a83bdb23aabc70fcac3dbc2
暖山生态公园,39.890488,116.616898,双桥东路与康中街交叉口东北100米,b323472aa254696ef33cba09,,1,b323472aa254696ef33cba09
双树北村休闲公园,39.888782,116.605236,北京市朝阳区双树路与康中街交叉口东150米,8eacaa9cd44200e5130daad9,,1,8eacaa9cd44200e5130daad9
百花公园-西区,39.901052,116.557753,小郊亭桥与广渠路交叉口西北150米,c802e51c2ae93629ab175ab1,,1,c802e51c2ae93629ab175ab1
金田公园(北区),39.893138,116.569391,豆各庄何家村,,,1,40364856a3ab64f597031942
法海寺森林公园,39.94704,116.165628,北京市石景山区八角森林公园,8ff47de7ec0acf476b49f30c,,1,8ff47de7ec0acf476b49f30c
三家店蒲草湿地公园,39.976328,116.102398,北京市门头沟区龙泉镇三家店村,e3ca21f8c0117a42b21e3615,,1,e3ca21f8c0117a42b21e3615
永定河公园,39.953661,116.113691,北京市门头沟区滨河路永定河公园(永定楼北200米),c73420e0178bddd202294f3c,,1,c73420e0178bddd202294f3c
京浪岛文化体育公园,39.981295,116.102565,北京市门头沟区4501国道西侧,f5a6bdd839138159ddee8bf7,,1,f5a6bdd839138159ddee8bf7
门城湖公园,39.952246,116.114945,北京市门头沟区龙泉滨河路永定楼附近,f71a56a8a70a8aa6be48426d,,1,f71a56a8a70a8aa6be48426d
黑山公园,39.946362,116.10312,北京市门头沟区黑山大街12号,3dc9befd8e0a7716bea24008,(010)69842990,1,3dc9befd8e0a7716bea24008
滨河公园(河滩路),39.943866,116.113906,北京市门头沟区双峪路20号,befdb292883287e187154108,(010)69827551,1,befdb292883287e187154108
滨河世纪广场公园,39.94507,116.119184,北京市门头沟区滨河路22号,b292b3aa79c5be56be484208,,1,b292b3aa79c5be56be484208
立思辰公园,39.933865,116.12184,北京市门头沟区法院对面,50c8c50d20d5ac0ac26c14b1,,1,50c8c50d20d5ac0ac26c14b1
青山公园,39.962094,116.131633,北京市石景山区车站路1号,881a28e72a350347f942b2dd,(010)88903670,1,881a28e72a350347f942b2dd
中天公园,39.937411,116.12429,承泽苑路11号,b533ea4a03517a414f6d4608,,1,b533ea4a03517a414f6d4608
阳光公园,39.959413,116.104929,北京市门头沟区京门铁路遗址公园(城子大街西),8bfad3da208cfeceabf72978,,1,8bfad3da208cfeceabf72978
京门铁路遗址公园,39.959409,116.104896,近郊门头沟区城子大街(近城子职高车站),9a54f0f80435fc2f43ab9a27,,1,9a54f0f80435fc2f43ab9a27
福亭公园,39.963369,116.10647,滨河路与城子大街交叉口处,416492444a317e0582288a96,,1,416492444a317e0582288a96
福鼎公园,39.96187,116.106491,北京市门头沟区门城新城北部城子大街和滨河路交汇处,cd99f02bd207bccf93114cbc,,1,cd99f02bd207bccf93114cbc
隘口晓园,39.943281,116.157654,石门路105附近,809bdab6a53d4d5a2d4733a4,,1,809bdab6a53d4d5a2d4733a4
晨曦公园,39.949982,116.107998,河滩路10号,3520e5965184ea727c29bd72,,1,3520e5965184ea727c29bd72
长城公园,39.957941,116.104747,城子大街37号,2b197ef836f46b5cf72310e3,,1,2b197ef836f46b5cf72310e3
望楼园,39.950466,116.114517,北京市门头沟区滨河路18号小懒羊涮肉店(门头沟店)附近,affa9d6dcd508869eb56fa00,,1,affa9d6dcd508869eb56fa00
北京西山国家森林公园(昌华园区),39.978535,116.209193,北京市海淀区闵庄路与香山南路交叉口西行100米,1d4bc84384a3c926eedfca70,(010)62720251,1,1d4bc84384a3c926eedfca70
八大处公园,39.968527,116.190196,北京市石景山区八大处路3号,4edf9fbf7699998dcc06a44d,(010)88964661,1,4edf9fbf7699998dcc06a44d
希望公园,39.944015,116.209515,北京市石景山区西黄村,467043eb3d93be991d1d116b,,1,467043eb3d93be991d1d116b
年轮园,39.939288,116.168995,北京市石景山区模南小区路,89baeefeb2912a4ba2046497,,1,89baeefeb2912a4ba2046497
海特体育休闲公园,39.938822,116.195297,海特园路附近,,,1,81a86ef7d1661c452fe67beb
希望公园-健身园,39.943497,116.207965,北京市石景山区八大处路,ab1ee7ffd8276958871541be,,1,ab1ee7ffd8276958871541be
八大处公园-三山庵,39.964574,116.189313,北京市石景山区八大处路3号八大处公园内,e23e697f4089c25f774ff1ed,(010)88961812,1,e23e697f4089c25f774ff1ed
八大处公园长廊,39.962737,116.190468,北京市石景山区八大处路3号八大处公园内,5af3f4da42d9c8234c6d461d,(010)88964661,1,5af3f4da42d9c8234c6d461d
八大处公园-中华第一砚,39.96474,116.189214,北京市石景山区八大处路3号八大处公园内,da980968a70d1bbf3586f4b4,,1,da980968a70d1bbf3586f4b4
八大处公园-香界寺龙松,39.968396,116.18474,北京市石景山区八大处路甲3号香界寺内,,,1,12f08478b16fdf334c6d4636
八大处公园-西山名胜记,39.969549,116.187767,八大处路3号八大处公园,,,1,09d75e33102dda1f40e19203
中坞公园,39.986968,116.267165,北京市海淀区北坞村路,a7b9f8b433405ff7871541a2,,1,a7b9f8b433405ff7871541a2
西山公园,39.952482,116.246641,北京市海淀区西平庄路,d5f93c0e66eaab5cecdfcab1,,1,d5f93c0e66eaab5cecdfcab1
巴沟山水园,39.97614,116.295482,北京市海淀区蓝靛厂北路,c740bb10e0cb2a2d32f71d3c,,1,c740bb10e0cb2a2d32f71d3c
平庄郊野公园,39.951053,116.248892,四季青镇旱河路,c879fa018d262d53c809f0eb,,1,c879fa018d262d53c809f0eb
融乐公园,39.970519,116.284475,世纪华天大酒店北侧,c958d7dfe5752b434e5547de,,1,c958d7dfe5752b434e5547de
四季曙光公园,39.954309,116.296013,板井路360号,a26c3d34f87cb3a7bfa822e0,,1,a26c3d34f87cb3a7bfa822e0
丹青圃公园,39.98104,116.233651,北京市海淀区四季青乡闵庄路北侧,3c0ea7c5aecfd59cfaf0cbb1,,1,3c0ea7c5aecfd59cfaf0cbb1
西木休闲公园,39.938006,116.276845,西四环北路137号院甲3号附近,2bf57080288711489b68b44f,,1,2bf57080288711489b68b44f
美丽园小区公园,39.945825,116.286321,北京市海淀区西荣阁写字楼a座,6ee0102006f3dd9252e5c5e0,,1,6ee0102006f3dd9252e5c5e0
玉泉郊野公园,39.986772,116.253754,北京市海淀区茶棚路3,e41dee0e1e5a9450d81318b6,,1,e41dee0e1e5a9450d81318b6
园外园玩茶棚公园,39.985159,116.248925,北京市海淀区北坞嘉园南小街西口西北方向172米,,,1,32cf9404fd210e6c1ef74de0
金源娱乐园,39.970728,116.296093,蓝靛厂路3号,4ea3f2f1a2263dd4aecb66fd,,1,4ea3f2f1a2263dd4aecb66fd
西冉城市生态公园,39.961873,116.263698,燕桥金路附近,fc127ddfee42b8434002457c,,1,fc127ddfee42b8434002457c
休闲园-娱乐园,39.935053,116.294259,北京市海淀区西八里庄路97号附近,ea43509cdb9db36775e5b6a9,,1,ea43509cdb9db36775e5b6a9
永泰·自在香山公园,39.980994,116.243994,北京市海淀区瀚河园路东100米,352d05c775e49e3baecb664f,,1,352d05c775e49e3baecb664f
枫林公园,39.945097,116.28636,北京市海淀区曙光街道美丽园中路枫林公园,deff006fba5fbb9808f5ebc8,,1,deff006fba5fbb9808f5ebc8
北京动物园,39.947735,116.343376,北京市西城区西直门外大街137号,4bb049d91598944799005000,"(010)68314411,(010)68390274",1,4bb049d91598944799005000
紫竹院公园,39.948437,116.32483,北京市海淀区中关村南大街35号,49c6ce91c412a12c8d772700,(010)68425851,1,49c6ce91c412a12c8d772700
玲珑公园,39.935382,116.301679,北京市海淀区西八里庄北里3号,0a15c7ec3c56b182ed74f862,,1,0a15c7ec3c56b182ed74f862
大熊猫馆,39.94537,116.345639,北京市西城区西直门外大街137号北京动物园,a18572fe3c05040ca10464cd,(010)68390274,1,a18572fe3c05040ca10464cd
长颈鹿馆,39.948398,116.34084,北京市西城区西直门外大街137号北京动物园内,7524cb4f1705d04904026f58,(010)68390274,1,7524cb4f1705d04904026f58
宝联体育,39.942405,116.305512,北洼西里48号,6810490871aceff5a2046426,(010)68438898,1,6810490871aceff5a2046426
知春公园,39.979862,116.332547,科学院南路101号-113号,1cea15a9d6220dc506fef5b2,,1,1cea15a9d6220dc506fef5b2
双榆树公园,39.976248,116.331383,科学院南路31号,72aa251397fbf647067ce8b2,,1,72aa251397fbf647067ce8b2
南长河公园,39.956695,116.308792,北京市海淀区蓝靛厂南路与麦钟桥西街交汇处东北角,22c198070a5b875043afe643,,1,9228ef6fa7a6945cf4e73b3d
火烈鸟馆,39.946185,116.342591,北京市西城区西直门外大街137号北京动物园鸟苑内,8d96925c737db638c1f1cf6e,(010)68390274,1,8d96925c737db638c1f1cf6e
象馆,39.949556,116.345804,北京市海淀区西直门外大街137号北京动物园内,4bb049d9eb280e4698005093,(010)68390274,1,4bb049d9eb280e4698005093
风情海滩,39.949722,116.34694,北京市海淀区高粱桥斜街乙18号北京海洋馆内,d28898438dc1c628d0ff2341,,1,d28898438dc1c628d0ff2341
猩猩馆,39.947471,116.339621,北京市西城区西直门外大街137号北京动物园内,7fd72311f22822e15dbe86a0,,1,7fd72311f22822e15dbe86a0
西土城遗址公园,39.970726,116.360513,北京市海淀区元大都城垣遗址公园西土城遗址公园,f34a538a98947db6c7f50daf,,1,f34a538a98947db6c7f50daf
两栖爬行动物馆,39.945929,116.34,北京市西城区西直门外大街137号北京动物园内,3810c8797011cef59d09f78f,(010)68390274,1,3810c8797011cef59d09f78f
儿童动物园,39.948241,116.339908,北京市西城区西直门外大街137号北京动物园内,d6ee8724e9bcb59ea9f0cdb1,(010)68390403,1,d6ee8724e9bcb59ea9f0cdb1
北京动物园犀牛河马馆,39.949751,116.343904,北京市海淀区西直门外大街137号北京动物园内,6ed3083ae7ea0bc92a3a9f8f,(010)68390274,1,6ed3083ae7ea0bc92a3a9f8f
企鹅乐园,39.946126,116.338874,西直门外大街137号北京动物园,fa01e937e9e61334764ff18f,(010)68390274,1,fa01e937e9e61334764ff18f
非洲动物区,39.948466,116.342412,北京市西城区西直门外大街137号北京动物园内,011d9045c301e2675cbe862b,(010)68390274,1,011d9045c301e2675cbe862b
车道沟公园,39.950154,116.30079,蓝靛厂南路与车道沟桥交叉口南200米,c1684cb3ccdfa244d72ce212,,1,c1684cb3ccdfa244d72ce212
水禽湖,39.94641,116.344033,北京市西城区西直门外大街137号北京动物园内,d92ec71bdf06e8b986420eda,(010)68390274,1,d92ec71bdf06e8b986420eda
憩园,39.962351,116.313127,西三环北路19号北京外国语大学西校区,44c0e54dca1fe28228201a57,,1,44c0e54dca1fe28228201a57
北京动物园-袋鼠馆,39.948358,116.34475,北京市西城区西直门外大街137号北京动物园内,,(010)68390274,1,9037661272134cf1cae33c51
院士公园,39.986919,116.333747,北京市海淀区中关村南路,,,1,11f67b641ec09b75d0ff234a
美洲动物区,39.948052,116.344038,北京市西城区西直门外大街137号北京动物园内,23221810ba3944bf2fb96d00,(010)68390274,1,23221810ba3944bf2fb96d00
金丝猴馆,39.947202,116.340644,北京市西城区西直门外大街137号北京动物园内,43b7e8897473a61459f6bea4,,1,43b7e8897473a61459f6bea4
鹿苑,39.948915,116.338701,北京市西城区西直门外大街137号北京动物园内,45af3d656c8e2442deee8bef,,1,45af3d656c8e2442deee8bef
夜行动物馆,39.94602,116.346876,北京市西城区西直门外大街137号北京动物园内,d24e48eb0f6f46caaeee7aa4,(010)68390274,1,d24e48eb0f6f46caaeee7aa4
顺馨园,39.974754,116.345462,北三环西路31号,96b672aac121b175cf04efb2,,1,96b672aac121b175cf04efb2
狮虎山,39.947562,116.346685,北京市西城区西直门外大街137号北京动物园内,fa835ce21e5ed1c8e912e4b8,(010)68390274,1,fa835ce21e5ed1c8e912e4b8
北京动物园-小动物区,39.94596,116.347653,榆树馆桥附近,7f0274cd3a0c92dc8f1a8932,,1,7f0274cd3a0c92dc8f1a8932
鹰山,39.949429,116.342685,北京市海淀区西直门外大街137号北京动物园内,35debf29e7313c3aa7da39a8,,1,35debf29e7313c3aa7da39a8
甘泉,39.931581,116.336265,北京市海淀区阜成路甘家口小区1号楼东侧,0438b80d4ac7a45888db73af,(010)68318182,1,0438b80d4ac7a45888db73af
鹦鹉馆,39.947348,116.342061,北京市西城区西直门外大街137号北京动物园,8cb07a6afcbe6e79e9f85384,(010)68390274,1,8cb07a6afcbe6e79e9f85384
中国人民大学-牡丹苑,39.97751,116.317245,北京市海淀区中关村大街59号中国人民大学,71fa78ff912a50e7047ce861,,1,71fa78ff912a50e7047ce861
紫竹院公园-明月岛,39.948723,116.325693,北京市海淀区中关村南路35号紫竹院公园附近,e3532dceaef59e9da4c756e6,,1,e3532dceaef59e9da4c756e6
鸟苑,39.946455,116.342601,北京市西城区西直门外大街137号北京动物园内,2d30bb5faea061bea0acc4ba,,1,2d30bb5faea061bea0acc4ba
北京动物园中型猛兽馆,39.948219,116.3495,北京市西城区西直门外大街137号,9c149d8c44abc4a98f55ecf0,(010)68390274,1,9c149d8c44abc4a98f55ecf0
老来乐文化广场,39.940773,116.340436,三里河路8号院,10ae0a64754d94af3010afee,,1,10ae0a64754d94af3010afee
猫科动物馆,39.948392,116.349342,北京市西城区西直门外大街137号北京动物园内,a8eec0bccb4b9503ca09f09b,(010)68390450,1,a8eec0bccb4b9503ca09f09b
小猴馆,39.94687,116.339847,北京市西城区西直门外大街137号北京动物园内,c879fa0160274634c809f08f,(010)68390274,1,c879fa0160274634c809f08f
水獭展区,39.945637,116.338854,西直门外大街137号北京动物园内,f45683f1b49fa7b52902e147,(010)68390274,1,f45683f1b49fa7b52902e147
青莲岛,39.947141,116.32755,北京市海淀区中关村南大街35号,917113d565eb468771455b08,(010)68425851,1,917113d565eb468771455b08
犬科动物区,39.945522,116.348385,北京市西城区西直门外大街137号北京动物园内,c9883fbfc1f85108df1e52bb,(010)68390274,1,c9883fbfc1f85108df1e52bb
长臂猿馆,39.946949,116.338469,北京市西城区西直门外大街137号北京动物园内,060f5e53f52bc2a9091cc7ae,,1,060f5e53f52bc2a9091cc7ae
北京市海淀区园林文化局公园,39.95927,116.306287,半壁街与厂洼街交叉口东北100米,,,1,6301edcbae1f0cb09ee3210a
躺碑庙公园,39.971377,116.335971,北京市海淀区皂君庙路双榆树南里二区华侨公寓东门,59b899410158db0340ab9a4b,,1,59b899410158db0340ab9a4b
网络公园,39.983119,116.348984,知春路29号院7号-4号2层,cb1a935307f6ede5223bf275,(010)82358904,1,cb1a935307f6ede5223bf275
紫竹院公园-清凉罨秀,39.949161,116.328138,北京市海淀区中关村南大街35号,7a916394f0008dcff82d61df,,1,7a916394f0008dcff82d61df
貘科动物馆,39.947111,116.343262,北京市西城区西直门外大街137号北京动物园内,8eb48fa1d9f431d8f22d83a4,(010)68390274,1,8eb48fa1d9f431d8f22d83a4
紫竹院公园-三友亭,39.946593,116.323959,北京市海淀区中关村南大街35号,7beaa166a192118d32f71d56,,1,7beaa166a192118d32f71d56
小型哺乳动物区,39.945821,116.347355,北京市西城区西直门外大街137号北京动物园内,dffd631c744e09c239221c86,,1,dffd631c744e09c239221c86
猿猴馆,39.947461,116.338732,北京市西城区西直门外大街137号北京动物园内,e93761f6b3e6ad72233bf28f,(010)68390274,1,e93761f6b3e6ad72233bf28f
马来貘馆,39.947227,116.343906,北京市西城区西直门外大街137号北京动物园内,510405bb7f9d3dd0bfa82250,(010)68390274,1,510405bb7f9d3dd0bfa82250
榆健园,39.971344,116.335666,篱笆房路,7f875ad72c22203717b54be1,,1,7f875ad72c22203717b54be1
北京交通大学-花园,39.956343,116.346616,北京市海淀区银杏大道,a8d4d63af6733b3ea0a934fa,,1,a8d4d63af6733b3ea0a934fa
生态馆,39.94681,116.342255,北京市西城区西直门外大街137号北京动物园鸟苑内,df03837fdba2e3b76c476010,,1,df03837fdba2e3b76c476010
世纪之翼,39.960333,116.305246,半壁街与厂洼街交叉口北100米,1ffc8b285a61e61c96f08c78,,1,1ffc8b285a61e61c96f08c78
积秀园,39.956047,116.346709,北京市海淀区西直门外上园村3号北京交通大学天佑会堂附近,8fa69de52b5c28c7b4265592,,1,8fa69de52b5c28c7b4265592
亚运熊猫馆,39.945655,116.346252,北京市西城区西直门外大街137号北京动物园熊猫馆内,af0ae2fc9c5e11c3921fc93f,,1,af0ae2fc9c5e11c3921fc93f
鬯春堂,39.946075,116.336591,北京市西城区西直门外大街137号北京动物园内,93a14cf3d6b98031e812e46e,,1,93a14cf3d6b98031e812e46e
北京动物园-鸣禽馆,39.946546,116.343598,西直门外大街137号附近,9577c44dab9fe75ed72ce2ef,,1,9577c44dab9fe75ed72ce2ef
雉鸡苑,39.945136,116.346983,北京市西城区西直门外大街137号北京动物园内,6deee308c96ed81428fc48b4,,1,6deee308c96ed81428fc48b4
国宝中华鲟馆,39.950783,116.347083,北京市海淀区高梁桥斜街乙18号北京海洋馆内,4a57de4a92079db7081cc736,,1,4a57de4a92079db7081cc736
育幼室,39.945411,116.347712,北京市西城区西直门外大街137号北京动物园内大熊猫馆东侧,f9fb63e969dfe6a9c8213dd8,(010)68390274,1,f9fb63e969dfe6a9c8213dd8
紫竹院公园临13号,39.945743,116.328991,北京市海淀区紫竹院公园,3c118860ea1d7f12c41b75c2,,1,3c118860ea1d7f12c41b75c2
叶猴馆,39.947149,116.338841,北京市西城区西直门外大街137号北京动物园内,c91b70493c89fda661685874,,1,c91b70493c89fda661685874
犀鸟馆,39.946545,116.341693,北京市西城区西直门外大街137号北京动物园鸟苑内,3ea7f8cbd84edeff14a190a8,,1,3ea7f8cbd84edeff14a190a8
西鹤岛,39.946845,116.33749,北京市西城区西直门外大街137号北京动物园内,5a76baa3dc78a4c214948eb0,,1,5a76baa3dc78a4c214948eb0
京城水系皇帝船动物园套票,39.946155,116.350662,北京市西城区西直门外大街135号,b315bf4531ec259741d63e13,,1,b315bf4531ec259741d63e13
荟芳轩,39.946276,116.345445,北京市西城区西直门外大街137号北京动物园内,,,1,6165b8294b8dc71288fc0627
林荫景观道,39.946115,116.349059,北京市西城区西直门外大街137号北京动物园内,56e95ed581608b3d2fe67b78,,1,56e95ed581608b3d2fe67b78
依绿亭,39.947022,116.345852,北京市西城区西直门外大街137号北京动物园内,a0ccc2a642557277167643bc,,1,a0ccc2a642557277167643bc
山魈,39.946783,116.338181,北京市西城区西直门外大街137号北京动物园内,dabc303dd6787ecbd618b7e8,,1,dabc303dd6787ecbd618b7e8
布拉格动物园图片展,39.945037,116.346149,北京市西城区西直门外大街137号北京动物园内,,,1,56fce5863128ec25213bf2f2
原驼,39.948039,116.344194,北京市西城区西直门外大街137号(北京动物园),3c685100083a503b28201abd,,1,3c685100083a503b28201abd
紫竹院公园-朝晖亭,39.94925,116.326852,北京市海淀区中关村南路35号紫竹院公园附近,c18196e2e65e0ca14d776eea,,1,c18196e2e65e0ca14d776eea
北京动物园扭角羚,39.946764,116.340597,西直门外大街143号,0711342eb3cd6866077ce8c7,,1,0711342eb3cd6866077ce8c7
北京植物园,40.007561,116.216186,北京市海淀区香山南路,550fd5f9c8d53478931fc9c4,(010)82598771,1,550fd5f9c8d53478931fc9c4
樱桃沟,40.016354,116.208664,北京市海淀区香山卧佛寺路北京植物园内,,,1,05dd7d5fbf9dbc01ad080f09
中国科学院植物研究所北京植物园,39.996988,116.217624,北京市海淀区香山南辛村20号,806c8ef5aa3942b349fd3fad,"(010)62836013,(010)62836063",1,806c8ef5aa3942b349fd3fad
牡丹园,40.007537,116.213612,香山路北京植物园,8e510511982f597bd813186a,(010)82598771,1,8e510511982f597bd813186a
北京植物园南区,39.995527,116.222277,北京市海淀区香山南辛村20号,650155d61918766693114ccd,,1,650155d61918766693114ccd
香山公园-碧云寺,40.003343,116.198581,买卖街40号香山公园内,78bd50f750025b5b31870a5c,,1,78bd50f750025b5b31870a5c
海棠园,40.00934,116.213602,北京市海淀区香山卧佛寺路北京植物园内,355ff04c78ae69aa8605bfa6,,1,355ff04c78ae69aa8605bfa6
北京丁香林,40.007132,116.216674,北京市海淀区香山卧佛寺路北京植物园内,8af96b221a22560853e5c5f9,(010)62591561,1,8af96b221a22560853e5c5f9
桃花园,40.00585,116.216277,北京市海淀区香山路与香山南路交叉口处,2838434c152242af82a12ec2,,1,2838434c152242af82a12ec2
碧桃园,40.006819,116.215614,北京市海淀区香山卧佛寺路北京植物园内,f129abd537377c1032621275,,1,f129abd537377c1032621275
香山公园-出口,40.002166,116.199885,香山公园内,e76738072a5cee7c28201a28,(010)62591222,1,e76738072a5cee7c28201a28
宿根花卉园,40.011685,116.213887,北京市海淀区卧佛寺路南辛村22号北京植物园内,62a07c835d18fdecece4a58a,,1,62a07c835d18fdecece4a58a
梅园,40.013565,116.210669,卧佛寺路南辛村20号北京植物园内,,,1,e90bdf55f892b2d5fbf0cba3
北京植物园-树木区,40.009744,116.217756,香山路北京植物园,7dd1cd3e35c262af02897204,,1,80d8d722a4e2f31bb45f1e58
现代月季区,40.001033,116.219801,北京市海淀区香山卧佛寺路北京植物园内,5b594f951af14a2cc4effb85,,1,5b594f951af14a2cc4effb85
水杉林,40.01515,116.209482,北京市海淀区香山卧佛寺路北京植物园内,,(010)62591561,1,851da63a189adf4b4f6d46f5
香山公园-翠微亭,39.994087,116.202264,北京市海淀区买卖街40号香山公园静宜园内,,(010)62591264,1,728e929ec3ce002743e192cb
紫薇园,40.000921,116.221703,北京市海淀区香山南辛村20号中国科学院植物研究所北京植物园内,7baa5731dbdd9d0a5cbe86c8,(010)82598771,1,7baa5731dbdd9d0a5cbe86c8
北京植物园-木兰园,40.01176,116.213422,北京市海淀区香山路与香山南路交叉口处,,,1,cd88f4b16bb50001badf8f1a
和平月季园,40.000435,116.220807,北京市海淀区香山南辛村20号中国科学院植物研究所北京植物园内,ceb43b1f0b9f5d6157bfff72,(010)62591561,1,ceb43b1f0b9f5d6157bfff72
槐园,39.995331,116.219783,北京市海淀区香山南辛村20号中国科学院植物研究所北京植物园内,e83c6027bcbc200b95f08cb5,,1,e83c6027bcbc200b95f08cb5
集秀园(竹园),40.013419,116.212468,北京市海淀区卧佛寺路南辛村20号北京植物园内,,,1,a031cf164b9c906aa7c7563b
绚秋苑,40.003357,116.217825,北京市海淀区香山卧佛寺路北京植物园内,f438ec0715bb6cc9d0ff23ad,,1,f438ec0715bb6cc9d0ff23ad
香山公园-洪光寺,39.993873,116.19853,北京市海淀区买卖街40号香山公园附近,d10b885026c50e6a6da3ccc6,,1,d10b885026c50e6a6da3ccc6
芍药茵,40.007327,116.212823,北京市海淀区香山路与香山南路交叉口处,1e9076f4bebe376c5b10937a,(010)62591283,1,1e9076f4bebe376c5b10937a
野生果树园,39.993445,116.222344,北京市海淀区香山南辛村20号中国科学院植物研究所北京植物园内,8b8ef5230969f1390c3dda7f,,1,8b8ef5230969f1390c3dda7f
沁香园,40.001993,116.202937,北京市海淀区香山煤厂街乙15号,d6ee87244bb957e0a9f0cdb1,,1,d6ee87244bb957e0a9f0cdb1
香山公园-知松园,39.99791,116.200946,北京市海淀区买卖街40号香山公园静宜园内,4cbae3511c8adecb932ca3e8,(010)62591264,1,4cbae3511c8adecb932ca3e8
香山公园-栖月崖,39.996206,116.192717,北京市海淀区买卖街40号香山公园静宜园内,108289fcba5beec551e5c577,(010)62591264,1,108289fcba5beec551e5c577
香山公园-香山松鼠,39.995467,116.191775,北京市海淀区买卖街40号,36cad97d7d5fe4ce25d2bb1d,(010)62599886,1,36cad97d7d5fe4ce25d2bb1d
北京植物园-芍药园,40.007327,116.212823,北京市海淀区香山路与香山南路交叉口处,,,1,be75d32e88f0d00228201a1b
红丁香组,40.00829,116.216175,北京市海淀区香山卧佛寺路北京植物园内,d73fe13f656fc1731d1d1129,,1,d73fe13f656fc1731d1d1129
金园北京丁香,40.008219,116.214678,北京市海淀区香山卧佛寺路北京植物园内,5e103a0afaa4b6388bb9884d,,1,5e103a0afaa4b6388bb9884d
香山公园-孙中山衣冠冢,40.004097,116.196284,北京市海淀区买卖街40号香山公园碧云寺内,065d364413dcd532d518b725,,1,065d364413dcd532d518b725
珍稀濒危园,39.995441,116.224195,北京市海淀区香山南辛村20号中国科学院植物研究所北京植物园内,db6f19b3855b92db48cc4a12,,1,db6f19b3855b92db48cc4a12
环保植物园,39.998438,116.220915,北京市海淀区香山南辛村20号中国科学院植物研究所北京植物园内,5e1b4d22c51ddd08fea77833,,1,5e1b4d22c51ddd08fea77833
宿根花卉区,39.997321,116.220422,北京市海淀区香山南辛村20号中国科学院植物研究所北京植物园内,6676c0213862bed94f6d46dd,,1,6676c0213862bed94f6d46dd
海棠栒子园,40.008897,116.212882,北京市海淀区卧佛寺路南辛村20号北京植物园内,d2d70682b4ada89bf4231044,,1,d2d70682b4ada89bf4231044
蔷薇园,39.996554,116.219937,北京市海淀区香山南辛村20号中国科学院植物研究所北京植物园内,379b6a70956a41b15d17c3eb,,1,379b6a70956a41b15d17c3eb
银杏松柏区,40.009948,116.218762,北京市海淀区卧佛寺路南辛村22号北京植物园内,283e694edf5070a4b54f5450,,1,283e694edf5070a4b54f5450
草药园,40.004284,116.219569,北京市海淀区香山卧佛寺路正白旗村39号曹雪芹纪念馆内,df88e429f3599f97581093b5,,1,df88e429f3599f97581093b5
梅园-山林游赏区,40.013565,116.210669,北京市海淀区香山路与香山南路交叉口处,,,1,e0436fd5cac76c3bb020a80a
树木园,39.996934,116.21964,北京市海淀区香山南辛村20号中国科学院植物研究所北京植物园内,8cea2b8367e2568b4054d74c,(010)62591283,1,8cea2b8367e2568b4054d74c
香山公园-平山亭,39.993158,116.199545,买卖街40号香山公园内,8d22c9e4a44a6824283a9fed,,1,8d22c9e4a44a6824283a9fed
泡桐白蜡区,40.010196,116.215561,卧佛寺路南辛村22号北京植物园内,1f986502a23643789cf779f6,,1,1f986502a23643789cf779f6
香山公园-朝阳洞,39.995564,116.189763,北京市海淀区买卖街40号香山公园内,,(010)62591264,1,ef5f13827d5ad6ab7dc876df
槭树蔷薇区,40.009655,116.21791,北京市海淀区香山路与香山南路交叉口处,5d23a13bb8fed1bd0782c2eb,,1,5d23a13bb8fed1bd0782c2eb
香山公园-林琪,39.996849,116.190929,北京市海淀区买卖街40号香山公园静宜园内,,,1,d29647cd59e7df13902ca377
本草园,39.994652,116.224374,北京市海淀区香山南辛村20号中国科学院植物研究所北京植物园内,d7d0bb86bd8b07b20ab93ad5,,1,d7d0bb86bd8b07b20ab93ad5
古老月季品种区,40.000217,116.217795,北京市海淀区卧佛寺路北京植物园,c6ed1bb600f3854c11882447,(010)62591561,1,c6ed1bb600f3854c11882447
玉簪园,39.99989,116.222005,北京市海淀区卧佛寺路北京植物园,30f2193543f97725a8059d7b,,1,30f2193543f97725a8059d7b
毛丁香组,40.00776,116.216245,北京市海淀区香山卧佛寺路北京植物园内,83a5d4570e47779b3a04b190,,1,83a5d4570e47779b3a04b190
桑榆园,39.994385,116.222095,北京市海淀区香山南辛村20号中国科学院植物研究所北京植物园内,c53e1de7c93f118645572664,,1,c53e1de7c93f118645572664
香山公园-凤楼松,40.000615,116.199077,买卖街40号香山公园内,d9ab1f4ded5a6c442efaa785,,1,d9ab1f4ded5a6c442efaa785
栎园,39.996941,116.220655,北京市海淀区香山南辛村20号中国科学院植物研究所北京植物园内,0a4fb82b78537289b01e36ff,,1,0a4fb82b78537289b01e36ff
香山公园-白松亭,39.992563,116.198512,买卖街40号香山公园内,4fd69fd2fd0e0664882fb56c,,1,4fd69fd2fd0e0664882fb56c
香山公园-驯鹿坡,39.995829,116.204317,买卖街40号香山公园内,7daa5d11c364019a40ab9aaa,,1,7daa5d11c364019a40ab9aaa
水生与藤本园,39.994866,116.222214,北京市海淀区香山南辛村20号中国科学院植物研究所北京植物园内,1c8ac6be175a36570869d9e3,,1,1c8ac6be175a36570869d9e3
丰花区,40.001058,116.218867,北京市海淀区卧佛寺路北京植物园,4494399bdab0ff579b68b4c7,(010)62591561,1,4494399bdab0ff579b68b4c7
岩后园,40.011262,116.214347,卧佛寺路北京植物园,be98acc4c31c76da8c55ec7a,,1,be98acc4c31c76da8c55ec7a
木兰小檗区,40.010668,116.217538,北京市海淀区香山路与香山南路交叉口处,dc42afa85be6bf0cac31e519,,1,dc42afa85be6bf0cac31e519
自然式栽植区,40.000343,116.219741,北京市海淀区香山卧佛寺路北京植物园内,a36344386643c5ecaa0dd8a1,(010)62591561,1,a36344386643c5ecaa0dd8a1
寻芳谷,40.007565,116.212845,卧佛寺路北京植物园,da6b6a4176fc25c7a1d2304e,(010)62591561,1,da6b6a4176fc25c7a1d2304e
松柏园,39.99374,116.2237,北京市海淀区香山南辛村20号中国科学院植物研究所北京植物园内,094fa8c9af146205d2f49e48,,1,094fa8c9af146205d2f49e48
藤本区,40.000994,116.218147,北京市海淀区卧佛寺路北京植物园,84feab0ee6f4241740e192e2,(010)62591561,1,84feab0ee6f4241740e192e2
香山公园-水帘洞,40.001139,116.199718,北京市海淀区买卖街40号香山公园内,d4c28a2f7e5d16db9f09f72f,(010)62599886,1,d4c28a2f7e5d16db9f09f72f
颐和园,40.004869,116.278749,北京市海淀区新建宫门路19号,2a7a25ecf9cf13636d3e1bad,(010)62881144,1,2a7a25ecf9cf13636d3e1bad
北坞公园,39.993037,116.263064,北京市海淀区颐和园西门外,d24e48ebeb4b2aadaeee7ae4,,1,d24e48ebeb4b2aadaeee7ae4
北京市颐和园管理处,40.002914,116.289066,北京市海淀区宫门前街甲23号-南门,bb1d38e489272f330d0a708f,(010)62881144,1,bb1d38e489272f330d0a708f
两山公园,39.997848,116.264321,北京市海淀区金河路,6ed3083a7a4c86ca2b3a9f2a,,1,6ed3083a7a4c86ca2b3a9f2a
中央党校南院,40.007489,116.291788,北京市海淀区颐和园路大有庄100号,2ca8a97831a9d7946b49f30b,,1,2ca8a97831a9d7946b49f30b
玉泉公园,39.989836,116.256684,万安东路,35debf297acab139a6da39d7,,1,35debf297acab139a6da39d7
影湖楼公园,39.992549,116.255546,北京市海淀区茶棚路3号,24a3a33a07f8a7a540afe6d2,,1,24a3a33a07f8a7a540afe6d2
药用植物园,40.040936,116.279157,北京市海淀区马连洼北路151号,26ce6880a1591b9a71210bfc,,1,26ce6880a1591b9a71210bfc
马莲园,40.042763,116.276001,北京市海淀区永丰路马莲园(中国银行信息中心北50米),972f387512e7aeead72ce233,,1,972f387512e7aeead72ce233
北坞公园-金山寺,39.991948,116.261624,北京市海淀区北坞村路29号,306e0c4667e585f69c9d68c1,,1,306e0c4667e585f69c9d68c1
海淀公园,39.99242,116.302269,北京市海淀区新建宫门路2号,92df8c20d3c448cf52e5c5f5,,1,92df8c20d3c448cf52e5c5f5
圆明园遗址公园,40.012658,116.309804,北京市海淀区清华西路28号,62d852adf09e449a2fb17ef5,(010)62543673,1,62d852adf09e449a2fb17ef5
东升八家郊野公园,40.025958,116.344821,北京市海淀区东升乡双清路5号,7337f87b6ad4a8618c55ec29,,1,6dc3a2187022eae02cb96d77
中关村广场公园,39.988144,116.317031,北京市海淀区海淀大街中关村广场萨利宅院,d646d6e5a49e86dbfbdc8573,(010)62537730,1,d646d6e5a49e86dbfbdc8573
凝聚园,39.98927,116.339407,北京市海淀区中关村东路89号,d434ed9a2a2a458ab2077d7d,,1,d434ed9a2a2a458ab2077d7d
清河燕清体育文化公园,40.040238,116.34545,海淀区清河毛纺路26号,c7fb04bdd29af815fb0cada8,(010)62936340,1,c7fb04bdd29af815fb0cada8
树村郊野公园,40.033199,116.310436,北京市海淀区树村路农大南路交叉口东,df48b38fea68e7ece5e965ce,,1,df48b38fea68e7ece5e965ce
荷清园,40.022589,116.331922,北京市海淀区荷清路清华附中北,9e7a22b459d8bc69fda778ff,(010)83568537,1,9e7a22b459d8bc69fda778ff
东升八家郊野公园-东区,40.026124,116.347369,北京市海淀区东升八家郊野公园东区(五环南),49bafbdb24cbe45dabf729d3,,1,49bafbdb24cbe45dabf729d3
王庄公园,40.006034,116.350913,北京市海淀区清华东路王庄公园(北京林业大学南50米),08d18e3a0cb1bebe9d9d68c5,,1,08d18e3a0cb1bebe9d9d68c5
AI未来公园,39.993215,116.301665,北京市海淀区新建宫门路2号,,,1,b871421f667b09218c55ecd3
美和园公园,40.040883,116.329502,北京市海淀区小营西路48号(安宁庄西路与小营西路交叉口),9fbe65132adeaefeabf72952,,1,9fbe65132adeaefeabf72952
清华东路带状公园,40.006248,116.353585,清华东路24号附近,7b4d7be55a4ebe21bda24058,,1,7b4d7be55a4ebe21bda24058
圆明园-万园之园,40.008478,116.316647,北京市海淀区清华西路28号圆明园遗址公园内,,(010)62558214,1,bf8c72484ada993cb64f543c
亮丽园,40.00345,116.299242,北京市海淀区中直路与二龙闸路交叉口东北100米,,,1,4396f92e1da427243617dc21
万泉文化公园,39.997652,116.307814,海淀区中直东路(近万泉河路),4f363cda8b8c23ef6c3e1b79,,1,4f363cda8b8c23ef6c3e1b79
爱之园,40.036519,116.326817,北京市海淀区上地南路爱之园(北京体育大学北150米),4edf9fbff1cb1094cd06a4a8,,1,4edf9fbff1cb1094cd06a4a8
花港观鱼,40.018503,116.30489,北京市海淀区清华西路28号圆明园遗址公园西北景区内,d46d1f50a17883be6c3e1be7,,1,d46d1f50a17883be6c3e1be7
旗舞广场公园,40.034486,116.356594,北京市海淀区清河G6旗舞广场公园(水木天成旁),6e0f2f5c722ab466112935f5,,1,6e0f2f5c722ab466112935f5
东升清河培黎公园,40.028124,116.355648,海淀区清河南大街(近五环路培黎大学),f4a33da923ca0d093110afa8,,1,f4a33da923ca0d093110afa8
东升八家郊野公园-南区,40.021533,116.342003,北京市海淀区双清路5号附近,c594b7c83f7542b1c51e5146,,1,58184e6b7d21c7375a3ac8e6
憩园,40.037019,116.319343,北京市海淀区信息路,3ccf67ace0302fab14a1908e,,1,3ccf67ace0302fab14a1908e
东升八家郊野公园-北区,40.027745,116.345221,北京市海淀区东升镇月泉路东升八家郊野公园北区,9129247371fed3bc0782c235,,1,9129247371fed3bc0782c235
花房,40.01287,116.327736,清华大学何添楼北侧,4ea8437afc90eeec13293550,,1,4ea8437afc90eeec13293550
圆明园庙会,40.018676,116.32448,清华西路28号,881a28e7aa98835ef942b253,,1,881a28e7aa98835ef942b253
海淀公园-淀园花谷,39.993864,116.304355,万泉河桥与万泉河路交叉口西150米,,,1,2884e8bbe8145d63c356ac42
旗颂健康公园,40.042424,116.350178,G6辅路东50米,0b5393cae2ff218a90114cd9,,1,0b5393cae2ff218a90114cd9
海淀公园-万泉漱玉,39.991973,116.30161,万泉河路辅路西200米,,,1,5c1ee4b0e9e4d32d2b3a9fc0
东升八家郊野公园-京林园林,40.022363,116.341278,中关村北大街23号,6a80dd4dc3bf3715a3acc4f0,,1,6a80dd4dc3bf3715a3acc4f0
清华园,40.006851,116.330962,北京市海淀区双清路30号(清华大学内),844a750e925cf1b9636858ab,(010)62793001,1,79fc7f52490487591676431e
北京西山森林音乐谷,40.085977,116.114792,北京市海淀区西山森林音乐谷(七王坟路南),,,1,a0db3f2e75a3766959bbbc62
海淀区集体生态林景观林,40.070227,116.156451,高里掌路北50米,fcac2a0c4fb92c860482c210,,1,fcac2a0c4fb92c860482c210
苏家坨柳林村二月兰花海,40.089008,116.149796,苏家坨西路,,,1,5072446f05af63d58bf15d9d
稻香湖公园,40.098775,116.188155,北京市海淀区稻香湖路,62e32d476be0c4b22fb17ef1,,1,62e32d476be0c4b22fb17ef1
齐物潭,40.069484,116.184807,地锦路5号,f80b26fcfc4cdda1a5da390e,,1,f80b26fcfc4cdda1a5da390e
温泉公园,40.055352,116.188506,北京市海淀区显龙山路,a9557856b27edf51eedfca2c,,1,a9557856b27edf51eedfca2c
东埠头沟公园,40.068661,116.198063,北京市海淀区稻香湖路辅路,8a5a8e1c76a1bb93ea12e410,,1,8a5a8e1c76a1bb93ea12e410
稻香湖温泉馆-稻香湖湿地,40.09876,116.188163,稻香湖路,,(010)62460391,1,40446c2ce7817266ad31e550
温泉公园-东区,40.054992,116.187481,显龙山路温泉镇人民政府附近,023952b22db19329441a32a0,,1,023952b22db19329441a32a0
温泉公园-西区,40.055483,116.186834,温北路与白家疃西路交叉口西南150米,c606c77b4b7cbb0338221ccc,,1,c606c77b4b7cbb0338221ccc
中关村森林公园,40.068669,116.291663,北京市海淀区唐家岭土井村路45号,b6c27dadfd416a6ae9f853e5,,1,b6c27dadfd416a6ae9f853e5
航天湖公园,40.077114,116.269708,北京市海淀区,75619d07d5a03406081cc7b6,,1,75619d07d5a03406081cc7b6
百旺公园,40.049224,116.266298,太舟坞路与马连洼西路交叉口北150米,07f3c8b5efd68b636340a9a8,,1,07f3c8b5efd68b636340a9a8
科技绿心公园,40.085534,116.232388,北京市海淀区永澄北路与丰润中路交汇处,,,1,0ebcda90fe11282f4007c148
百旺公园西区,40.052398,116.257276,西北旺百旺公园西区(太舟坞路北),d20733aa71cb2423eee4a593,(010)62884508,1,d20733aa71cb2423eee4a593
回龙园公园,40.088853,116.331389,北京市昌平区回龙观镇风雅园二区1号,2cc3c8e8224aa5d64d2fdf6b,,1,2cc3c8e8224aa5d64d2fdf6b
水景公园,40.088029,116.33047,北京市昌平区回龙观风雅园二区对面,aa8ffbe4916f4bb10782c2ab,,1,aa8ffbe4916f4bb10782c2ab
回龙观体育公园,40.084608,116.348467,北京市昌平区回龙观西大街,db1f39d4962e5d76f5c59c0c,,1,db1f39d4962e5d76f5c59c0c
南店公园,40.068722,116.345455,北京市昌平区太平庄北街,0a0e63b8b5f5ed481d580098,,1,0a0e63b8b5f5ed481d580098
碧水风荷公园,40.045475,116.345094,清河小营桥西侧,3da907f3eb8c0853b220a8a8,,1,3da907f3eb8c0853b220a8a8
休闲公园,40.048891,116.353822,北京市海淀区前屯路西150米,,,1,6e3a072037688f1cf6c59c8e
快乐成长家庭人口文化园,40.056609,116.316119,西二旗大街南150米,876eafb88d1021a403ff2d49,,1,876eafb88d1021a403ff2d49
昌平区京投发展公园,40.096978,116.358147,京投发展公园,,,1,643b4523c3408a2808b93aa6
阳坊公园,40.146209,116.158318,裕成街与阳坊东街交叉口东北100米,d36a7fc787b8d026b05c6a8e,,1,d36a7fc787b8d026b05c6a8e
同泽秋园,40.110884,116.141497,北京市海淀区柳泉路,,,1,0e520c0a7e90ae1d873304f3
同泽春园,40.109938,116.148347,苏二路与苏四路交叉口西南150米,b62dd23b4323a114c829157d,,1,b62dd23b4323a114c829157d
五洲绿色生态文化园,40.11979,116.133002,北京市海淀区苏家坨镇台头梁家园路杨光采摘园附近,897faefeea1b6d000ab93a06,,1,897faefeea1b6d000ab93a06
翠湖国家城市湿地公园,40.10931,116.192626,北京市海淀区上庄镇翠湖北路,72aa251397f3f647067ce8aa,(010)62486799,1,72aa251397f3f647067ce8aa
东小营公园,40.128739,116.215115,北京市海淀区上庄镇东小营甲1号,4e55bc32cd393eedad080f27,,1,4e55bc32cd393eedad080f27
西闸村公园,40.153412,116.207297,北京市海淀区上庄路,eeb072885c6e93decafa5f8c,,1,eeb072885c6e93decafa5f8c
药食不分植物园,40.107577,116.212364,北京市海淀区马坊中路,8f4225e6a8329949f4b9165b,,1,8f4225e6a8329949f4b9165b
朝宗桥公园,40.139277,116.272208,北京市昌平区沙河朝宗桥公园(6国道西),576524d66d18d4daf4e73b32,,1,576524d66d18d4daf4e73b32
民园小区南公园,40.1443,116.279708,北京市昌平区X032,,,1,7caf8c4de55df6bdc4f50ddc
北京亿城大学花草公园,40.1125,116.246857,北京市海淀区南沙河东路西100米,6eb4b3da70909b101d1d1136,,1,6eb4b3da70909b101d1d1136
久玖鳄鱼湖公园,40.148826,116.261824,北京市昌平区沙河镇李庄路久玖鳄鱼湖公园,,,1,b6a41c964e90c4e9cf04efaf
民园小区西公园,40.143534,116.274228,北京市昌平区S216(京藏高速辅路),,,1,2d619c80e2908c552efaa7c0
滨河森林公园,40.137779,116.306034,北京市昌平区南门大道巩华城东侧,cdf5ad59d3519e498bfc066c,,1,cdf5ad59d3519e498bfc066c
白各庄生态湿地,40.135282,116.347728,北京市昌平区沙河水库东,566a0a2e909055472cb9086a,,1,566a0a2e909055472cb9086a
沙河闸公园,40.136352,116.351036,北京市昌平区沙河镇北京红枫湖高尔夫俱乐部北,eef2d5286e0693da3be4a69d,,1,eef2d5286e0693da3be4a69d
后海公园,39.94858,116.388718,北京市西城区松树街1号,7aea43b721dd95e17d29bda4,,1,7aea43b721dd95e17d29bda4
北海公园,39.932909,116.39548,北京市西城区文津街1号,49d959381b59a043c61e5102,(010)64033225,1,49d959381b59a043c61e5102
什刹海公园,39.947583,116.391128,北京市西城区地安门西大街49号,c21db9e5111538fe00ff2d32,,1,c21db9e5111538fe00ff2d32
海棠花溪,39.982939,116.403594,北京市朝阳区北土城东路甲100号元大都遗址公园内(近樱花园西街),f1f5cac52360388137b06ce1,,1,f1f5cac52360388137b06ce1
人定湖公园,39.963484,116.39247,北京市西城区安德路六铺炕15号(黄寺大街南侧),dffd4642d2e8b1b23c9a5e02,(010)62023200,1,dffd4642d2e8b1b23c9a5e02
双秀公园,39.972598,116.381297,北京市西城区北三环中路20号,ac50d021a66d8ce503ff2d9c,(010)62011695,1,ac50d021a66d8ce503ff2d9c
官园公园,39.941994,116.367528,后广平胡同36号,d7fd2ad30304a4550bccddd9,,1,d7fd2ad30304a4550bccddd9
青年湖公园,39.961277,116.408933,北京市东城区安定门外安德里北街,083a55fa38d91279246e98d3,(010)84116321,1,083a55fa38d91279246e98d3
元土城遗址公园,39.981348,116.368049,北京市海淀区北土城西路,a82e1df2c2355310d1f49e9a,,1,a82e1df2c2355310d1f49e9a
北滨河公园,39.956317,116.397491,北京市西城区安德路102号,3be122e153a5a9521ef74d02,(010)62011470,1,3be122e153a5a9521ef74d02
柳荫公园,39.967217,116.408397,北京市东城区安外黄寺大街8号,92a56242524a584e08ccdd44,(010)84131660,1,92a56242524a584e08ccdd44
什刹海西海湿地公园,39.954386,116.380348,北京市西城区德胜门西大街什刹海西海,,,1,a167eac42c6cf07e0bf5eb28
马甸公园,39.978533,116.386326,北京市海淀区马甸东路,923ffd00df698db7d82f28a9,,1,923ffd00df698db7d82f28a9
顺城公园,39.932395,116.363157,北京市西城区阜成门桥东100米(宫门口四条南),190a506d118b6523f33cba53,,1,190a506d118b6523f33cba53
玫瑰公园,39.976554,116.38833,北京市西城区马甸桥东北角,4642844abb1a8ac0c8fa5fe7,,1,4642844abb1a8ac0c8fa5fe7
新街口城市森林公园,39.94738,116.378257,新街口北大街南端(西直门内大街东端),e703302499bb87cc14b54b58,,1,e703302499bb87cc14b54b58
安贞社区公园,39.978641,116.405652,安贞街道辖区内安贞西里社区,04bdf4a319bbc14f344aae93,,1,04bdf4a319bbc14f344aae93
涌溪公园,39.976341,116.413083,安定路32号,b1c556e8c1a88d0cb5265592,,1,b1c556e8c1a88d0cb5265592
北二环城市公园,39.955087,116.419017,北京市东城区安定门东滨河路52号,d52831f9703c47db2ffaa7ba,,1,d52831f9703c47db2ffaa7ba
元大都城墙遗址公园西区,39.982411,116.418391,北土城东路与小关东街交叉口东南200米,8f4606ec0cb2f2be7ec87605,,1,8f4606ec0cb2f2be7ec87605
德胜公园,39.954554,116.389114,北京市西城区西绦胡同117号附近,4bb049d9159a944799005002,(010)82027882,1,4bb049d9159a944799005002
元大都城垣遗址公园-北京百鸟园,39.981964,116.397456,北京市朝阳区北土城西路18号附近,3a2dbc385f5f319440ab9a29,,1,3a2dbc385f5f319440ab9a29
北海公园-北海静心斋,39.938857,116.395761,北京市西城区文津街1号北海公园,606289fd2e01364da2046402,(010)64037972,1,606289fd2e01364da2046402
龙头井微公园,39.939876,116.394264,北京市西城区龙头井街37号,,,1,2e062d85adc2a800dbeced4a
北海公园-五龙亭,39.936291,116.392868,北京市西城区文津街1号(故宫北)北海公园内,9ee7cc78f07cbd7016c90502,(010)64033225,1,9ee7cc78f07cbd7016c90502
小月河生态办公园,39.981072,116.370727,海淀区塔院地区小月河,d8387cecca426b132ffaa7da,,1,d8387cecca426b132ffaa7da
地坛公园-方泽坛,39.959078,116.422457,北京市东城区安定门外大街2号地坛公园内,249c4d8c5156676628201ada,(010)84257506,1,249c4d8c5156676628201ada
北海公园(北岸),39.939377,116.396427,北京市西城区地安门西大街24附近,3146b0a26ba64b33c42ba1bb,,1,3146b0a26ba64b33c42ba1bb
安华园,39.973873,116.401521,北京市朝阳区安华西里一区(安华桥地铁站东南),7ac732daf1675d9388b9883d,,1,7ac732daf1675d9388b9883d
安定门健身乐园,39.955901,116.419678,北二环出口与安定门东大街交叉口北100米,13d3a85b9b08536d6140a9fa,,1,13d3a85b9b08536d6140a9fa
怡心园,39.948689,116.363967,北京市西城区西直门北顺城街11号院,8a5497907beec697bca822e9,(010)89289068,1,8a5497907beec697bca822e9
西城景山公园西门充电桩,39.933758,116.400278,景山西街44号,d6ace0dd1d7b57daab0dd813,,1,d6ace0dd1d7b57daab0dd813
北海公园-北海荷花船,39.938048,116.397755,北京市西城区文津街1号(故宫北)北海公园内,e6bbfad6f2bcb0074054d76d,,1,e6bbfad6f2bcb0074054d76d
地坛公园-方泽南畝,39.960625,116.419719,地坛公园内斋宫西墙北门,,,1,5b6c468d8b3b4c08e31103fa
景山公园井亭,39.933515,116.402384,北京市西城区景山公园内,9b4ae6861c48e2d096ca076c,(010)64038098,1,9b4ae6861c48e2d096ca076c
华佗,39.961802,116.42361,北京市东城区安定门外大街甲2号地坛公园东北角地坛中医药养生文化园内,3e6de36bc5f222722b3a9fcc,,1,3e6de36bc5f222722b3a9fcc
游园驾梦,39.950494,116.414996,安定门内大街与方家胡同交叉口东北50米,,,1,fa06f4165d46c425841541b8
景山公园关帝庙,39.932813,116.405462,景山西街44号景山公园内,5a8ea003f0cb5690eaf85353,,1,5a8ea003f0cb5690eaf85353
北海公园(陟山桥),39.932032,116.396896,文津街1号北海公园内,dd0035a5358b6d2f3904b187,,1,dd0035a5358b6d2f3904b187
曦园,39.966974,116.37344,北京市海淀区新街口外大街19号北京师范大学,a45b038882396a8a2efaa7c5,,1,a45b038882396a8a2efaa7c5
地坛公园-望和亭,39.9614,116.423053,安定门外大街甲2号附近,ca2a39c68f56d9c0c4f50d12,,1,ca2a39c68f56d9c0c4f50d12
青年湖公园-健身乐园,39.962329,116.408366,安德里北街26号附近,0ac7aa113faa00e9c91b95d4,,1,0ac7aa113faa00e9c91b95d4
地坛公园-宰牲亭,39.958483,116.42042,北京市东城区地坛公园西门外地坛医院对面安外大街派出所附近,145bba00970776905810939a,,1,145bba00970776905810939a
北海公园-华藏界,39.937708,116.394662,北京市西城区文津街1号(故宫北)北海公园内,5c28143d7c33b60d213bf230,,1,5c28143d7c33b60d213bf230
北海公园-龙泽亭,39.936063,116.392483,北京市西城区文津街1号北海公园铁影壁(东门)附近,e8bca0aca6939a12455726ee,,1,e8bca0aca6939a12455726ee
景山公园-槐中槐,39.933661,116.404112,北京市西城区景山西街44号(故宫后门对面)景山公园内,26e8840a61d75a087bf796c1,,1,26e8840a61d75a087bf796c1
景山公园关帝庙,39.942462,116.377486,北帽胡同15,,,1,14a862360c16420dbd484257
北海公园-庆霄楼,39.931749,116.394251,文津街1号北海公园,5b946d24ce69a18ea3acc4bc,,1,5b946d24ce69a18ea3acc4bc
北海公园-澄祥亭,39.936182,116.392687,北京市西城区文津街1号北海公园铁影壁(东门)附近,a835d11234ee26f9f019379e,,1,a835d11234ee26f9f019379e
北海公园-澄观堂,39.93684,116.393371,北京市西城区文津街1号北海公园九龙壁(后门)附近快雪堂书法博物馆内,1b40c8abfaea31fa1d1d11d2,,1,1b40c8abfaea31fa1d1d11d2
地坛公园-长廊序,39.961367,116.423816,北京市东城区安定门外大街甲2号地坛公园东北角地坛中医药养生文化园内,33651499d641e0d11ce999a8,,1,33651499d641e0d11ce999a8
地坛公园-导游图,39.959663,116.419335,北京市东城区广厚街,f81e49536c38f89194031994,,1,f81e49536c38f89194031994
御用龙舟环湖游览,39.936803,116.393911,北京市西城区教场胡同,bf2d441cecc4cc9f6240a9ae,,1,bf2d441cecc4cc9f6240a9ae
团结湖公园,39.931586,116.471053,北京市朝阳区团结湖南里16号,65583e7e4700f1b5f5c59c87,(010)65061364,1,65583e7e4700f1b5f5c59c87
四得公园,39.977874,116.480987,北京市朝阳区将台西路9号,964362f04c359931b020a811,,1,964362f04c359931b020a811
太阳宫公园,39.98142,116.460467,北京市朝阳区太阳宫中路6号,d1c810b2216cfa0e40ab9a0c,,1,d1c810b2216cfa0e40ab9a0c
丽都公园,39.980518,116.486323,朝阳区芳园西路6号(近宵云桥),61f634f6f389eb616a49f383,(010)57152886,1,61f634f6f389eb616a49f383
南馆公园,39.949596,116.434247,东直门大街西羊管胡同甲1号,6578680ff3fc45522bd7ab16,(010)84012558,1,6578680ff3fc45522bd7ab16
香河园公园,39.959625,116.455809,左家庄,5ea84ce0c349cd804c6d4618,,1,5ea84ce0c349cd804c6d4618
新中街城市森林公园,39.93831,116.446616,北京市东城区新中街东巷6号,,,1,b72f164ecb724fe48f1a891b
东四奥林匹克社区公园,39.93402,116.439981,豆瓣胡同2号楼东南侧,34e485081e332ce2d8d891d3,(010)84134152,1,34e485081e332ce2d8d891d3
夏园,39.959567,116.461494,朝阳区三元里街10临1号附近,9ee392b851c01941babd6392,,1,9ee392b851c01941babd6392
将台滨河公园,39.972938,116.488177,东四环北路6号,3a13026b887d685f42d63e88,,1,3a13026b887d685f42d63e88
左家庄科普廉政文化公园,39.954672,116.44967,东直门外24路总站边上,dfa45a331981bd92d4851f0d,,1,dfa45a331981bd92d4851f0d
冬园,39.956394,116.46314,顺源街4号,763a09d6c89b138bb8bd6354,,1,763a09d6c89b138bb8bd6354
朝阳公园导游图,39.954185,116.482167,北京市朝阳区左岸附近,883e9b6febc57ed049fd3f02,,1,883e9b6febc57ed049fd3f02
芳沁园,39.959248,116.441565,西坝河七胜路6号院,53cebd509155a7602a02e126,,1,53cebd509155a7602a02e126
元大都城垣遗址公园-凉亭,39.982328,116.427428,北京市朝阳区安外小关街甲38号元大都城垣遗址公园内,e4c99425b96f8bf3dc1e5229,(010)84648252,1,e4c99425b96f8bf3dc1e5229
金色怡人公园,39.974293,116.450853,西坝河东里小区57号楼西坝河东路,4eb3b533d758fb7542024592,,1,4eb3b533d758fb7542024592
朝阳公园-亲子动物乐园,39.943796,116.485861,北京市朝阳区朝阳公园南路1号朝阳公园内欢乐岛亲子动物乐园,1de9278406ca171bb020a876,(010)65019743,1,1de9278406ca171bb020a876
朝阳公园-方舟湖,39.947737,116.488281,北京市朝阳区农展南路1号朝阳公园内,bfa4094e74349682b64f548e,,1,bfa4094e74349682b64f548e
朝阳公园停车场-南(出入口),39.939864,116.489765,朝阳公园南路与枣营路交叉口东100米,0e89019a601d60a548cc4a1e,,1,0e89019a601d60a548cc4a1e
乐雅园,39.968509,116.431308,青年沟路与和平里东街交汇,75d0881ae0f527333b04b189,,1,75d0881ae0f527333b04b189
金隅京体健身休闲中心南湖体育公园,39.985563,116.466194,阜通西大街20号院1号楼A区,519d8adb74008f4e3517dc9a,(010)64738813,1,519d8adb74008f4e3517dc9a
朝阳公园-生命之源,39.949572,116.490506,北京市朝阳区农展馆北路附近,9a3ea8475b1fa3c3843304c0,,1,9a3ea8475b1fa3c3843304c0
团结湖公园-人口文化园,39.931889,116.473147,团结湖路33附近,456ac75653f038c0c4f50d7d,,1,456ac75653f038c0c4f50d7d
朝阳公园-太上老君庙,39.952101,116.489959,农展馆北路附近,e1c33ce9eaa300850f0e6b13,,1,e1c33ce9eaa300850f0e6b13
董海川文化园,39.959156,116.441289,北京市朝阳区柳芳南里社区(西坝河南路东),fb740bf3e0f92027bd4842ef,,1,fb740bf3e0f92027bd4842ef
朝阳公园-欧陆风韵,39.948778,116.487082,朝阳公园西三门,00f2b2f3d3262b6326e0a0ca,,1,00f2b2f3d3262b6326e0a0ca
朝阳公园西里南区8号,39.944219,116.478191,北京市朝阳区北京golf公寓5号302室,39995fb6e853b92da2d230f3,,1,39995fb6e853b92da2d230f3
洛克公园,39.98389,116.463642,北京市朝阳区太阳宫北四环东路6号院11号,deb7d42f5c309597d23ce339,,1,deb7d42f5c309597d23ce339
北京化工大学启荣园,39.978216,116.427536,北京市朝阳区,42d532c1ad1d1dc44c6d46dc,,1,42d532c1ad1d1dc44c6d46dc
朝阳公园-中心岛,39.952999,116.486497,北京市朝阳区农展南路1号朝阳公园内,84cb774d9000eafab42655e5,,1,84cb774d9000eafab42655e5
丽都公园-草坪婚礼酒店,39.98036,116.486828,北京市朝阳区芳园西路6号(东北四环宵云桥外300米),,(010)57152886,1,ef48f38839aeef528936ee4d
团结湖公园-云山,39.931695,116.472815,北京市朝阳区团结湖南里16号团结湖公园内,90851af6a1184052a104640e,,1,90851af6a1184052a104640e
团结湖公园-水阁荷香,39.932837,116.471777,团结湖南里16号团结湖公园内,24b3a4dbfb89ef4d02ec0158,,1,24b3a4dbfb89ef4d02ec0158
团结湖公园-流水照壁,39.931657,116.46907,团结湖南里16号团结湖公园西门,7680e07f4315685e53e5c5ba,,1,7680e07f4315685e53e5c5ba
朝阳公园停车场-入口,39.953177,116.48037,枣营北里1号麦子店派出所附近,d38ee335252bc29bab059df1,,1,d38ee335252bc29bab059df1
朝阳公园-凉亭,39.957255,116.491458,北京市朝阳区农展南路1号朝阳公园内,438a2fca8daf0d88c4f0259b,(010)65953490,1,438a2fca8daf0d88c4f0259b
约翰·斯特劳斯花园,39.950319,116.483896,北京市朝阳区朝阳公园南路1号朝阳公园内,ab9ee16ed6fc4c3a2e473320,,1,ab9ee16ed6fc4c3a2e473320
朝阳公园枪林弹雨,39.942354,116.487802,北京市朝阳区朝阳公园南路1号朝阳公园内,998fa34edc8dc231901fc9ed,,1,998fa34edc8dc231901fc9ed
朝阳公园-小白象戏水,39.944089,116.487325,北京市朝阳区农展南路1号朝阳公园内,c050dc91a3b56ba4cd04ef68,,1,c050dc91a3b56ba4cd04ef68
8商品部朝阳公园,39.94575,116.488592,北京市朝阳区,,,1,d092e3c19927606bb8bd632a
将府公园,39.977849,116.518823,北京市朝阳区将台东路甲16号,4ce10ce6f43a04a1451a3289,(010)64360177,1,4ce10ce6f43a04a1451a3289
红领巾公园,39.9319,116.498608,北京市朝阳区后八里庄5号,b43dededd423e9ba9e95de2c,(010)85810901,1,f3bb67513c92745c9d95deb8
东风公园,39.964128,116.526641,东风乡姚家园北二路1号（梵谷水郡东1.1公里）,38e48037a40c7234373a71e2,,1,38e48037a40c7234373a71e2
丁香园,39.980887,116.508827,北京市朝阳区将台乡驼房营路丁香园,9461524107edf533eaf85365,,1,9461524107edf533eaf85365
东风公园停车场-出入口,39.961319,116.523329,中心路与青年北路交叉口东南150米,37b6f08760b7861f28b97c80,,1,37b6f08760b7861f28b97c80
京城体育休闲公园,39.951807,116.54128,北京市朝阳区姚家园路京城体育休闲公园,9e880d73b2509bca03ec015f,,1,9e880d73b2509bca03ec015f
郡王府步行街公园,39.941065,116.492675,朝阳公园南路21号,5d02ee374fa4343b4d554716,,1,5d02ee374fa4343b4d554716
朝阳区体育健身休闲公园,39.953832,116.532845,北京市朝阳区姚家园路与朝体中心东侧路交叉口西北150米,3ad8d71a8761a1bd84154107,(010)85573990,1,3ad8d71a8761a1bd84154107
润清湖公园,39.934273,116.518951,北京市朝阳区青年路154号,508aa31518cc7fc03f9a5e79,,1,508aa31518cc7fc03f9a5e79
朝阳公园-蒙古风情园,39.943503,116.494243,北京市朝阳区朝阳公园南路朝阳公园蒙古风情园,0051c9d2a47a873eb64f54a8,"(010)65991997,(010)85989839",1,0051c9d2a47a873eb64f54a8
颐堤港公园,39.976377,116.499831,酒仙桥路18号颐堤港购物中心东边(将台地铁站),afbd1d31e31c93310c3dda12,(010)84260660,1,afbd1d31e31c93310c3dda12
驼房营公园,39.977577,116.506551,北京市朝阳区将台路8号楼东南70米,,,1,a242ce38907f5bcb71455b89
朝阳公园-将军林,39.946295,116.495222,北京市朝阳区东四环北路辅路附近,cda1cf42f8c881cf90114ca8,(010)65953490,1,cda1cf42f8c881cf90114ca8
滨河公园,39.977867,116.513333,北京市朝阳区丽都东镇·滨河1号(将台东路南),e62635f86817ebae45572604,,1,e62635f86817ebae45572604
东风汇,39.963767,116.522082,七棵树路与青年北路交叉口南150米,,,1,064c9ad4ab8a2dc1df1e5267
将府公园北区,39.986069,116.517941,将台东路,7b44bd87409ccdb1f7b91604,,1,7b44bd87409ccdb1f7b91604
东风公园-东方养生园,39.960935,116.52496,北京市朝阳区东风乡青年北路东风公园东方养生园,d21cdf6429382634b45f1e8e,,1,d21cdf6429382634b45f1e8e
朝阳公园-北部生态混交林,39.960172,116.493973,北京市朝阳区朝阳公园南路1号朝阳公园内,,,1,562752be01cf8c601d5800cb
红领巾公园-水上娱乐区,39.932294,116.49886,北京市朝阳区八里庄5号红领巾公园内,a8fb422c6c7c1085b917e767,,1,a8fb422c6c7c1085b917e767
东风公园-春花园,39.961879,116.527809,北京市朝阳区,,,1,b9b743020ce672aa2b3a9f07
东风公园-林中广场,39.962589,116.525065,青年北路东200米,2f77cc9dc90fb7382811d107,,1,2f77cc9dc90fb7382811d107
逸拍即和乒乓健身园,39.949902,116.526947,北京市朝阳区姚家园东里中路,ab87159adcc22bd4c3364463,,1,ab87159adcc22bd4c3364463
朝阳公园充气城堡(冬季),39.945573,116.492618,北京市朝阳区朝阳公园,,,1,35a1e60f52785a8696ca074a
东坝郊野公园(管庄路),39.95581,116.58128,北京市朝阳区东坝乡东五环外康各庄路,43715b156fba813000ec01d9,13501019530,1,43715b156fba813000ec01d9
常营公园,39.941066,116.588743,北京市朝阳区常营中路,c21db9e575af548301ff2d89,,1,c21db9e575af548301ff2d89
京城梨园公园,39.939721,116.55747,北京市朝阳区平房路,8b652b2a1f7075dabfa8229e,(010)85574859,1,8b652b2a1f7075dabfa8229e
圣隆体育公园,39.948938,116.59302,北京市朝阳区机场第二高速辅路,41b817bd9bbbcbcde9f85350,,1,41b817bd9bbbcbcde9f85350
京城槐园,39.947978,116.582279,平房乡东五环路东,2a7a25ecae59581e6c3e1b3a,,1,2a7a25ecae59581e6c3e1b3a
黄渠公园,39.933228,116.575161,北京市朝阳区平房乡黄渠村,0ce65c2d650a7f592c473389,,1,0ce65c2d650a7f592c473389
常营公园(保利园),39.935386,116.610395,北京市朝阳区常营公园保利园(常顺路东100米),cbba2c5ea5ddd0d9a8f729c6,,1,cbba2c5ea5ddd0d9a8f729c6
东坝郊野公园-艺趣园,39.953382,116.571234,北京市朝阳区石各村路,,,1,c20b1fe2463b1c3b400245b3
奥林匹克森林公园,40.025231,116.396797,北京市朝阳区科荟路33号,03d7e5971f3675483c9a5e9e,"(010)64529090,(010)64529060",1,03d7e5971f3675483c9a5e9e
奥林匹克森林公园-北园,40.033832,116.398063,北京市朝阳区科荟路33号,42fe95da5b6d34d231f71db0,,1,42fe95da5b6d34d231f71db0
仰山公园,40.02457,116.418171,北京市朝阳区安立路，近奥林匹克森林公园,f8c47726d99f6b7b8b2fb5c3,,1,f8c47726d99f6b7b8b2fb5c3
奥林匹克森林公园-南园,40.022445,116.39767,北京市朝阳区科荟路33号奥林匹克森林公园内,964ec99cfdfed58f40afe642,(010)64529060,1,964ec99cfdfed58f40afe642
森林公园-向日葵园,40.031344,116.386654,北京市朝阳区安立路奥林匹克森林公园北园内,c0c10dbe3b1c89eea8175a4b,,1,c0c10dbe3b1c89eea8175a4b
北辰绿色中央公园,40.036656,116.421114,奥运村,69fcd6df413fbc52ca29159d,,1,69fcd6df413fbc52ca29159d
西三旗公园,40.040724,116.369843,北京市海淀区清河西三旗公园(永泰庄东路西),67fb64e90a76ebdff70e770f,,1,67fb64e90a76ebdff70e770f
北京奥林匹克公园-奥海,40.020947,116.398861,北京市朝阳区科荟路33号奥林匹克森林公园南园内,196e64847830267494031930,(010)64529060,1,196e64847830267494031930
北京奥林匹克公园-生态廊道,40.028757,116.398404,北京市朝阳区安立路奥林匹克森林公园内,4b2666ebdbde085bca2915ab,(010)64529060,1,4b2666ebdbde085bca2915ab
奥林匹克森林公园南园-出口,40.017417,116.398691,北京市朝阳区科荟路33号奥林匹克森林公园南园内,,,1,15be7540f999554bca09f029
北京奥林匹克公园-林泉高致,40.0208,116.391719,北京市朝阳区科荟路33号奥林匹克森林公园南园内,d101d80107c0f6d28bb988f2,(010)64529060,1,d101d80107c0f6d28bb988f2
北京奥林匹克公园-沉水廊道,40.023817,116.389552,北京市朝阳区科荟路33号奥林匹克森林公园南园内,1e97627de142c1088e772720,,1,1e97627de142c1088e772720
北极寺公园,39.991771,116.383592,健翔桥与G6京藏高速交叉口,6c809d489d99a911c7f50d96,(010)62577155,1,6c809d489d99a911c7f50d96
绿影园,40.005714,116.384552,北京市朝阳区大屯科学园南里中街南沙滩小区,0c87be889b82b65a1c389463,,1,0c87be889b82b65a1c389463
北京奥林匹克公园,39.999245,116.399206,北京市朝阳区北辰东路15号,70b1a02aae7f384c97ec8491,(010)84992008,1,70b1a02aae7f384c97ec8491
北京奥林匹克公园-仰山,40.02534,116.398598,科荟路33号奥林匹克森林公园南园内,76ab9a4193769f350aa8d4b3,,1,76ab9a4193769f350aa8d4b3
景藏健康公园,40.044646,116.415388,朝阳区奥运村安立路81号(北五环仰山桥向北),23be97c746a74019047ce864,(010)58590706,1,23be97c746a74019047ce864
奥林匹克公园瞭望塔,40.014287,116.400609,朝阳区奥林匹克森林公园(地铁八号线森林公园南门),e022710f0dc5091ae215f954,(010)84985532,1,e022710f0dc5091ae215f954
北京奥林匹克公园-龙腾友谊林,40.021547,116.403497,北京市朝阳区科荟路33号奥林匹克森林公园南园内,44bce62c4cf67e25b5147f6b,,1,44bce62c4cf67e25b5147f6b
永泰社区公园,40.040444,116.366339,永泰社区,28e700f1efc2c101085cb3a8,,1,28e700f1efc2c101085cb3a8
北苑公园,40.013645,116.42402,北苑路乙228号,89fd4ea3afe89947e4e9658b,,1,89fd4ea3afe89947e4e9658b
贵宾楼,39.990421,116.399383,北京市北辰路贵宾楼,b02a40e37315200714c8f6b7,,1,b02a40e37315200714c8f6b7
碧玉公园,40.017383,116.401241,北京市朝阳区科荟路33号奥林匹克森林公园内,8036b2d376e2b4819cec2ba5,,1,8036b2d376e2b4819cec2ba5
民族园大桥,39.988833,116.396862,北京市朝阳区民族园路1号(健翔桥东路口)北京中华民族博物院南园内,bb18cbfbf427b26f9dec2bcf,(010)62063647,1,bb18cbfbf427b26f9dec2bcf
北京奥林匹克公园-清莲亭,40.025205,116.391657,北京市朝阳区科荟路33号奥林匹克森林公园南园内,5b3070fdaec3445d8c55ec5a,(010)84992008,1,5b3070fdaec3445d8c55ec5a
房屋公园,40.034308,116.420924,天溪园22-3,daeaeebcdcd55531c26c141f,,1,daeaeebcdcd55531c26c141f
奥林匹克公园龙形水系湖面,40.00985,116.401558,北京市朝阳区北辰东路15号奥林匹克公园内,5eb9cf80e03a28d98f55ecb0,(010)84992008,1,5eb9cf80e03a28d98f55ecb0
InQPark单双板公园(鸟巢),40.002329,116.402087,北京市朝阳区慧忠路隧道,,,1,417d6dfd6f82faf2f02d830d
奥林匹克森林公园南园-休息亭,40.018541,116.396893,北京市朝阳区科荟路33号奥林匹克森林公园南园内,023074cd04245ebd31f71d16,,1,023074cd04245ebd31f71d16
房屋公园,40.015616,116.387947,林萃东路2号附近,947d6a683cf9b73d7f29bd3d,,1,947d6a683cf9b73d7f29bd3d
房屋公园(大屯路),40.007831,116.389814,北京市朝阳区倚林佳园19,cb1ba69dfae9dcdd7dc876e0,,1,cb1ba69dfae9dcdd7dc876e0
吊桥,39.992221,116.397002,民族园路1号中华民族园内,f0d86b34cf4cbe08b54f54c5,(010)62063647,1,f0d86b34cf4cbe08b54f54c5
北京奥林匹克公园中区,40.006343,116.399584,北京市朝阳区科荟路33号奥林匹克森林公园内,0b4767fd90bf8685f4e73bf4,,1,0b4767fd90bf8685f4e73bf4
北京大学医学部中心花园,39.990021,116.363066,北京市海淀区花园北路51号北京大学医学部附近,513ee87902979dc700ec01db,,1,513ee87902979dc700ec01db
奥林匹克森林公园南园-休息亭,40.018887,116.394459,北京市朝阳区科荟路33号奥林匹克森林公园南园内,34437b4999a0c109871541a4,,1,34437b4999a0c109871541a4
北京奥林匹克公园-南园西门站专线4,40.021477,116.389886,北京市朝阳区科荟路33号奥林匹克森林公园南园内,8cef190ba7bd0d34fa0cadd8,,1,8cef190ba7bd0d34fa0cadd8
北京奥林匹克公园-南园南门站专线1,40.018202,116.399921,北京市朝阳区科荟路33号奥林匹克森林公园南园内,,,1,e1e64154322c1284f7eafc37
龙祥社区休闲公园,40.042387,116.408438,北京市朝阳区清林东路,,,1,7d5411cd609e5f9433169b6a
湿地站专线2,40.026263,116.391593,科荟路33号奥林匹克森林公园南园内,12500e035d0583cab45f1ef8,,1,12500e035d0583cab45f1ef8
奥林匹克森林公园南园-休息亭,40.021946,116.406084,北京市朝阳区科荟路33号奥林匹克森林公园南园内,62dfc8017186328f3686f453,,1,62dfc8017186328f3686f453
奥林匹克森林公园南园-休息亭,40.027701,116.402177,北京市朝阳区科荟路33号奥林匹克森林公园南园内,f573b91050b515baadcb66f1,,1,f573b91050b515baadcb66f1
北京奥林匹克公园-天境东站专线2,40.02629,116.402041,北京市朝阳区科荟路33号奥林匹克森林公园南园内,,,1,1d849d9e8689dd2885420e0a
奥林匹克森林公园北园-休息亭,40.031016,116.385773,北京市朝阳区安立路奥林匹克森林公园北园内,5d352e912deaace04354d75a,,1,5d352e912deaace04354d75a
奥林匹克森林公园南园-休息区,40.022764,116.402087,北京市朝阳区科荟路33号奥林匹克森林公园南园内,704e4f29950978eff4e73ba9,,1,704e4f29950978eff4e73ba9
北京奥林匹克公园-天境西站专线1,40.02656,116.393579,北京市朝阳区科荟路33号奥林匹克森林公园南园内,,,1,7ba6646baea8212d1b11d5b4
北京奥林匹克公园-湿地站专线3,40.026263,116.391593,北京市朝阳区科荟路33号奥林匹克森林公园南园内,a170d90bdd92dd5c4d554766,,1,a170d90bdd92dd5c4d554766
北京奥林匹克公园-天境东站专线4,40.026141,116.401844,北京市朝阳区科荟路33号奥林匹克森林公园南园内,,,1,6c4e59fe9fbfb5cca0d23097
北京奥林匹克公园-南园东门站专线2,40.022954,116.405732,北京市朝阳区科荟路33号奥林匹克森林公园南园内,,,1,921c9e517f5fdbb979dbd296
北小河公园,40.010893,116.461515,北京市朝阳区师家坟村156号,3dc0b7342d82546cc61e516e,(010)64708518,1,3dc0b7342d82546cc61e516e
望湖公园,40.016951,116.463329,朝阳区望京北路51号,3810c879d31361f79d09f78f,(010)51348756,1,3810c879d31361f79d09f78f
黄草湾郊野公园,40.01194,116.441745,北京市朝阳区大屯乡北五环路,3be122e1f286482c1ef74d19,,1,3be122e1f286482c1ef74d19
北京朝来森林公园,40.036727,116.460808,北京市朝阳区来广营乡新北路,52861a86dacc9340e5e965c7,,1,52861a86dacc9340e5e965c7
北京朝来农艺园,40.035171,116.45335,北京市朝阳区来广营乡新生村新北路,6835e3a7476b2032e3110364,(010)84913534,1,6835e3a7476b2032e3110364
宏昌竣体育公园,40.036968,116.483496,北京市朝阳区来广营东路88号,f2d1a1f67bcf1f1e43afe6c6,(010)64306687,1,f2d1a1f67bcf1f1e43afe6c6
金隅南湖公园,39.988333,116.467226,北京市朝阳区阜通西大街20号,45b07fdcc9aa2e072806ce83,,1,45b07fdcc9aa2e072806ce83
望承公园,40.000851,116.458523,南湖渠西路220号,ab6152179d01bce1deee8bf3,,1,ab6152179d01bce1deee8bf3
华汇紫薇公园,40.003235,116.435407,小营北路8号,ba362d2818471e8f5cd4fe81,13693043846,1,ba362d2818471e8f5cd4fe81
无限足球公园,40.043102,116.485908,北京市朝阳区奶东顺白路元素足球公园无限足球公园,e17e78191fcb1398e115f93e,,1,e17e78191fcb1398e115f93e
望和公园-南园,39.992685,116.455203,北京市朝阳区北四环东路77号,f78246931f705a745cbe86cf,(010)84765758,1,f78246931f705a745cbe86cf
勇士营郊野公园,40.04082,116.451009,朝阳区北五环北苑东路,bc01c59ce6b469a9233bf2a0,,1,bc01c59ce6b469a9233bf2a0
望和公园(北园),40.005893,116.459367,北京市朝阳区望京望和公园北园(京承高速公路东),3c534b726a13299e283a9f1b,,1,3c534b726a13299e283a9f1b
望京体育公园,40.005998,116.477252,北京市朝阳区广顺北大街30号,11fd0ea135d790d5ecdfcaa1,,1,11fd0ea135d790d5ecdfcaa1
桐城公园,39.998062,116.457144,北京市朝阳区望京京承高速公路桐城公园(北京香颂西),0cfec1eef7a1cf6a4bcc4a37,,1,d11734f037aeb6cbd8eced0b
大众公园,40.027008,116.459018,来广营西路518号,cb52dcde52c11a670bf5eb19,(010)84916493,1,cb52dcde52c11a670bf5eb19
望京体育文化广场,40.005854,116.477807,宏昌路望京西园四区北侧,d2aa7889023b98e9d0f49eca,,1,d2aa7889023b98e9d0f49eca
北京龙韵国际公园,39.993916,116.458253,望京西路附近,ee8726418319cb7145572657,,1,ee8726418319cb7145572657
东湖利泽西街小公园,40.019709,116.469217,北京市朝阳区来广营利泽西园(利泽西二路西),,,1,b27264b73fb2452907fef5f4
瑞竹园,40.026766,116.465901,北京市朝阳区来广营西路附近,8b67fd9f73a7abb8badf8fcd,,1,8b67fd9f73a7abb8badf8fcd
望湖公园-湖心岛,40.016873,116.463477,北京市朝阳区望京北路51号,634161db8e19924ad6b74eea,(010)51348756,1,634161db8e19924ad6b74eea
北京市朝阳区北小河公园-东湖关帝庙,40.008841,116.460768,北京市朝阳区利泽西街北小河公园内,bbcbd516e3853d8bd8131816,(010)64708518,1,bbcbd516e3853d8bd8131816
望和公园北园-香风湖,40.005959,116.458716,北京市朝阳区望和公园北园香风湖,65dbdbd0deb496e83a04b11f,,1,65dbdbd0deb496e83a04b11f
望和公园南园-花海融春,39.991747,116.456376,北京市朝阳区北四环东路辅路,66a40a4297dcc5293be4a644,,1,66a40a4297dcc5293be4a644
北京市朝阳区大望京公园,40.002958,116.501132,北京市朝阳区崔各庄乡大望京村望京东路甲6号,2f7ce14e33d1369d3310af4f,(010)84762518,1,2f7ce14e33d1369d3310af4f
马南里公园,40.026473,116.515056,北京市朝阳区马南里公园(东辛店中街东200米),bbabcf41747419334d2fdfef,,1,bbabcf41747419334d2fdfef
何各庄湿地公园,40.04276,116.509753,马泉营西路,28516d7f0507934cc8213db1,,1,28516d7f0507934cc8213db1
迷你公园,40.021551,116.573354,北京市朝阳区金港赛车场f22,67250cf88118b5f8256e982f,,1,67250cf88118b5f8256e982f
东小口森林公园,40.052987,116.392057,北京市昌平区黑泉路与西小口路交口东南侧,f4a33da9c5caef773110afa6,,1,f4a33da9c5caef773110afa6
太平郊野公园,40.069679,116.401525,北京市昌平区东小口太平郊野公园,ea4f5aff1b8ab8e414b54bfb,(010)56262500,1,ea4f5aff1b8ab8e414b54bfb
半塔郊野公园,40.095524,116.406256,回南路北100米,0209808475c7b0042bd7abec,,1,0209808475c7b0042bd7abec
立水桥公园,40.054854,116.419001,朝阳区安立路(近明天第一城),c423fd8c3ef42d40c5effb2f,,1,c423fd8c3ef42d40c5effb2f
立水桥公园(西区),40.057639,116.416225,来广营乡立水桥安立路两侧,68dff11a023b19a995f08c76,,1,68dff11a023b19a995f08c76
东升文体公园,40.045869,116.382414,北京市海淀区宝盛东路,04bdf4a31890c24f344aaea8,,1,04bdf4a31890c24f344aaea8
翡丽公园,40.072033,116.377105,北京市海淀区新都路,783ba3ed8b36c92ec4f50dfa,,1,783ba3ed8b36c92ec4f50dfa
西秀园,40.071468,116.415059,立水桥西路38号附近,87248d96835a2cb22906ce9e,,1,87248d96835a2cb22906ce9e
立水桥公园-东区,40.055356,116.420288,北京市朝阳区汤立路218号,07f3c8b569180d7a6240a9c1,,1,07f3c8b569180d7a6240a9c1
魏窑村休闲公园,40.090413,116.393407,北京市昌平区合木山庄往北,,,1,e3b665262472d65617948e19
北京公园二栋民宿,40.069063,116.405125,北京市昌平区太平郊野公园内,dd4eb78fa18942d49e82ea61,,1,dd4eb78fa18942d49e82ea61
体坛体育产业园-足球公园,40.073724,116.398712,北京市昌平区东小口单村256号,,,1,34f92772247ad91dad045792
清河营郊野公园,40.060944,116.451397,北京市朝阳区北苑东路4号,b62a2d8627ec6f9b45e274dc,,1,b62a2d8627ec6f9b45e274dc
天通艺园,40.076629,116.441168,北京市昌平区天通东苑(近奥雅KTV),cc0849a0fe84a62d9403199d,,1,cc0849a0fe84a62d9403199d
天通苑街心花园,40.067333,116.42703,中滩村北二街与立水桥东一路交叉口西南150米,ccdb6e13e068a4f3b75f1e0d,,1,ccdb6e13e068a4f3b75f1e0d
奶东公园,40.054252,116.487282,顺白路379号,17b9f87a14eb24f428d7ab0a,,1,17b9f87a14eb24f428d7ab0a
北京市朝阳区黄港公园一号,40.082408,116.474956,北京市朝阳区黄港公园1号黄港国际创意园附近,e8efd0a67230d144c7f50d0c,,1,e8efd0a67230d144c7f50d0c
林荫公园,40.046275,116.447905,北京市朝阳区北苑东路西50米,1d8fd4c798128b88b2077dc0,,1,1d8fd4c798128b88b2077dc0
InQ Park单双板公园(北苑东路),40.061786,116.4517,北京市朝阳区北苑东路辅路,,,1,8a44d20bd3b42c9296ca0728
乐翻了蹦床公园,40.068277,116.534928,北京市朝阳区孙河乡顺黄路77号,,,1,acf7d4fb136a8f1c46572688
后沙峪公园,40.088618,116.492367,北京市顺义区,,,1,01427675cd3a19c20782c2d2
梦想工厂运动公园,40.097802,116.542109,北京市顺义区中粮祥云小镇二期,84d219ebf943b1e1e812e4d9,,1,84d219ebf943b1e1e812e4d9
何里栖地湿地公园,40.049653,116.505717,北京市朝阳区顺白路何各庄村临甲331-A号(红砖美术馆北),,,1,2764d60943a79e7a373a71f9
鲁能泰山体育公园,40.090679,116.504723,北京市顺义区X016(高白路),774908890f23b845c5effb9c,,1,774908890f23b845c5effb9c
西湖园,40.055113,116.614423,首都机场3号航站楼西,fa01e937eb921134774ff17b,,1,fa01e937eb921134774ff17b
社区文化公园,40.055354,116.60132,北京市朝阳区机场南路9东北70米,cd9d05ddf849ffb684420e8e,,1,cd9d05ddf849ffb684420e8e
宏福公园,40.118726,116.381731,王府街51号温都水城内,5ffb1816084f5b5f6f476065,,1,5ffb1816084f5b5f6f476065
白各庄新村公园,40.11985,116.367443,绿洲水乡温泉度假酒店,88e5a468c7a25b77e9f853cc,,1,88e5a468c7a25b77e9f853cc
郑各庄温榆河公园,40.122786,116.369906,北京市昌平区定泗路,07f87b0009ce44e7adee7a7a,,1,07f87b0009ce44e7adee7a7a
秀水湖公园,40.118496,116.381542,上承路附近,21dbd50fbd2ed22a2bd7ab33,,1,21dbd50fbd2ed22a2bd7ab33
skyline蹦床公园,40.11796,116.410087,北京市昌平区北七家镇定泗路奥北之家1号馆,,(010)81783382,1,5bc2f19f3d4d06150b1cc72d
未来科学城滨水公园,40.12918,116.465486,未来科学城内,,,1,1857be1424fddb7bf03cbaaf
未来科技城滨河公园,40.126842,116.482038,北京市昌平区科学城东路东100米,,,1,ef1b9c11721fd1cc0b5cb36e
北京拉斐特城堡公园,40.13742,116.455338,北七家镇北京拉斐特城堡,33af1f0c25615c5ef33cbae6,(010)56138488,1,33af1f0c25615c5ef33cbae6
海鶄落湿地公园,40.120496,116.444443,北京市昌平区定泗路,,,1,0d9cf37e470412acfb221312
罗马湖公园,40.107274,116.530109,后沙峪镇罗各庄村罗东路8号,ae909d4fdcf7255375e5b6c4,,1,ae909d4fdcf7255375e5b6c4
虎鳄农场,40.141368,116.551731,北京市顺义区高丽营镇西马各庄村建军街91号,57dfc23998526dcc931fc9ab,,1,57dfc23998526dcc931fc9ab
生殖健康科普园,40.147077,116.49622,北京市顺义区华美路与和平街交叉口东南200米,79df3464fcdccb0eeee4a5be,,1,79df3464fcdccb0eeee4a5be
花博会主题公园,40.127188,116.572693,酒厂东路附近,17c81226ac1bdb3b6e20b9aa,,1,17c81226ac1bdb3b6e20b9aa
GOGO宠物公园,40.156758,116.559847,高丽营张喜庄六环张喜庄桥往北500米,231441d7117312536cc02cdb,,1,231441d7117312536cc02cdb
