name,lat,lng,adderss,street_id,telephone,detail,uid
国瓷会馆,39.755533,116.152978,行宫二里14-1,a3f21eee45f3e6392fb17e2a,,1,a3f21eee45f3e6392fb17e2a
泰山天元石文博馆,39.750209,116.150729,北京市房山区建华路36-1号西北50米,,,1,a9089da17754206f3686f416
燕都书画苑,39.753704,116.142199,良乡政通路西里1号,7daf2c566773f767a3acc480,,1,7daf2c566773f767a3acc480
中国印刷博物馆,39.749184,116.338174,兴华大街2段1号,fbc30ea746eb8d25260bd0f8,"(010)81282770,(010)81282860",1,fbc30ea746eb8d25260bd0f8
明清瓷器馆,39.736943,116.33854,黄村西大街兴雅珠宝城一层,f7ae10be27f582792902e14c,,1,f7ae10be27f582792902e14c
卢沟桥历史博物馆,39.856484,116.227289,卢沟桥城北街88号,49d959381a66a143c61e5107,,1,49d959381a66a143c61e5107
世纪京华酒文化博物馆,39.874407,116.286785,丰体北路6号,0c629e95c74eaa7de60738ed,(010)63867643,1,0c629e95c74eaa7de60738ed
国际二战博物馆协会,39.857218,116.233054,北京市丰台区城内街95号,211eb4e4cffd1d92a01de90e,,1,211eb4e4cffd1d92a01de90e
北京汽车博物馆,39.835009,116.308114,丰台区南四环西路126号,35d6b4d391445bb1e81e97f3,(010)63756666,1,35d6b4d391445bb1e81e97f3
中国插花艺术博物馆,39.845236,116.360975,北京市丰台区南四环中路235号,bcadbc19c1ad232f626858ac,(010)87500840,1,bcadbc19c1ad232f626858ac
正通BMW博物馆,39.868492,116.316081,北京市丰台区西三环南路59号,70355e705bfac761f50e7752,(010)63865826,1,70355e705bfac761f50e7752
北京市西南四环科丰桥东汽车博物馆,39.832272,116.311304,北京市丰台区南四环西路128号,,,1,21368275c2f47c06f4b9168b
普天充电站(汽车博物馆),39.833981,116.307798,北京市丰台区南四环西路126号,99fb645ec1455ba128fc48af,,1,99fb645ec1455ba128fc48af
二商博物馆,39.843281,116.361837,北京市丰台区镇国寺191号,,,1,bf9bbbb72b792cac725e8033
中国园林博物馆,39.885338,116.183773,北京市丰台区射击场路15号,0c88dcfbbe2bfcd74054d776,(010)63915025,1,0c88dcfbbe2bfcd74054d776
印度园博物馆,39.876059,116.204853,北京市丰台区射击场路15号(北京园博园内),,,1,7695fc4736a7315440e192ec
玉文化博物馆,39.881301,116.193725,北京市丰台区射击场路6号北京园博园内,90a957f0a1147f23f33cbad2,,1,90a957f0a1147f23f33cbad2
校园微博物馆,39.90314,116.219815,北京市石景山区京源学校,f401a9b2a30c946fad0457b1,,1,f401a9b2a30c946fad0457b1
北京市十一学校博物馆(校史馆),39.907265,116.26148,北京市海淀区玉泉路66号,930c89274337d7ec077ce8ac,,1,930c89274337d7ec077ce8ac
中国人民革命军事博物馆,39.914976,116.330207,北京市海淀区复兴路9号,5ce2637d2824d051af31e5b6,(010)66866244,1,5ce2637d2824d051af31e5b6
中华世纪坛,39.916466,116.327888,北京市海淀区复兴路甲9号,ca0a5de32ff30868a7c7566c,"(010)84187900,(010)84186161",1,ca0a5de32ff30868a7c7566c
中国消防博物馆,39.877026,116.35875,西城区广安门南街70号(近中加大厦),0731afb08f2f9e262906ce85,(010)66267929,1,0731afb08f2f9e262906ce85
京彩瓷博物馆,39.888182,116.354815,广安门外南滨河路25号(近金工宏洋大厦一层),04341170c45e3b0ac6effb9a,(010)51920138,1,04341170c45e3b0ac6effb9a
首都博物馆-西区,39.912234,116.348161,复兴门外大街16号首都博物馆内,93ac80f185199133cafa5f45,,1,93ac80f185199133cafa5f45
古井酒文化博物馆,39.879737,116.354999,南滨河路87号,0b69c8983658b2ac08f5eb64,,1,0b69c8983658b2ac08f5eb64
聚宝龙普洱博物馆,39.884751,116.334426,北京市西城区广外马连道胡同一号第三区商业街1027号,92363ec01dac9c86882fb522,(010)63259688,1,92363ec01dac9c86882fb522
中国铁道博物馆办公区,39.890021,116.336668,北京市西城区广安门外街道马连道南街2号院1号楼,,(010)51836872,1,d5af9f205194141caecb660a
中国淮扬菜文化博物馆,39.93121,116.318545,北京市海淀区航天桥阜成路北三街光耀东方中心,,,1,6cf701b07e03dd63441a3245
首都博物馆-东区,39.912144,116.349175,复兴门外大街16号首都博物馆内,7be7619c73322d5f3c9a5e9e,,1,7be7619c73322d5f3c9a5e9e
百年融通博物馆,39.881374,116.338621,北京市西城区欣园东路1号东北60米,,,1,4d8d8cc71fe678eaca291577
大兴南路烧酒博物馆,39.705581,116.388092,黃村镇桂村工业园富贵路3号,,18614021713,1,38d786b2c20cce4d75e5b6b1
北京崔永平皮影艺术博物馆,39.754508,116.55244,马驹桥镇金桥花园16楼4单元1层,fa01e9378a8ff04a774ff16b,(010)60502692,1,fa01e9378a8ff04a774ff16b
宜兴紫砂壶,39.792635,116.424003,北京市丰台区南小街路2-16号附近,6641e9637cb839bd71210b5c,,1,6641e9637cb839bd71210b5c
南海子麋鹿苑博物馆,39.784593,116.465142,北京市大兴区旧宫镇旧忠路,0dc3d82d487bb16c75e5b6f5,,1,0dc3d82d487bb16c75e5b6f5
可口可乐博物馆,39.803954,116.522987,大兴区亦庄开发区荣京东街9号,703364323f3e121d9a005006,(010)67878080,1,703364323f3e121d9a005006
景泰蓝博物馆,39.870361,116.420002,安乐林路10号,35d525c6d105e6ca02897244,,1,35d525c6d105e6ca02897244
辽金城垣博物馆,39.868656,116.365447,北京市丰台区右安门外玉林小区甲40号,1bf85b255be6cca4a1a93400,(010)63054992,1,1bf85b255be6cca4a1a93400
京朝国粹艺术苑,39.858603,116.393752,海户西里甲30,067944abe3ab953bc4f02501,,1,067944abe3ab953bc4f02501
文博馆,39.835531,116.369294,北京市丰台区北京国际文化城c座,0f50a236cb4b3016b9df8fe2,,1,0f50a236cb4b3016b9df8fe2
山水珍宝博物馆,39.873472,116.473402,北京市朝阳区弘燕路201-1,3e7d07a39f77dbf5f03cbade,,1,3e7d07a39f77dbf5f03cbade
中国国家博物馆文物科技保护中心,39.84321,116.427143,北京市丰台区石榴庄西街248号,883898d0f14ffcdc7dc87623,,1,883898d0f14ffcdc7dc87623
北京传统手工艺术博物馆,39.844023,116.476789,北京市朝阳区十八里店南桥古盛发古典家具城三层,d269e975dac8fb6a373a71f4,(010)53017018,1,d269e975dac8fb6a373a71f4
观瓷书院,39.873366,116.488908,北京市朝阳区弘燕东路山水文园东园北门东侧山水米兰文博商业街A28,,,1,e129547162c9520214c8f6cb
历史陶瓷博物馆(闽龙广场),39.860979,116.483231,北京市朝阳区大羊坊路37号闽龙广场F4层,83a5a10f5f815a5fa8059deb,,1,83a5a10f5f815a5fa8059deb
十里河蒙元博物馆,39.866436,116.467233,十八里店十里河家俱大道8号柏汇广场附近,,18636001798,1,5d25212892c17c31f7e73b09
香港名家易越石金石书画篆刻古玩文物文化艺术博物馆,39.86649,116.467035,北京市朝阳区十里河家俱大道8号佰汇古玩珠宝城B座,9e12614511ac7a79e011030b,,1,9e12614511ac7a79e011030b
中国钓鱼文化博物馆,39.866845,116.522793,北京市朝阳区化工路9,b6456429e7cd3e3e43e1929c,,1,b6456429e7cd3e3e43e1929c
故宫博物院,39.924091,116.403414,北京市东城区景山前街4号,06d2dffda107b0ef89f15db6,(010)85007114,1,06d2dffda107b0ef89f15db6
中国国家博物馆,39.91146,116.408016,北京市东城区东长安街16号,db1f39d42752aa6ff5c59cd1,(010)65116400,1,db1f39d42752aa6ff5c59cd1
自然博物馆,39.889525,116.406116,天桥南大街126号,17bb760f2e99a0e596ca07e2,(010)67027702,1,17bb760f2e99a0e596ca07e2
中国地质博物馆,39.929518,116.378653,西四羊肉胡同15号,ebcd3f91cd80c02ec8213de0,(010)66557858,1,ebcd3f91cd80c02ec8213de0
北京古代建筑博物馆,39.883887,116.398641,北京市西城区东经路21号,2bb54e31c13a3470bda24091,(010)63172150,1,2bb54e31c13a3470bda24091
中国铁道博物馆-正阳门馆,39.906022,116.406742,北京市东城区前门大街甲2号,0d393abe595602a303ff2d56,(010)67051638,1,0d393abe595602a303ff2d56
北京警察博物馆,39.908366,116.411541,北京市东城区东交民巷36号,6ed3083a402ae8b72b3a9fd1,(010)85225019,1,6ed3083a402ae8b72b3a9fd1
北京宣南文化博物馆,39.898718,116.37154,北京市西城区长椿街9号(近宣武医院),9080663dd37ec2f6306212ed,(010)63015413,1,9080663dd37ec2f6306212ed
中国钱币博物馆,39.908529,116.401379,北京市西城区西交民巷17号,161a0ed2fc8a03505cd4fe01,(010)66024178,1,161a0ed2fc8a03505cd4fe01
中国法院博物馆新馆,39.909079,116.413684,北京市东城区正义路4号,2a408a06a3b32a4b400245f9,(010)67557825,1,2a408a06a3b32a4b400245f9
山西面食博物馆,39.89482,116.364039,北京市西城区广安门内大街甲308号,7afe7d0ff4e5a8f886420ebe,18003412484,1,7afe7d0ff4e5a8f886420ebe
天桥印象博物馆,39.889381,116.404063,天桥南大街7号,,,1,8b46d0ef0524351d6140a9c0
古陶文明博物馆,39.87908,116.363826,北京市西城区右安门内西街18号,f5e3bcae07173fc15e17c3f1,"(010)63538884,(010)63538811",1,f5e3bcae07173fc15e17c3f1
故宫端门数字博物馆,39.916826,116.404104,北京市东城区景山前街4号故宫博物院端门城楼展厅,,,1,fee4fa729c41d5c8902ca373
气味博物馆,39.903284,116.404303,北京市东城区前门大街29号,3d0c137e08d867e3c81b95c6,18211172661,1,3d0c137e08d867e3c81b95c6
北京空竹博物馆,39.895771,116.364758,北京市西城区小星胡同9号,23effa23d9d99b3db34c49fc,(010)83163256,1,23effa23d9d99b3db34c49fc
中华民族艺术珍品博物馆,39.895078,116.415847,北京市东城区金鱼池中区24号,750ec165f5e1c9284c3a59f9,(010)67022961,1,750ec165f5e1c9284c3a59f9
古人类文化遗址博物馆,39.915311,116.419316,北京市东城区东长安街1号东方新天地第一街地下三层,cc368d8975e3b35a5e17c362,(010)85186306,1,cc368d8975e3b35a5e17c362
紫砂汇中超·百年利永紫砂博物馆(北京),39.926397,116.371596,西城区太平桥大街8-31(全国政协礼堂东门马路对面),b9b56d8b302346f975e5b6a7,(010)59352533,1,b9b56d8b302346f975e5b6a7
北京人艺戏剧博物馆,39.927751,116.418417,北京市东城区王府井大街22号,06fe4e7eba78c114c9213dfe,(010)85120003,1,06fe4e7eba78c114c9213dfe
北京戏曲博物馆,39.895014,116.390839,虎坊路3-1号,7fd7231194e3c09f5cbe86f0,,1,7fd7231194e3c09f5cbe86f0
93号院博物馆,39.89913,116.393967,北京市西城区铁树斜街93,5ce16e008ed95d1c1c389454,(010)83197501,1,5ce16e008ed95d1c1c389454
北京通信电信博物馆,39.896111,116.385951,骡马市大街9号中国联通北京分公司总部大楼,019386f292f244d35cd4fe8d,"(010)66198899,(010)64041099",1,019386f292f244d35cd4fe8d
北京红楼文化艺术博物馆,39.878146,116.36274,北京市西城区南菜园街12号北京大观园省亲别墅内,21ae694c7074a4cdf60e77c9,,1,21ae694c7074a4cdf60e77c9
同仁堂博物馆,39.902377,116.422738,东兴隆街52号,,(010)67026919,1,7be3abecec7eb5f358f6be45
老窑瓷博物馆,39.897903,116.392217,北京市西城区椿树街道铁树斜街116号,218fe50a9ad8c769b34c491e,(010)83197618,1,218fe50a9ad8c769b34c491e
北京二锅头酒博物馆源昇号原址,39.900729,116.404258,北京市东城区前门大街101,6f6159345b82af53f50e7730,,1,6f6159345b82af53f50e7730
陶然亭慈悲庵,39.879302,116.387277,北京市西城区太平街19号陶然亭公园内,77a5a980ffc49913eddfcabd,(010)63511596,1,77a5a980ffc49913eddfcabd
东城区非物质文化遗产博物馆,39.901862,116.424038,北京市东城区第二文化馆四层,e28dd5aed75933676849f33c,(010)67091121,1,e28dd5aed75933676849f33c
世界钱币馆,39.896162,116.365907,北京市西城区报国寺1号西2楼,5508504df81325cac6f025e3,(010)83156453,1,5508504df81325cac6f025e3
钱币胡同传统银钱业博物馆,39.901235,116.404313,北京市西城区粮食店街与王皮胡同交叉口东50米,,,1,066c317fe1a6da1fd81318cb
走进人体,39.889558,116.406399,天桥南大街126号北京自然博物馆内,f8e5b66c6e59ba1026d2bb57,,1,f8e5b66c6e59ba1026d2bb57
故宫珍宝馆-2-3,39.926344,116.406274,北京市东城区故宫内宁寿宫内,,(010)85007938,1,47fd47ca868b5d9e6cc02c61
老北京传统商业博物馆,39.905975,116.399593,前门西大街正阳市场3号楼,ae60b36c5f2c4bf7c61e51b3,(010)63036830,1,ae60b36c5f2c4bf7c61e51b3
中国冠帽文化博物馆,39.902521,116.40435,北京市东城区前门大街57号,,,1,9a08d44292b0002c100daa30
北京二锅头酒博物馆,39.900574,116.404293,北京市东城区粮食店街40号附近,,,1,3a55a791228e2fd0badf8fff
民族文化宫博物馆,39.914078,116.375515,复兴门内大街49号,,(010)83195280,1,c34377a59d710c3282288ae1
珍宝馆2,39.925974,116.406264,北京市东城区景山前街4号故宫博物院宁寿宫珍宝馆内,f582155c0b232c2ac17da270,,1,f582155c0b232c2ac17da270
后左门,39.924769,116.404294,北京市东城区景山前街4号故宫博物院内,573afc6937f8efaa4bcc4a1a,,1,573afc6937f8efaa4bcc4a1a
白纸坊街道纸文化博物馆,39.88614,116.366847,白纸坊街道樱桃三条8号院,bdd5f5ff03949fbd2b3a9fac,,1,bdd5f5ff03949fbd2b3a9fac
西单商业文化博物馆,39.918453,116.381698,北京市西城区西单北大街120号西单商场F4,420cda5a043d883b2cb17eae,,1,420cda5a043d883b2cb17eae
大栅栏街道文博馆,39.905095,116.391469,北京市西城区前门西河沿街228号,8d36711828339198c41b75a5,,1,8d36711828339198c41b75a5
大栅栏街道第一博物馆,39.897892,116.392322,大百顺胡同与韩家胡同交叉口北50米,4178f14be061f2bf8e772770,,1,4178f14be061f2bf8e772770
艺美术博物馆珍精品展览厅,39.917169,116.418277,王府井大街200号工美大厦4层,02c2767aaa015dbad7851fd0,,1,02c2767aaa015dbad7851fd0
北京市西城区武术文化博物馆,39.930807,116.383932,西黄城根北街丙10号附近,d2475b204a2848cac4f50db0,,1,131030f24e6196b21b94c65a
文津雕版博物馆,39.929677,116.391645,文津街7号国家图书馆古籍馆内(近北海),6bf4b62c5c528fa6260bd0ae,,1,6bf4b62c5c528fa6260bd0ae
人民手工艺术博物馆,39.902198,116.405607,新潮胡同6号,b584d73ff759307a8c55ec36,,1,b584d73ff759307a8c55ec36
北京市西城区武术文化博物馆八卦掌,39.930817,116.383871,北京市西城区西黄城根北街丙10,,,1,2e49838ce8b8d2f70b69d992
珍宝馆3,39.926163,116.406309,北京市东城区景山前街4号故宫博物院宁寿宫珍宝馆内,b6caf62209794e4e6849f338,,1,b6caf62209794e4e6849f338
北京警察博物馆北京公安史,39.908425,116.411311,北京市东城区东交民巷北京警察博物馆,9de6d68d8b0217f2704b8736,,1,9de6d68d8b0217f2704b8736
中华民族文博院,39.914184,116.375406,北京市西城区复兴门内大街49号民族文化宫8层,064bd2a9e5ad715a35b06cd9,,1,064bd2a9e5ad715a35b06cd9
中国国家博物馆-西大厅,39.911141,116.407683,北京市东城区东长安街16号天安门广场东侧中国国家博物馆内,be356fc99ea4e24debe582d8,,1,be356fc99ea4e24debe582d8
后右门,39.924725,116.402537,北京市东城区景山前街4号故宫博物院内,f04eb131e954c36e9122e073,,1,f04eb131e954c36e9122e073
中国国家博物馆-东大厅,39.911134,116.40762,北京市东城区东长安街16号天安门广场东侧中国国家博物馆内,4c5d0cb9a45ab420441a328d,,1,4c5d0cb9a45ab420441a328d
清代宫廷戏曲陈列馆,39.927222,116.407085,北京市东城区景山前街4号故宫博物院宁寿宫内,07cf50b054ae2f8007fef5ab,,1,07cf50b054ae2f8007fef5ab
宋代石刻艺术,39.911356,116.407926,北京市东城区东长安街16号天安门广场东侧中国国家博物馆内,4f6badf9079850fb2cb90804,(010)65116400,1,4f6badf9079850fb2cb90804
故宫博物院古书画研究中心-展厅,39.926643,116.405024,景山前街4号故宫博物院,ef0eca7af712b4a42cb17e1f,,1,ef0eca7af712b4a42cb17e1f
史家胡同博物馆,39.924292,116.428906,北京市东城区史家胡同24号,bc2190346d9566252806cec6,(010)85175790,1,bc2190346d9566252806cec6
中国妇女儿童博物馆,39.916578,116.429897,北极阁路9号,610852115baa11dcc51b7528,"(010)65126655,(010)65269678",1,610852115baa11dcc51b7528
中国海关博物馆,39.913134,116.439511,北京市东城区建国门内大街2号(大羊毛胡同北口),e4ec37ce7405f9f7354aae2d,(010)65194318,1,e4ec37ce7405f9f7354aae2d
北京民俗博物馆,39.929778,116.45072,北京市朝阳门外大街141号,a49f88ac90d3147f2fb17e91,"(010)65510151,(010)65514148",1,a49f88ac90d3147f2fb17e91
马布里博物馆,39.91376,116.432526,北京市东城区建国门内大街甲18号北京邮政贺卡旗舰店,5426edda2332bd9e2fb9081e,,1,5426edda2332bd9e2fb9081e
华彬艺术博物馆,39.911214,116.45873,建国门外大街永安东里8号华彬费尔蒙酒店B1层B104室,07abdfd4d5c044689e82ea02,(010)85288065,1,07abdfd4d5c044689e82ea02
英宠摄影博物馆,39.905504,116.47708,百子湾路32号苹果社区北区3号楼A座1106(百子湾地铁),57f0e278e8fd16e7b35c6ae5,,1,57f0e278e8fd16e7b35c6ae5
建国门社区博物馆,39.920779,116.43353,朝阳门南小街18,1dbba3ac5b08455a36b06ce8,(010)65231891,1,1dbba3ac5b08455a36b06ce8
北京工业大学-科技与艺术博物馆微特电机科技分馆,39.878185,116.488055,北京市朝阳区平乐园100号北京工业大学内,d6a165490f04e1df2b06ced3,(010)67391500,1,d6a165490f04e1df2b06ced3
北京沉香博物馆,39.905715,116.430849,北京市东城区国瑞北路3号,fdde5c013523292ef7c59c69,,1,fdde5c013523292ef7c59c69
睦明唐古瓷标本博物馆,39.903862,116.443935,东花市北里东区1-5号,,"(010)67186939,(010)67187266",1,e75afdd32abbe0f0ca2915cc
中国瓷玉古珍博物馆,39.877002,116.462959,北京市朝阳区华威南路8附近,81eb5a81f6eea3553a13fd1c,,1,81eb5a81f6eea3553a13fd1c
公益文化博物馆,39.90381,116.444253,北京市东城区东花市大街国石北京艺术馆99旅馆连锁,b92c59892664db17adb22a95,,1,b92c59892664db17adb22a95
瓦舍博物馆,39.92322,116.477927,金台西路8号,61f634f6891e75056b49f332,,1,61f634f6891e75056b49f332
尚韵轩博物馆,39.879657,116.446541,左安门内大街112号,cde9e2c79ef1a2cae91e978a,(010)87192355,1,cde9e2c79ef1a2cae91e978a
花市社区博物馆,39.90183,116.435859,北京市东城区大街花市枣苑8-9号楼地下,ddaf94726d2932c1f82d6118,(010)67166227,1,ddaf94726d2932c1f82d6118
中国吕氏春秋博物馆,39.877256,116.463319,北京市朝阳区华威南路与华威路交叉口东100米,,,1,588668bd7fc7d9868605bff7
华贸SHOWROOM,39.915289,116.488027,建国路81号华贸购物中心,eefcf2a4d995e64f9222e0b4,,1,eefcf2a4d995e64f9222e0b4
鸭血石博物馆,39.895428,116.44591,夕照寺中街17号附近,9a2af74b842cb0c28d55ec69,,1,9a2af74b842cb0c28d55ec69
中国妇女儿童博物馆停车场-出入口,39.916149,116.430571,北极阁头条与春雨胡同交叉口西北50米,,,1,bd474d857ea5a18a23022096
北京工业大学-科技与艺术博物馆,39.877977,116.487462,北京市朝阳区平乐园100号北京工业大学科技处,b4b2744cd51e5bedd718b71d,(010)67392399,1,b4b2744cd51e5bedd718b71d
灵峰艺术,39.877811,116.466448,北京市朝阳区华威南路25附近,fb94ac8315bdfcc5ca2915c5,,1,fb94ac8315bdfcc5ca2915c5
北京民俗博物馆-戏台,39.930428,116.450723,北京市朝阳区民俗博物馆内,bf20e85b8a1f5374128824a3,,1,bf20e85b8a1f5374128824a3
中国紫檀博物馆,39.917002,116.53247,北京市朝阳区建国路23号,8a50a67babaf84f40f0e6b2c,(010)85752818,1,8a50a67babaf84f40f0e6b2c
科举匾额博物馆,39.904722,116.54724,北京市朝阳区文化新大街1366号,bf29b702abf69d9908b93a96,(010)87739693,1,bf29b702abf69d9908b93a96
华夏珍宝博物馆,39.913463,116.513064,建国路58号院1号楼1楼(近九号温泉),0f93cf1ec45f1d5716c905aa,(010)65202519,1,0f93cf1ec45f1d5716c905aa
高碑店琦檀宇艺术博物馆,39.908551,116.544222,朝阳区古家具一条街161号,cb4fd1466162af429d9d68f7,13910082744,1,cb4fd1466162af429d9d68f7
北京朝阳高碑店村史博物馆,39.912449,116.53312,北京市朝阳区高碑店村一区32号,465a2d2c611f87d0a7da398d,,1,465a2d2c611f87d0a7da398d
中国律师博物馆,39.909192,116.497998,北京市朝阳区东四环中路尚8设计家33号,421fac05d62af4319de32171,(010)87777500,1,421fac05d62af4319de32171
中国鼻烟壶紫砂壶博物馆,39.903893,116.551381,北京市朝阳区高碑店民俗文化街,,,1,66f798eea7ada60d1ce999aa
天琛奇石博物馆,39.87629,116.51497,北京市朝阳区垡头桥弘燕奇石城内(北京市朝阳区垡头桥西天宝旧货市场对面),2626a28a2ee035e80089728c,,1,2626a28a2ee035e80089728c
北京华夏世博国际艺术博物馆,39.908758,116.514909,惠河南街1101号附近,c833cb4dcbb26560d23ce333,,1,c833cb4dcbb26560d23ce333
摩登博物馆(朝阳大悦城),39.930957,116.52436,北京市朝阳区朝阳北路101号朝阳大悦城F3,,,1,2681a370cbdc1b93276e9829
中国观赏石博物馆,39.878958,116.538016,王四营甲6,7b7f72f4e6bb2c6fab175abe,,1,7b7f72f4e6bb2c6fab175abe
佛文化博物馆,39.904327,116.55134,文化新大街1706,37e0fe5fc290ace586420e9d,,1,37e0fe5fc290ace586420e9d
首都博物馆画院,39.905009,116.550076,北京市朝阳区文化新大街1743号,d324d97c385c3e54b5147f99,,1,d324d97c385c3e54b5147f99
聚龙潭博物馆,39.903239,116.551407,北京市朝阳区广渠路,c29cdcfc8bc85e2deb56fa23,,1,c29cdcfc8bc85e2deb56fa23
中国老房装修博物馆,39.920534,116.545463,北京市朝阳区朝阳路高井甲8号红星美凯龙星立方创意设计中心3层309今朝装饰,850e27bd9522c3ab0a5cb378,,1,850e27bd9522c3ab0a5cb378
世纪爱心传统文化博物馆,39.913304,116.512248,建国路68号,7d3dede908eb7c9cf50e7789,,1,7d3dede908eb7c9cf50e7789
南磨房四合院博物馆,39.87766,116.505388,南磨房心连心广场(近金蝉西路),a76f0c1c2ae724c13b221c59,,1,a76f0c1c2ae724c13b221c59
首都博物馆书院,39.90403,116.544593,北京市朝阳区高碑店首都博物馆画院(文化新大街),854e1746d8e3a5728b2fb594,,1,854e1746d8e3a5728b2fb594
徽州宏记木雕博物馆,39.908789,116.547398,北京市朝阳区高碑店古家具一条街239号,a574dc47f805e0d4081cc733,,1,a574dc47f805e0d4081cc733
中国传媒大学中国广告博物馆,39.920492,116.565791,北京市朝阳区定福庄东街1号,41823e467b2a8e020a5cb3f0,(010)65779319,1,41823e467b2a8e020a5cb3f0
门头沟博物馆,39.948692,116.103151,北京市门头沟区门头沟路8号,50fb64ff7279e65de9f85308,(010)69852446,1,50fb64ff7279e65de9f85308
中国第四纪冰川遗迹陈列馆,39.944034,116.168305,模式口大街28号,0dc3d82d096cf61175e5b6e1,(010)88722585,1,0dc3d82d096cf61175e5b6e1
北京龙徽葡萄酒博物馆,39.932663,116.260184,海淀区玉泉路2号(近西四环定慧桥),00f1c7fb8dee9762c056ac49,(010)88629243,1,00f1c7fb8dee9762c056ac49
互联网金融博物馆,39.96382,116.275603,北京市海淀区东冉北街9号,9825fe146adfb7032811d1a3,(010)88855251,1,9825fe146adfb7032811d1a3
华宝宫古典艺术品博物馆,39.986361,116.285828,北京市海淀区蓝靛厂北路1号,,(010)88852822,1,b644d3b87b73d43f2b3a9f85
圣旨,39.933621,116.255142,阜石路37号附近,df8d07625335a8f5afb22a7d,,1,df8d07625335a8f5afb22a7d
北京国韵百年邮票钱币博物馆,39.93796,116.287417,北京市海淀区八里庄恩济西园(玲珑路南80米),bae644346d88a63cc61e51de,(010)88112988,1,bae644346d88a63cc61e51de
腐乳科普展馆,39.933343,116.252079,阜石路41号的北京二商王致和食品有限公司院内,bd76e7b068b885fceb1e973b,"(010)68210156,(010)68213336",1,bd76e7b068b885fceb1e973b
中国古动物馆,39.94321,116.340631,北京市西城区西直门外大街142号,d52831f90dba02a72efaa700,"(010)88369280,(010)88369210,(010)88369315",1,d52831f90dba02a72efaa700
北京航空航天博物馆,39.987534,116.357344,北京市海淀区学院路37号北京航空航天大学校内(近北航东南门),25458eba45df9c692902e13c,(010)82339701,1,25458eba45df9c692902e13c
北京石刻艺术博物馆,39.950594,116.336751,北京市海淀区五塔寺村24号(近动物园西北门),5c56edd6e7d2c95aa0d230ad,(010)62173543,1,5c56edd6e7d2c95aa0d230ad
国家典籍博物馆,39.948868,116.33058,北京市海淀区中关村南大街33号,511e94bc1370cb418c55ecfd,(010)88544757,1,511e94bc1370cb418c55ecfd
大钟寺古钟博物馆,39.974916,116.344611,北京市海淀区北三环西路甲31号,d97c2af2b342355f95ca07ec,(010)82139050,1,d97c2af2b342355f95ca07ec
北京市海淀区博物馆,39.982515,116.325517,北京市海淀区中关村大街28-1号,5b25f446a72b99ea112935ad,,1,5b25f446a72b99ea112935ad
中国印钞造币博物馆,39.944841,116.33965,西直门外大街甲143号凯旋大厦,d3450d8351298f40ec74f89e,(010)88016028,1,d3450d8351298f40ec74f89e
艺术博物馆,39.953138,116.318228,万寿寺121号,,(010)68413380,1,640562d27b6ef2e3a11de97b
中国民族博物馆,39.979608,116.315786,北京市海淀区倒座庙1号,35debf290531de44a7da39ad,(010)82684897,1,35debf290531de44a7da39ad
中国人民大学-博物馆,39.976034,116.319982,北京市海淀区中关村大街59号中国人民大学人文楼(近当代商城),66dce2a685d534a5c62ba152,"(010)82503159,(010)62515691",1,66dce2a685d534a5c62ba152
中央民族大学-民族博物馆,39.954819,116.324609,北京市海淀区中关村南大街27号,341c35de0c1a72bee70738ad,(010)68932390,1,341c35de0c1a72bee70738ad
北京国玉新疆和田玉文博馆,39.939704,116.338489,三里河路7号,a662490a8097cd8adeee8b02,(010)68358369,1,a662490a8097cd8adeee8b02
家书博物馆,39.976,116.320297,北京市海淀区明志路,9a863b684333e509d8d891b1,(010)88616101,1,9a863b684333e509d8d891b1
首都师范大学-书法文化博物馆,39.936426,116.314,北京市海淀区西三环北路105号首都师范大学,34f68ab0c4e007778e55ecb8,(010)68903330,1,34f68ab0c4e007778e55ecb8
首都师范大学-历史博物馆,39.936385,116.314149,西三环北路105号首都师范大学图书馆1层,75036835776157d25e0d02d5,,1,75036835776157d25e0d02d5
中国电信博物馆,39.984219,116.361372,学院路42号,bf29b702aacb9e9908b93aad,"(010)58843042,(010)58843027",1,bf29b702aacb9e9908b93aad
北京交通大学-校史博物馆,39.956338,116.346991,北京市海淀区上园村3号北京交通大学内,cd94cc5d84a4281ec51b75f7,,1,cd94cc5d84a4281ec51b75f7
北京石刻艺术博物馆-会士碑区,39.950517,116.337292,北京市海淀区石刻艺术博物馆内,ce891c0cc24019648bfc06fe,,1,ce891c0cc24019648bfc06fe
奥林匹克教育博物馆,39.976319,116.35483,北三环西路11号首都体育学院图书馆1楼大厅,806e99dfc88fd6c0c61b75f4,,1,806e99dfc88fd6c0c61b75f4
大钟寺古钟博物馆-早期钟铃,39.974911,116.34475,北京市海淀区大钟寺古钟博物馆内,8c81f25e136b0a041894c617,,1,8c81f25e136b0a041894c617
中关村博物馆与艺术品行业联盟,39.93959,116.338294,三里河路7号新疆人民政府驻北京办事处新疆和田玉文博馆附近,daf0cd2dbd61a52fd4851f87,,1,daf0cd2dbd61a52fd4851f87
国学教育民族艺术博物馆,39.954089,116.352745,北京市海淀区高梁桥斜街17号东60米,bb7ab7b2e5ad10d84e2fdf39,,1,bb7ab7b2e5ad10d84e2fdf39
世界奥林匹克火炬博物馆,39.973742,116.343407,海淀区北三环西路31号爱家国际收藏品交流市场1楼2091房(近大钟寺),94c6566c3257d86ad81318d5,13801133512,1,94c6566c3257d86ad81318d5
中国蜜蜂博物馆,40.012586,116.212632,北京市海淀区香山卧佛寺西侧,,(010)62595735,1,4fc3161af8e5cfa93b13fda9
饲料博物馆,40.036738,116.291442,北京市海淀区圆明园西路2号中国农业大学西校区内,e4dfd504d6e92dbdcae33c0a,(010)62734685,1,e4dfd504d6e92dbdcae33c0a
清华大学-艺术博物馆,40.00764,116.342213,双清路30号清华大学,98b68e6b8b3944e00c0a7007,(010)62781012,1,98b68e6b8b3944e00c0a7007
中国化工博物馆,39.990438,116.315355,海淀区北四环西路62号中国化工集团大厦3楼(海淀桥东),61b02b9d06b8802ec5effbbd,(010)82677217,1,beda67924916443379dbd25f
中国地质大学(北京)博物馆,39.996725,116.358949,北京市海淀区学院路29号逸夫楼10层,f9346da6644570159de3215d,(010)82322204,1,fed5ec441ebfcf29a8175a5a
圆明园展览馆,40.020006,116.318536,北京市海淀区清华西路28号圆明园东门西洋楼景区大水法西北角,e5289b23bc5f377cadb22afe,(010)62568872,1,e5289b23bc5f377cadb22afe
北京林业大学博物馆,40.008609,116.351865,北京市海淀区清华东路35号北京林业大学,1042a96ffc6a2c9b6c3e1bca,(010)62336316,1,1042a96ffc6a2c9b6c3e1bca
创业博物馆,39.989683,116.313128,北京市海淀区海淀街道三环到四环之间中关村创业大街2号楼,,,1,16c7219692b87fecd8eced43
北京龙在天皮影文化博物馆,40.006342,116.320887,北京市海淀区清华西路28号圆明园南门西侧(近同仁堂),5ca1e6c7ba827f2380a00c9d,"(010)86569350,(010)62618906",1,5ca1e6c7ba827f2380a00c9d
人保博物馆,40.007597,116.320035,北京市海淀区清华西路28号,4ac04ff849a5aefcb75f1ea1,,1,4ac04ff849a5aefcb75f1ea1
姜杰城音乐舞蹈学校手风琴博物馆,40.04121,116.318019,北京市海淀区信息路上地信息产业基地科实大厦,0c14aea2c55d4f6aec74f8ad,,1,0c14aea2c55d4f6aec74f8ad
中国文物博物馆学院,40.002624,116.312813,颐和园路5燕园北京大学,a8de67ff3f29440e9c09f7ea,,1,a8de67ff3f29440e9c09f7ea
北京上庄纳兰性德史迹陈列馆,40.112522,116.204621,北京市海淀区南沙河西路,ac598e2c9af4b161b020a8c2,,1,ac598e2c9af4b161b020a8c2
孔庙和国子监博物馆,39.95288,116.420267,北京市东城区国子监街15号,00a30378c0b092fa9cf779cd,(010)84027224,1,41572e00530f08b4b45f1ed2
北京鲁迅博物馆,39.93152,116.365327,北京市西城区阜成门内宫门口二条19号,4cf8d24ea7a848fd9df779b4,(010)50872677,1,4cf8d24ea7a848fd9df779b4
时间博物馆,39.946467,116.403489,鼓楼东大街298号,406d98a32a71767d95f08ce7,"(010)64087613,(010)64087610",1,406d98a32a71767d95f08ce7
通惠河玉河遗址,39.940023,116.406222,北京市东城区东不压桥49号,8d96925c8adc7f38c1f1cfc8,,1,8d96925c8adc7f38c1f1cfc8
王老吉凉茶博物馆,39.981553,116.377063,北京市海淀区花园东路36号,844bebe52f247ec14c3a5963,(010)62352631,1,844bebe52f247ec14c3a5963
非遗博物馆,39.941886,116.409109,北京市东城区雨儿胡同2,fa8083253fd0f96aa1a934de,,1,fa8083253fd0f96aa1a934de
老北京四合院文化博物馆,39.931882,116.364241,阜成门内青塔胡同41号,9f48d902bf629e87c91b95dd,,1,9f48d902bf629e87c91b95dd
苗族博物馆,39.985822,116.39914,北土城西路与北辰路交叉口西北200米,b91300afed4581060c0a709e,,1,b91300afed4581060c0a709e
松堂斋民间雕刻博物馆,39.951929,116.422651,北京市东城区国子监街3号,db5943fe4e3c1150d23ce344,,1,db5943fe4e3c1150d23ce344
沉香博物馆,39.95116,116.423406,雍和宫大街30号,ad10e4429c5e642642e192e0,(010)64058333,1,ad10e4429c5e642642e192e0
国际友谊博物馆,39.951919,116.426399,戏楼胡同1号柏林寺,d179cb85c1d5f45146e274e1,,1,d179cb85c1d5f45146e274e1
北京胡同声音博物馆,39.941759,116.409231,北京市东城区南锣鼓巷与雨儿胡同交叉口西南50米,3b76d1f70343887c95ca0787,,1,3b76d1f70343887c95ca0787
北京乾鼎老酒博物馆,39.945329,116.401357,西城区鼓楼赵府街69号(近张旺胡同),745b7034bdffd21c2fb96d4d,(010)64040299,1,745b7034bdffd21c2fb96d4d
京剧艺术博物馆,39.937862,116.371989,西城区平安里西大街22号国家京剧院大厦5楼,63403aaa5b8e749ef7e73b45,,1,63403aaa5b8e749ef7e73b45
三香三,39.951217,116.423336,北京市东城区戏楼胡同18号,26c94f29f87c6469a31de971,(010)84037974,1,d06b29bcf0f72409940319af
雍和宫藏传佛教艺术博物馆,39.952489,116.423765,北京市东城区雍和宫大街12号,,,1,fefe7635fe6c00e54354d783
北京美发博物馆,39.958527,116.400247,北京市西城区安定门安德路乙61号院工人日报3号楼,cf8f4834fe98ae2d1df74df5,,1,cf8f4834fe98ae2d1df74df5
卡汶凯瑟气味博物馆,39.94554,116.400762,小石碑胡同与烟袋斜街交叉口东50米,2d373dcc11cacbbc354aaef1,,1,2d373dcc11cacbbc354aaef1
中博藏博物馆,39.951421,116.420357,国子监街28-2,8dbc74a4d93fafe9336212c8,(010)56291315,1,8dbc74a4d93fafe9336212c8
蒙古族博物馆,39.985692,116.398574,北京市朝阳区民族园路1号(健翔桥东路口)北京中华民族博物院南园内,23fbbd43db7da949c7f025f2,(010)62063647,1,23fbbd43db7da949c7f025f2
北京泌尿内窥镜博物馆,39.934959,116.384907,厂桥北大医院第二住院部西厅一楼(北京四中),24c3cb08b8bfdb0516a190d0,,1,24c3cb08b8bfdb0516a190d0
北京财神博物馆,39.941897,116.409173,北京市东城区雨儿胡同2号,b891a42b49849b3f157643f4,,1,b891a42b49849b3f157643f4
北京精诚奥林匹克教育博物馆,39.98602,116.389494,北京市朝阳区华严里34,eebcce1e0df76b1adc1e5233,,1,eebcce1e0df76b1adc1e5233
三一代码拼音文字博物馆,39.948506,116.412331,西公街22号,187fd2a58bf2940e32870aef,,1,187fd2a58bf2940e32870aef
北京自来水博物馆,39.951899,116.443998,北京市东城区香河园街3号,f5b890cda7b051be0782c23b,(010)64650787,1,f5b890cda7b051be0782c23b
保利艺术博物馆,39.938534,116.439208,北京市东城区朝阳门北大街1号,25ec69fc460d557dc26c14d2,(010)65008117,1,25ec69fc460d557dc26c14d2
中国华侨历史博物馆,39.949015,116.431551,北京东城区北新桥三条东口,e52e33781ed9d6ee0bccddc3,(010)64070943,1,e52e33781ed9d6ee0bccddc3
中国农业博物馆,39.947016,116.47137,东三环北路16号,207db3a029ff63e65cd4fe93,"(010)65096063,(010)65096233,(010)65096068",1,207db3a029ff63e65cd4fe93
北京中医药大学-中医药博物馆,39.976554,116.433033,北京市朝阳区北三环东路11号北京中医药大学逸夫科技馆内(近和平街北),46e86fddc2aea213d13ce34e,"(010)64286839,(010)64286815,(010)64286835",1,46e86fddc2aea213d13ce34e
民族服饰博物馆,39.980064,116.436173,和平街北口樱花路甲2号北京服装学院综合大楼三层,d6c5d991ee0578e831169b92,"(010)64288067,(010)64288261",1,d6c5d991ee0578e831169b92
国际金融博物馆,39.951809,116.491221,北京市朝阳区朝阳公园路1号朝阳公园东五门内,,(010)65919067,1,0a2b8a83476eb6ebfda77856
中国医史博物馆,39.945047,116.43303,北京市东城区东直门内南小街16,,(010)64014411,1,b82c20e9d193514c0e3ddae1
北京和苑博物馆,39.966406,116.477912,北京市朝阳区霄云路18号京润水上花园别墅A10,,(010)64686777,1,a13d6a65d2617a560c0a70c2
能喝茶的博物馆,39.940152,116.433594,北门仓胡同6-12号,dfa0b3b169644154465726a2,(010)82150158,1,dfa0b3b169644154465726a2
唐人艺仓博物馆,39.939145,116.438313,东四十条南新仓,5a45330dea0b6ad9d72ce2ab,(010)64096467,1,5a45330dea0b6ad9d72ce2ab
随缘陶瓷艺术博物馆,39.974735,116.455105,朝阳区西坝河东里甲1号2楼,adadc6e96aa54b2b9a68b4a9,"(010)64688182,(010)64619584",1,adadc6e96aa54b2b9a68b4a9
中华农业文明陈列馆,39.94882,116.472283,北京市朝阳区东三环北路中国农业博物馆内,6ed3083a7a2886ca2b3a9fce,(010)65096065,1,6ed3083a7a2886ca2b3a9fce
中国航海学会,39.964055,116.432131,北京市东城区和平里东街10号院-1号交通部办公楼,1e7867f2cdeb2faf00897281,(010)65299797,1,1e7867f2cdeb2faf00897281
英杰硬石博物馆,39.946431,116.454671,北京市朝阳区东直门外大街26号奥加美术馆酒店一层,,,1,05800563b80c182a6d20b9d0
东四奥林匹克社区博物馆,39.934181,116.439887,朝阳门北顺城街甲73号,86c3a44348d8f0e9e011039f,,1,86c3a44348d8f0e9e011039f
中国传统农具陈列馆,39.944298,116.474325,北京市朝阳区东三环北路16号,1125c62ae43958e17f29bd9f,,1,1125c62ae43958e17f29bd9f
彩陶中的远古农业陈列馆,39.944477,116.474555,北京市朝阳区东三环北路16号,2e00c5dd63c7e361d7851fcc,,1,2e00c5dd63c7e361d7851fcc
对外经济贸易大学-校史博物馆,39.986029,116.436815,北京市朝阳区惠新东街10号院4,df812ed07c4da75743ab9ae3,,1,df812ed07c4da75743ab9ae3
高井村史博物馆,39.935645,116.553142,白家楼,285cda409d3aaa3b2efaa72d,,1,285cda409d3aaa3b2efaa72d
行宫博物馆,39.939215,116.514615,北京市朝阳区石佛营东里155号行宫酒店附近,,,1,0babe8db8c3637f51b11d559
国家动物博物馆,40.008778,116.388028,朝阳区北辰西路1号院5号中国科学院动物研究所-国家动物博物馆,7ff3f620226728535d0d025a,"(010)64806899,(010)64807976,(010)64807212,(010)64807563,(010)64807975",1,7ff3f620226728535d0d025a
中国藏学研究中心-西藏文化博物馆,39.995564,116.421116,北四环东路131号,6dd8eacd0ceb638c96f08c97,(010)64935128,1,6dd8eacd0ceb638c96f08c97
北京奥运博物馆,39.996822,116.40293,北京市朝阳区国家体育场南路1号(鸟巢),72cb7b11046b6a59fe0eb011,,1,72cb7b11046b6a59fe0eb011
数字博物馆,40.001527,116.394503,朝阳区北辰西路12号,c9fb7816591f50e22c47333e,,1,72e57fd73adfc3d2f8dc85d2
鸟巢知青博物馆,39.998074,116.404322,北京市朝阳区鸟巢,,,1,4b157c8ab73ce9415cd4fe63
中国体育博物馆,39.988804,116.412212,北京市朝阳区安定路甲3号国家奥林匹克体育中心东南角,9be5a21ac4dcbc552b06ce75,(010)67051950,1,9be5a21ac4dcbc552b06ce75
民间奥运博物馆,40.014322,116.387923,北京市朝阳区林萃东路2号,29740ff9f0a316a1ede4a5e7,(010)84376208,1,29740ff9f0a316a1ede4a5e7
北京大学医学部病理学博物馆,39.988881,116.363346,北京市海淀区花园北路163号附近,befaadf4f4192276a8175a8e,,1,befaadf4f4192276a8175a8e
羌族博物馆,39.990598,116.396786,北京市朝阳区民族园路1号(健翔桥东路口)北京中华民族博物院北园内,9c11a3cdb4d13665210220d2,,1,9c11a3cdb4d13665210220d2
满族博物馆,39.993061,116.398502,北京市朝阳区民族园路1号(健翔桥东路口)北京中华民族博物院北园内,8e9eb5c977de13e5cb213d17,,1,8e9eb5c977de13e5cb213d17
Chinese Nation Park North Park,39.992358,116.39775,北京市朝阳区民族园路1号,5a1991fd817a92969c09f7f7,,1,5a1991fd817a92969c09f7f7
土族博物馆,39.991317,116.397136,北京市朝阳区民族园路1号(健翔桥东路口)北京中华民族博物院北园内,3fdc43597e3aa36232870a4c,,1,3fdc43597e3aa36232870a4c
黄金历史(新奥购物中心),40.007866,116.400202,湖景东路9号新奥购物中心B1层,59f3de879cbca831d13ce3c4,,1,59f3de879cbca831d13ce3c4
中央大厅,40.008611,116.387718,北京市朝阳区大屯路14附近,9f8d177a295f61ec283a9f76,,1,9f8d177a295f61ec283a9f76
奥运村博物馆联盟,40.014438,116.387723,林萃东路2号院,,,1,2bbd64bf90588cf071455bca
奥运村地区博物馆,40.041014,116.410684,北京市朝阳区清林路1号,2ba02888ff4bc5a08bfc0610,,1,2ba02888ff4bc5a08bfc0610
北京世奥国际艺术博物馆,40.014273,116.387893,林萃东路2号院民间奥运博物馆附近,,,1,d731a1793c65ece4d6b74e9a
鄂伦春博物馆,39.992969,116.398168,北京市朝阳区民族园路1号(健翔桥东路口)北京中华民族博物院北园内,57cc422bc4aa02db4e2fdf40,(010)62063646,1,57cc422bc4aa02db4e2fdf40
北京华夏文博国际艺术博物馆,40.014397,116.387848,林萃东路2号院民间奥运博物馆附近,,,1,02ba10b58b271325343a71d5
中国现代文学馆,39.990717,116.436684,北京市朝阳区文学馆路45号,083a55fa3e181079256e9892,(010)57311800,1,083a55fa3e181079256e9892
北京税务博物馆,39.988275,116.45307,北京市北四环东路临1号,37ea89edbef1e726ae080fdc,(010)84299713,1,37ea89edbef1e726ae080fdc
中国现代文学馆-A座,39.989833,116.436708,文学馆路45号中国现代文学馆A座,f2b5e49144ae79eb5d0d0200,,1,f2b5e49144ae79eb5d0d0200
北京工业大学艺术设计学院-民间美术博物馆,39.990707,116.431883,北京市朝阳区文学馆路,08f1a50b13f5f7a69e82eab9,,1,08f1a50b13f5f7a69e82eab9
中国铁道博物馆(东郊展馆),40.003628,116.522415,北京市朝阳区酒仙桥北路1号院北侧,58dab29e6dd4c8e74d776ef9,(010)64381317,1,58dab29e6dd4c8e74d776ef9
观复博物馆,40.013309,116.540397,大山子张万坟金南路18号观复博物馆,731f0e2ae43205e460180948,"(010)64362308,(010)64338887",1,f29fb5d80cc2c51259bbbc58
活的3D博物馆,39.990043,116.507792,北京市朝阳区酒仙桥路4号751时尚广场C12号,,,1,73061f385ed64d609122e0ad
民航博物馆,40.024063,116.54427,北京市朝阳区机场辅路200号,f0b3dabf143b2c592902e199,(010)84323666,1,f0b3dabf143b2c592902e199
中国电影博物馆,40.002713,116.527221,北京市朝阳区南影路9号,492833248b0228a643024537,(010)51654567,1,492833248b0228a643024537
中国当代设计博物馆,39.99162,116.50012,北京市朝阳区酒仙桥路4号798艺术区798西街D02-186号,2c4a031f47cff8805abbbcd0,(010)57626151,1,2c4a031f47cff8805abbbcd0
朱炳仁艺术博物馆,39.990131,116.498302,北京市朝阳区酒仙桥路2号友谊大厦1层,c7798c61b77d24ab0e3ddacf,(010)56049884,1,c7798c61b77d24ab0e3ddacf
非物质文化遗产传承教育博物馆,39.98846,116.494449,东直门酒仙桥大山子西里10号中央美术学院附属实验学校,b73c0ec7828d92e779f796b9,,1,b73c0ec7828d92e779f796b9
中国麦克风博物馆,39.992345,116.496876,北京市朝阳区酒仙桥路2号01商务楼一层,0b4a50b49fd95232badf8fc9,,1,0b4a50b49fd95232badf8fc9
ssgp机车博物馆,40.025625,116.5732,金港北二路一号库内A区,,,1,081b728156fafc0a4c6d4642
东韵民族艺术博物馆,40.030917,116.56389,孙河乡前苇沟村村北甲1号,8865b4980938a2bb28201a99,(010)84329101,1,8865b4980938a2bb28201a99
单家村村史博物馆,40.072027,116.395268,太平庄中街南200米,e94208c9aeef457ec2f1cf8f,,1,e94208c9aeef457ec2f1cf8f
修脚博物馆,40.075269,116.438815,天通苑东一区塔楼6号底商,9be908f42177560337b06c2a,,1,9be908f42177560337b06c2a
中国孝道文化博物馆,40.048215,116.516939,顺白路731号附近,324920f3ffe4baea54bfff17,,1,324920f3ffe4baea54bfff17
日课,40.049901,116.500262,顺白路汉方美术馆对面,0e3842c56e4c412ce7073889,,1,0e3842c56e4c412ce7073889
御生堂中医药博物馆,40.112056,116.414714,昌平区北七家镇王府公寓2-35号,1088710e805d47d4f7eafc19,(010)81788271,1,1088710e805d47d4f7eafc19
郑各庄村史博物馆,40.113006,116.376509,北京市昌平区上白路郑各庄村史博物馆,2d44786ee974cfc07e29bd55,,1,2d44786ee974cfc07e29bd55
