name,lat,lng,adderss,street_id,telephone,detail,uid
北京影驿站主题民宿良乡店,39.73802,116.142171,北京市房山区良乡西潞北大街西潞大厦3层,7e6ac60e5115d5b7364aaed8,(010)60305023,1,7e6ac60e5115d5b7364aaed8
缤果田园农家乐,39.705093,116.138541,北京市房山区南六环辅路肖庄村六环路北,d9c13972596dd302c9291577,13511062323,1,d9c13972596dd302c9291577
北京聚一天之阳光邑上别墅民宿,39.73603,116.166902,良乡大学城西阳光邑上小区1号楼108室(近良乡地铁),13729a398b074071d81318c9,18810276975,1,13729a398b074071d81318c9
北京星座主题公寓民宿,39.730154,116.17775,北京市房山区良乡睿府书香10号院6号楼710,34be987a4ae930b209b93ae5,13810096937,1,34be987a4ae930b209b93ae5
北京威尼斯民宿公寓,39.730225,116.175228,北京市房山区良乡书院南街10号院11号楼201,,(010)60350710,1,92d8dc8437c7c543ee74f878
北京metall studio民宿,39.730699,116.174611,北京市房山区阳光南大街睿府小区西区6号楼1单元1001号,77d41960e8c22bb231870a87,,1,77d41960e8c22bb231870a87
北京九天的家民宿,39.737523,116.194699,北京市房山区万科新里程二期8号楼1单元1301,ae922bacdf602b21a21de978,13911450636,1,ae922bacdf602b21a21de978
北京青年民宿公寓大兴店,39.752528,116.338821,北京市大兴区黄村兴华大街波普工社3号院,fb1eaaf94ed3e382095cb337,,1,fb1eaaf94ed3e382095cb337
北京糖果民宿长阳半岛店,39.763955,116.218051,北京市房山区中粮万科长阳半岛五号怡和南路13号院2号楼432,,,1,0b36c892fde1195957bfffb6
北京那地方民宿公寓九洲溪雅苑店,39.78046,116.180297,北京市房山区京周路九洲溪雅苑,695d40fc453b0f1d32870a3e,18646220617,1,695d40fc453b0f1d32870a3e
北京玖伍贰柒农家院,39.810678,116.172448,北京市丰台区迎宾东路,,13522414977,1,004720c05b2d22fa3686f439
北京那地方民宿公寓加州水郡店,39.773299,116.175626,北京市房山区京周路加州水郡,89913c956a6e69513fe2319d,18646220617,1,89913c956a6e69513fe2319d
北京凯西民宿公寓缤纷城店,39.769516,116.340369,北京市大兴区兴华大街与金星西路交叉口东北角(金星西路3号院2号楼),fd07af4f27983974c909f0a3,18010029883,1,fd07af4f27983974c909f0a3
北京青年民宿公寓,39.770368,116.341374,北京市大兴区高米店南金星西路3号绿地缤纷城财贸中心2号楼(高米店南地铁站),c116883b1c404d8f16a1903a,13301373929,1,c116883b1c404d8f16a1903a
北京悦枫民宿,39.769527,116.340318,北京市大兴区金星西路3号院绿地财富中心公寓11层,74e10d89738ea7a3f33cba17,13522077400,1,74e10d89738ea7a3f33cba17
北京民宿精品短租普通公寓欣旺大街分店,39.79231,116.345806,北京市大兴区地铁大兴线西红门,1f61e5519ee79c432b3a9fd9,4006061230-77719,1,1f61e5519ee79c432b3a9fd9
北京雪精灵民宿公寓,39.80501,116.349161,北京市大兴区九龙家园内,746b95eabf6f0a4403ec01db,13161576111,1,746b95eabf6f0a4403ec01db
北京金居公寓民宿,39.78766,116.29888,北京市大兴区芦花路狼垡一村爱童幼儿教育隔壁,952a0a49ccfa8c05e8e582d7,,1,952a0a49ccfa8c05e8e582d7
金潍多草莓采摘基地,39.846,116.157541,长辛店乡李家峪村辛庄南路1街,5cbbcc625dc998e94bcc4a90,(010)83609962,1,5cbbcc625dc998e94bcc4a90
Xbed互联网民宿,39.871606,116.270491,北京市丰台区大井桥南202号南50米,,18610005521,1,86d52d84f84a6e219a00504d
北京诺德民宿公寓,39.832772,116.307678,北京市丰台区汽车博物馆东路1号院10号楼7层,99caa8933135d93a2fb908d8,13911892863,1,99caa8933135d93a2fb908d8
北京中海宜家民宿公寓,39.824931,116.305342,北京市丰台区-丰科路中海御鑫阁4号楼-近地铁9号线,02381b38f08c2ba2db131846,13552730776,1,02381b38f08c2ba2db131846
北京兰贵人民宿(科兴路店),39.840835,116.297559,丰泽居2号楼902,e05a5cff4d2d1cfbfca778ca,4006061230-87691,1,e05a5cff4d2d1cfbfca778ca
北京京彩E家共享民宿,39.851655,116.325488,北京市丰台区万年花城万芳园-一区,dca74202306fb896e0110344,,1,dca74202306fb896e0110344
北京安逸之家民宿,39.858925,116.351835,丰台区玉泉营桥111号中科基业广场A座5层(近红博馆),300effd587cbba46f503b891,13146826035,1,300effd587cbba46f503b891
北京休闲驿站快捷民宿,39.914361,116.117809,北京门头沟区永定镇冯村商业街南段三、四层,aa91695683e493b2306212e7,(010)61860988,1,aa91695683e493b2306212e7
北京景怿民宿,39.91039,116.209479,北京市石景山区古城南里五号楼五单元235号,03447077ccf21ebd704b87da,15911006807,1,03447077ccf21ebd704b87da
北京悠然短租民宿长安家园店,39.912677,116.200473,北京市石景山区石景山路42号长安家园1号楼,e1971f2238f7fa8e2d47338a,,1,0f653570d001a5c9a1d230b7
北京和和美美特色民宿(人民渠路分店),39.904784,116.20799,北京石景山区北京石景山区体育场西街20号院,,,1,e21b9ce8d04e63bc7369d358
北京航天家庭民宿,39.922848,116.255723,北京市石景山区玉泉路城建构件厂宿舍楼11号院3号楼,,13716043932,1,ae132d50570870bec0f1cfbd
北京安娜家庭民宿,39.915987,116.272809,北京市海淀区永定路70号院552号楼,93f98329e0017ae4b3077d05,15210845167,1,93f98329e0017ae4b3077d05
北京红梅家庭民宿,39.917559,116.268497,北京市海淀区永定路57号院228和227号楼院武警医院旁边,1e24da5f62be274fd8d891d5,13811759895,1,1e24da5f62be274fd8d891d5
北京小布丁家庭民宿,39.929066,116.294377,北京市海淀区定慧寺定慧东里13号楼3单元,eee669b81a80e6a98d1a8915,18201200058,1,eee669b81a80e6a98d1a8915
北京阳光家庭民宿五棵松店,39.912859,116.27943,北京市海淀区复兴路五棵松地铁站西南口北京建工六建集团小区门口,c1854e0157a817746f3e1bb0,18310716040,1,c1854e0157a817746f3e1bb0
北京复馨家庭民宿,39.889606,116.284728,北京市丰台区302医院对面红庭内,86326e804ca0dddf1b94c607,17611666588,1,86326e804ca0dddf1b94c607
北京黄哥家庭民宿,39.913449,116.27936,北京市海淀区复兴路30号楼,b5ffa2ee9be21de8a3acc4af,13683058301,1,b5ffa2ee9be21de8a3acc4af
北京萍萍301家庭民宿,39.913336,116.278353,北京海淀区复兴路30号,,15801540134,1,4b507b330da0b1e84354d707
北京城缘民宿,39.92858,116.296411,八宝庄38号楼,0677f73f8c2b3d9723f0176f,13520278872,1,0677f73f8c2b3d9723f0176f
北京老池家庭民宿,39.88949,116.284659,北京市丰台区302医院南门对面,630b2d63918e80acd72ce2d1,15321245101,1,630b2d63918e80acd72ce2d1
北京博爱家庭民宿,39.912878,116.259948,北京市石景山区复兴路46号院1号楼3单元104室,e14156426a0b6f4b5a3ac8ff,(010)68224595,1,e14156426a0b6f4b5a3ac8ff
北京302安康家庭民宿,39.889477,116.284751,北京市丰台区302医院南门对面430室,23de1930b28fd6823be4a608,13146755333,1,23de1930b28fd6823be4a608
北京思易精品民宿,39.893707,116.28173,北京丰台区郑常庄326号(c座一层),959ad3064d025cd9f5c59cbf,15101606798,1,959ad3064d025cd9f5c59cbf
北京五棵松301康宇家庭民宿,39.913252,116.276461,北京市海淀区五棵松地铁西南口,24f4cfcbfbb71c7eca09f03d,15910353848,1,24f4cfcbfbb71c7eca09f03d
北京301诚信家庭民宿,39.915064,116.274382,海淀区复兴路81号院7号楼,,13552663251,1,3b5bc7bff51fce3893114c1f
北京易住家庭民宿,39.928619,116.296178,北京市海淀区阜城路甲52号院1号楼7单元802,1c05d2cf62a68ba154bfffdb,13520633045,1,3dcb69f1de385b597bf79629
北京301爱心家庭民宿,39.912312,116.276444,北京市海淀区301五棵松地铁旁六建小区院内,266449eb05efe7590bf5eb64,13520574715,1,266449eb05efe7590bf5eb64
北京小云家庭民宿,39.915083,116.268699,北京市海淀区永定路85号院417号楼一单元306室,07b59af19ca46202018972c1,13651199162,1,07b59af19ca46202018972c1
北京雪儿民宿(玉泉路口店),39.912309,116.259787,北京石景山区五棵树玉泉路复兴路46号院1号楼302,f616f6f61724fcdce6073842,,1,f616f6f61724fcdce6073842
北京雪儿民宿(东翠路店),39.916282,116.293607,北京市海淀区万寿路西街10号院1号楼2单元201,6945fc57d65f9ba5cae33c57,4006061230-132142,1,6945fc57d65f9ba5cae33c57
北京雪儿民宿(金沟河路店),39.923429,116.267509,北京市海淀区金沟河路10号院1号楼3单元1006,f47b0c51eb63487d2806ce85,,1,f47b0c51eb63487d2806ce85
北京wh111000特色民宿(望园路分店),39.87794,116.287315,北京丰台区西四环南路30号院,,,1,6b720bbed689836988fc064d
锦江之星酒店(广安门店),39.880647,116.358501,北京市西城区广安门南街56号白纸坊桥东南侧400米,2889ccf74a42a7127bf7962a,(010)83516198,1,2889ccf74a42a7127bf7962a
北京荣丰二零零八民宿,39.9015,116.341965,北京市西城区广外大街305号荣丰2008小区9号楼2层,0191117457c3eccd932ca33a,13521769320,1,0191117457c3eccd932ca33a
北京华奕承民宿公寓翠微店,39.919412,116.309569,北京市海淀区翠微路甲10号院3层休闲吧,3a0fbba85f3cec589ee32104,13269599913,1,3a0fbba85f3cec589ee32104
北京普丽泰家庭民宿,39.924885,116.356713,北京市西城区月坛西街甲3号,51f9e3940255b9cf5cd4fed0,(010)68013795,1,51f9e3940255b9cf5cd4fed0
北京居家家庭民宿,39.915557,116.361166,北京市西城区儿童医院附近,f120efadf8579b661ee99957,13522340548,1,f120efadf8579b661ee99957
北京六里桥十号院-农家院,39.888972,116.310091,六里桥十号院3号楼102,a8e713486b2b458373455b41,,1,a8e713486b2b458373455b41
北京云栖小筑民宿,39.901634,116.34197,广安门外大街305号八区9号楼2019,,,1,d42907d8cf8e2acd04fef5d5
北京LL民宿(阜成路店),39.931186,116.336212,北京海淀区甘家口小区,,,1,5ecd278ca39bde03a80dd8f7
北京雪儿民宿(翠微路店),39.92112,116.304333,北京市海淀区万寿路翠微中里1号楼1602,6d94021496825195095cb3a4,,1,6d94021496825195095cb3a4
北京吉祥如意民宿鸭子桥北里店,39.884728,116.354088,广安门外南街鸭子桥北里小区2号楼3单元101室,bd5ac272fe2a4ddb8a36eef6,15611090007,1,bd5ac272fe2a4ddb8a36eef6
红星集体农庄,39.747778,116.413244,西红门镇兴亦路与南中轴路交汇处,dffd631c744609c239221c8e,(010)61267171,1,dffd631c744609c239221c8e
儒家住宿,39.756081,116.388568,北京市大兴区团忠路与团河路交叉口南100米,bcbbc06386d07f790f0e6b12,,1,bcbbc06386d07f790f0e6b12
北京住家民宿(辛房路店),39.743068,116.553045,北京市通州区亦庄中关村科技园区马驹桥1号桥南500米合生世界村i区9号楼2512,a4bd4ca346890907631c672a,18010032978,1,a4bd4ca346890907631c672a
北京日兴民宿,39.758228,116.564716,北京市通州区303省道爱德康医院南100米,2b30df30b045a0a42902e1db,(010)52339718,1,2b30df30b045a0a42902e1db
北京阳光住宿公寓,39.731914,116.567169,北京市通州区周营村中街牌楼向里350米右侧巷子里,f0446dd92b30740b283a9f18,(010)60593551,1,f0446dd92b30740b283a9f18
周营生态农家院,39.72704,116.567899,周营村南街,,,1,cb0690a9b0cc349708f5eb1c
北京微墅之家民宿,39.746868,116.562301,合生世界花园老六号楼1单元803室,73dc76934b355fcb2dfaa700,4006061230-99215,1,73dc76934b355fcb2dfaa700
北京朵亚民宿南苑机场店,39.774997,116.386058,北京市大兴区团河路大白楼5号楼,7b93647a2ed7d90d0d3dda39,(010)61280262,1,7b93647a2ed7d90d0d3dda39
北京欢聚一堂宾馆,39.806357,116.481735,北京市大兴区富源里小区14号楼7门,5b707f6a3ca07752eb12e4ec,(010)67898393,1,5b707f6a3ca07752eb12e4ec
哈尔滨农家院,39.81499,116.462165,科技路2号附近,008b51ff7beb288588db73fa,,1,008b51ff7beb288588db73fa
富驿商旅酒店(北京亦庄店),39.807561,116.496831,北京市大兴区天华西路天华园一里3区14号,72e57fd7555024b6f9dc85bb,(010)67862348,1,72e57fd7555024b6f9dc85bb
北京悦民宿公寓,39.797151,116.516999,大兴区亦庄经济技术开发区荣华南路1号国锐·金嵿,28cb9ce7676d8eb6892fb5c6,,1,28cb9ce7676d8eb6892fb5c6
北京大麦高端订制民宿公寓亦庄店,39.791697,116.503549,北京市大兴区亦庄地盛西路6号F栋6号楼,0bb32eafc73120ea843304e1,18511161138,1,0bb32eafc73120ea843304e1
松下住宿,39.8182,116.529043,北京市大兴区亦庄经济技术开发区科创二街21号楼4层414,e4e003521f5f2b84c61b7551,,1,e4e003521f5f2b84c61b7551
北京住家民宿,39.766531,116.588011,北京市通州区珠江四季悦城1号楼,f95c1f00e6feaaa2f5231051,18010032978,1,f95c1f00e6feaaa2f5231051
北京锋创科技园民宿公寓,39.788676,116.575222,北京市通州区科创十三街锋创科技园1号楼11层1112,,13801225291,1,307fc7c1a896a23587154126
北京摩尔民宿通州店(分店),39.768235,116.586931,星悦国际小区19号楼109室,,4006061230-164377,1,c87a637d3c2825b826d2bb29
海友酒店(北京永定门店),39.871936,116.412224,北京市东城区安乐林路69号4号楼,ef5aaa4ff4cf3b3fb55f1efa,(010)67220832,1,ef5aaa4ff4cf3b3fb55f1efa
北京i舍青年家庭民宿,39.849825,116.383077,北京市丰台区角门12号院-2号楼,,15810500860,1,c48a8ba93b750accb5f42f8d
北京乐百荣宾馆,39.864138,116.390962,北京丰台区南三环中路73号,6835e3a785de664ee31103d7,(010)87818086,1,6835e3a785de664ee31103d7
北京七彩民宿,39.844501,116.420362,北京丰台区光彩路67号院1号楼,2da01cf66f2d1758d12dd603,(010)67286575,1,2da01cf66f2d1758d12dd603
北京华云鑫民宿,39.868354,116.398872,北京市丰台区西罗园一区13号楼2层,277dcb63dcf0f386ae080f4e,(010)87208896,1,277dcb63dcf0f386ae080f4e
北京远中悦麒高级家庭式民宿公寓,39.862994,116.417362,北京市丰台区赵公口甲13号,36c51cee7d5ce037ea56fa0f,13521372127,1,36c51cee7d5ce037ea56fa0f
京港世纪宾馆住宿,39.85553,116.403046,北京市丰台区珠江骏景南区东路10号附近,819531a14413b77a631c674e,(010)87811122,1,819531a14413b77a631c674e
北京民宿精品短租普通公寓久敬庄路分店,39.826107,116.414388,北京市丰台区大红门久敬庄久敬佳园,6866b570d0e6fb1ef603b8c1,4006061230-77719,1,6866b570d0e6fb1ef603b8c1
兴国都宾馆住宿,39.848436,116.418509,南顶路甲5号,bdac54bccb80b28b71210bec,,1,bdac54bccb80b28b71210bec
北京旅游快乐之家民宿,39.87394,116.380437,北京市丰台区开阳路开阳里一区嘉金大厦A座1511房间,1d01c1ea136e059e09a8d4e3,,1,1d01c1ea136e059e09a8d4e3
北京良心房东特色民宿(北甲地路店),39.85052,116.36905,北京市丰台区镇国寺北街4号院冬季星空小区,,,1,9f5b491b61ccfa3a89fc06a8
北京高档民宿,39.856911,116.381969,马家堡角门北路13号鸿运食府二楼,e8e3ea875d5073d088b988c1,18611300246,1,e8e3ea875d5073d088b988c1
刘家大院农家菜,39.872152,116.451883,朝阳区方庄东路41号(紫芳路东丁字口),e3e2cd9d1c274ffac7f50dc2,"(010)67639213,15010905052",1,e3e2cd9d1c274ffac7f50dc2
北京巧寓民宿,39.843596,116.466992,北京市朝阳区小红门路龙爪树南里1019号,c9a6ab3ced9587c26f476016,(010)56232023,1,c9a6ab3ced9587c26f476016
北京美景民宿十里河地铁站店,39.873579,116.460366,北京市朝阳区弘善东路弘善家园211号楼301室,bb11b9432a9808818af15d75,13466602823,1,bb11b9432a9808818af15d75
北京长亭短亭Iris House民宿(方庄店),39.874591,116.430578,北京市丰台区蒲黄榆路芳古园一区15号1楼,fdcbb1d22a4de28c5abbbc93,15901143159,1,fdcbb1d22a4de28c5abbbc93
北京假日阳光民宿公寓,39.869526,116.49185,北京市朝阳区东四环南路53号林达海渔广场,0fd2128e5b9440019e9d68dd,13661050987,1,0fd2128e5b9440019e9d68dd
北京gogo民宿,39.872431,116.428702,北京市丰台区蒲芳路9号物美大卖场院内,739735bbc77bf67d83a00c71,18811468339,1,739735bbc77bf67d83a00c71
朋来住宿,39.841792,116.481831,北京市朝阳区博大路东50米,37227516ba72372df33cbac5,"(010)87625507,18611212495",1,37227516ba72372df33cbac5
如家住宿,39.846392,116.478072,北京市朝阳区吕家营南里187号,,,1,87880cdb3d42094e246e98f5
北京大象民宿(蒲黄榆路口店),39.872271,116.429772,蒲芳路9号院3号楼25层,d177c2698cc4d1e6c2f1cf5c,15210304273,1,d177c2698cc4d1e6c2f1cf5c
北京百分百民宿,39.850735,116.454065,北京市朝阳区成寿寺路134号院,323e681a10f5fdded4851fdf,(010)87211995,1,323e681a10f5fdded4851fdf
北京好家温情民宿公寓方庄店,39.864103,116.446232,北京市丰台区方庄南路和南三环东路交口处(亚胜铂第公馆A座15层),a6c8906fe9d758d7a1d2309d,15010003321,1,a6c8906fe9d758d7a1d2309d
北京温馨缘小家民宿,39.865388,116.485623,北京市朝阳区周庄嘉园6号院-西门11号楼三单元802,,,1,8d6271d5572abd8c94ec84b2
顺丰住宿,39.846504,116.478056,北京市朝阳区十八里店十八里店南桥吕家营南里172号,d50d5ca08f8dd8c075e5b6da,"13011278295,18310818327",1,d50d5ca08f8dd8c075e5b6da
联年福公寓一号楼二楼休息住宿处,39.842434,116.467839,北京市朝阳区南四环东路28号附近,a0b167f34d24c49e3c9a5ea0,,1,a0b167f34d24c49e3c9a5ea0
北京来这儿民宿,39.87405,116.450515,北京市朝阳区10am·新坐标A1号楼1311,4bfacf2232bd462eb9df8f1a,4006061230-104853,1,4bfacf2232bd462eb9df8f1a
北京金汇民宿公寓蒲方路店,39.872674,116.428497,北京市丰台区蒲方路9号院2号楼2109,26ad5931727a8bf22fb17edb,4006061230-102104,1,26ad5931727a8bf22fb17edb
北京时间民宿,39.829733,116.515726,北京市朝阳区十八里店乡横街子391号(百分百购物广场对面),1e975f42802894cb7369d3f5,17600369456,1,1e975f42802894cb7369d3f5
北京落雪无声特色民宿(嘉创一路店),39.824252,116.555918,通州区台湖镇嘉创路富诺登生活广场,,,1,a34b368c454626284c6d46f9
北京椿舍精品民宿,39.906083,116.37612,北京市西城区宣武门西大街89号,25b47f8905b82919873304b7,18519713041,1,25b47f8905b82919873304b7
阿来客栈(广聚园店),39.901261,116.39935,北京市西城区大栅栏西街52号,43b7e88916f6c87358f6be0a,(010)63030879,1,43b7e88916f6c87358f6be0a
享缘精品酒店住宿,39.897678,116.414274,北京市东城区金鱼池中街2号院-11-40,4b672a6ca204b351d618b738,(010)56423588,1,4b672a6ca204b351d618b738
北京新世界中心公寓式民宿,39.904248,116.423896,祟文门外大街3号新世界中心公寓1503,2acf0d1d49622f95276e98cb,(010)67085499,1,2acf0d1d49622f95276e98cb
北京瑞洁宾舍民宿,39.888034,116.40271,北京市西城区天桥新农街17号(盛景家园),faac473edd743710a3acc4e6,(010)83133338,1,08f1f1f5300fcfd388db732d
北京万程中庭民宿,39.900265,116.397098,北京市西城区铁树斜街16号,294ea1fdb4a57d4a6ca3cc71,(010)63083387,1,294ea1fdb4a57d4a6ca3cc71
北京京一食四合院民宿,39.900193,116.39654,北京市西城区铁树斜街27号,5211d21944a30b417dc87639,(010)63040749,1,5211d21944a30b417dc87639
北京朝旺家园民宿,39.926567,116.42457,北京市东城区东四南大街演乐胡同116号,b703e96bd09745e38f1a8901,(010)65249588,1,b703e96bd09745e38f1a8901
金融街洲际酒店(住宿部),39.925007,116.364542,北京市西城区金融街11号中国再保险大厦,b64d5efe3dad63cef60e7726,(010)58525888,1,b64d5efe3dad63cef60e7726
北京龙珠堂精品四合院民宿天安门店,39.909908,116.390745,北京市西城区北新华街东新帘子胡同34号,182f9aa8afae91d2c4f0252d,(010)53316565,1,182f9aa8afae91d2c4f0252d
北京都市馨园民宿,39.901583,116.421439,北京市东城区崇文门东兴隆街五老胡同兴隆都市馨园甲2号楼,fa60abf37143f36cb35c6af4,(010)67014017,1,c894d84760702b91adcb665d
北京东信服务式公寓民宿,39.898063,116.413431,珠市口金鱼池中街一号院前门前公寓,90fee179b429dd08b817e794,13522237308,1,90fee179b429dd08b817e794
北京市温馨青年民宿,39.887119,116.393339,北京市西城区太平街9号(中央芭蕾舞团南侧50米),b0cb9f9bb935f0b8b75f1e8c,(010)63558744,1,b0cb9f9bb935f0b8b75f1e8c
北京亿家民宿公寓,39.902967,116.421725,北京市东城区崇文门外大街新世界商场二期西侧100米都市馨园2号楼,f4b3a5067515a5aa7369d3c9,13269285777,1,f4b3a5067515a5aa7369d3c9
北京良辰民宿公寓,39.90569,116.42013,北京市东城区东打磨厂街7号宝鼎中心A座669室,c6648e41311804adc42ba1f7,15711335977,1,c6648e41311804adc42ba1f7
北京新世界宝鼎民宿公寓,39.905702,116.420142,北京东城区北京东城区东打磨厂街新世界宝鼎中心A座,e80284283dd5ddb48e77273a,13671122666,1,e80284283dd5ddb48e77273a
北京嘉美假日民宿公寓,39.905684,116.420145,北京市东城区崇文门新世界新活馆宝鼎中心A座10层,2dcf703b2a21f43c1894c6e1,15510152571,1,2dcf703b2a21f43c1894c6e1
北京东城区爱家民宿公寓,39.905676,116.419247,北京市东城区东打磨厂街7号宝鼎中心A座5-10层,b634a912281b49ecf503b801,18801254112,1,b634a912281b49ecf503b801
北京自在场头住宿白塔寺店,39.931086,116.370323,北京市西城区阜成门内大街白塔寺东夹道26号(西单、金融街地区),96caccd8f81fef9752e5c5a4,"(010)64010221,18710125699",1,96caccd8f81fef9752e5c5a4
北京世纪兴融商务民宿,39.910269,116.368454,北京市西城区闹市口大街1号长安兴融中心,1020060f11e09cbf1894c605,(010)58528388,1,1020060f11e09cbf1894c605
北京仁民居民宿,39.893803,116.400209,北京市西城区(原宣武区)仁民路11号,5c2dc21d8054e31d6fc02c0b,(010)63041099,1,5c2dc21d8054e31d6fc02c0b
北京馨缘民宿公寓,39.905838,116.419243,北京市东城区崇文新活馆宝鼎中心b区806室,95301279b9de2f51c51b75e8,13699216971,1,95301279b9de2f51c51b75e8
北京金鱼池一哥特色民宿(东半壁街分店),39.898159,116.413656,北京东城区北京东城区金鱼池中街1号院,,,1,a521d36c782a521b6c20b94e
北京时尚民宿公寓崇文门店,39.902397,116.42098,北京市东城区崇文门东兴隆街56号都市馨园5号楼575室,a3f21eeed28f7f5d2fb17e33,13263476349,1,a3f21eeed28f7f5d2fb17e33
北京好时家精品民宿崇文门2店,39.901381,116.421688,北京市东城区崇文门兴隆大街都市馨园solo5号楼463室,d09b2ed5507dc6be6f476097,4000508502,1,d09b2ed5507dc6be6f476097
北京回家住吧民宿(北京金融街锦上国际公寓)(后泥洼胡同分店),39.92306,116.371901,太平桥街丰融园15号楼2座(地铁灵境胡同D口出600米),3c2277fd5303be9588b98817,,1,3c2277fd5303be9588b98817
璞邸,39.91026,116.44119,北京市东城区建国门南大街7号(近北京站),,(010)58118888,1,45d6cf9894aecabd97ec8469
北京复地国际公寓民宿,39.929902,116.462895,北京市朝阳区朝阳北路235号复地国际公寓9楼922,49d959388c4c575ac61e5100,"(010)85715400,(010)85715300",1,49d959388c4c575ac61e5100
北京麦特民宿公寓,39.912793,116.451369,北京市朝阳区建华南路6号院地杰·长安驿A座30层,536e51ba66a828a14354d7a4,15311707171,1,536e51ba66a828a14354d7a4
北京香榭舍民宿公寓,39.875199,116.472179,北京市朝阳区东三环南路华威桥南新园西路6号,435d7aea8a71db2c5abbbc36,(010)87318868,1,435d7aea8a71db2c5abbbc36
北京壹家宜家新生态民宿式主题国际公寓,39.93,116.455982,北京市朝阳区朝阳门外大街朝阳门外大街3号院13号楼1层,8f728f3b94b8b50633870a21,(010)65537677,1,8f728f3b94b8b50633870a21
北京淘源儿小居青年民宿,39.87541,116.461815,北京朝阳区弘善东路弘善家园116号楼,,"18234000755,18911547973",1,89373323c49282f5deee8b4a
北京永遇乐北京故事民宿,39.913533,116.47923,东三环南路14-5号建国路润川广场6层,47ef6291b26468aa33621214,15011155783,1,47ef6291b26468aa33621214
北京京广中心民宿公寓,39.925796,116.466894,北京市朝阳区朝阳门外大街1号京广中心,4319613e0a578e89260bd09b,(010)59903388,1,4319613e0a578e89260bd09b
北京K时代民宿,39.92442,116.449602,北京市朝阳区日坛路17号院日坛国际公寓,0b1d2bc96bd0c43bc42ba18f,18518446676,1,0b1d2bc96bd0c43bc42ba18f
北京行之家民宿公寓长安驿店,39.912522,116.451388,北京市朝阳区建华南路地杰长安驿A座,27fa983a12c805deb5f42fcc,17600200879,1,27fa983a12c805deb5f42fcc
北京富顿中心自家民宿,39.891357,116.469614,北京市朝阳区劲松桥富顿中心D210室,fb6b48b9c10da63fbfa82255,15712855112,1,fb6b48b9c10da63fbfa82255
北京好来屋民宿,39.912854,116.451377,北京市朝阳区建华南路6号长安逸站B座,bd4eba576641e8ac735e80b6,13811034789,1,bd4eba576641e8ac735e80b6
简约住宿,39.895991,116.475625,北京朝阳区双井首城国际,,13718676153,1,f65104e6efbe193eabf729f0
北京万达和乔茉莉民宿服务公寓,39.917872,116.478017,光华路甲8号和乔大厦D座,0615af7bd02c717c3c9a5ea6,(010)56199322,1,0615af7bd02c717c3c9a5ea6
北京寓居民宿公寓世贸天阶店,39.923298,116.45843,北京朝阳区金汇路10号(中骏世界城A座),501394d3ff697f39cc06a4b9,13701358362,1,501394d3ff697f39cc06a4b9
北京豪雅民宿世界城店,39.923061,116.459319,北京市朝阳区金汇路10号世界城A座2912,68bc6faa2228267010293581,"4006061230-13596,(010)53350189",1,68bc6faa2228267010293581
北京国贸万达民宿公寓,39.917802,116.478082,光华路甲8号和乔大厦D座,d2620f29a530f6ac09a8d48e,13811970992,1,d2620f29a530f6ac09a8d48e
北京裕景苑民宿,39.928385,116.437991,东水井胡同11号楼北京INN4号楼A区10楼,064ec4535f56ae4e97031954,18710297072,1,064ec4535f56ae4e97031954
北京梦想阳光民宿,39.924228,116.449562,北京市朝阳区日坛国际公寓F座15层(音乐之声旁),f3eda0b88d58d62cca09f0ca,(010)85690027,1,f3eda0b88d58d62cca09f0ca
北京优乐民宿公寓,39.912056,116.450935,北京市朝阳区建华南路6号地杰长安驿,7685772d88eb8dd5d5b74e2f,15210267789,1,7685772d88eb8dd5d5b74e2f
北京逅客民宿,39.905619,116.490994,北京市朝阳区百子湾路后现代城A区3号楼107-108,a6fb0b3edba2d008d618b759,13810472553,1,a6fb0b3edba2d008d618b759
北京国际公寓民宿劲松地铁站店,39.891185,116.469622,北京市朝阳区东三环南路58号富顿中心D座1楼,1026ca67a101934c8bdb7335,(010)58674000,1,1026ca67a101934c8bdb7335
北京慧慧温馨之家民宿公寓,39.912355,116.450887,北京市朝阳区建国门外大街建华南路6号院地杰长安驿A座905室,2406759f3c8e3a10f8221315,13911110349,1,2406759f3c8e3a10f8221315
北京Ego民宿式服务公寓,39.903994,116.471295,北京市朝阳区百子湾南二路(非常生活1楼107室),96471f2a06adeae557bfffb9,(010)87759075,1,96471f2a06adeae557bfffb9
北京富尔顿民宿,39.891193,116.469624,北京市朝阳区东三环南路58号院4富顿中心D座111室,8ab0dfc4f09e370fd9eced90,(010)58674000,1,8ab0dfc4f09e370fd9eced90
北京小满HOME民宿,39.911947,116.451004,北京市朝阳区建华南路6号地杰长安驿,e1a97b7e1884196390114ce2,17710269600,1,e1a97b7e1884196390114ce2
北京金成民宿公寓小牌坊胡同店,39.926546,116.439992,北京市东城区银河soho,,,1,71a03312e5a6a69fc4f50d52
北京GM国际民宿,39.92987,116.456168,北京市朝阳区朝外大街3号院13号楼壹家宜家公寓院内(近东大桥地铁站),15a0ae099b11ceb9b9df8f67,(010)57734786,1,15a0ae099b11ceb9b9df8f67
北京东大桥呼家楼温馨洋气民宿,39.928773,116.461968,北京朝阳区关东店北街22号楼,,,1,fe08ef2f4dccb690b64f5485
北京开心民宿公寓朝阳门店,39.929295,116.433434,朝阳门内大街2号北京inn8号楼B518号,,(010)58644900,1,b7ed79dc79d4eb7a6e20b998
北京CBD中心帝景民宿公寓,39.896654,116.484771,北京市朝阳区西大望路珠江帝景B区9号楼,,13277732402,1,af9dd1e03273d442f7eafc04
东方住宿,39.911817,116.484713,北京市朝阳区大望路12号院-2号楼,3888a25a10546ddcf02d83c8,(010)85890627,1,3888a25a10546ddcf02d83c8
北京劲松爱家民宿,39.889406,116.466798,劲松一区119楼,38561f62e554ec90471a321f,(010)56016775,1,38561f62e554ec90471a321f
北京世贸天阶民宿式家庭自助服务公寓,39.927039,116.458543,东大桥路14号楼,beb8ebb5b727ce38130daaba,15910568288,1,beb8ebb5b727ce38130daaba
北京一修哥哥民宿,39.901746,116.448768,北京市东城区广渠门内大街55号(国贸地区广渠门立交桥西北角)金桥国际公寓C215,131f45d92cc0db95c056ac9e,,1,131f45d92cc0db95c056ac9e
北京诗语圆床主题民宿公寓世贸天阶店,39.923702,116.459171,北京市朝阳区金汇路10号世贸天阶东门北侧世界城B座12层,eba37b45886a90ad96f08c48,(010)56241013,1,eba37b45886a90ad96f08c48
北京君伦寓民宿,39.929567,116.453198,朝阳门外大街3号东大桥山水广场铂宫B座12层,2d1de675eb9a17327dc8768b,(010)57131313,1,2d1de675eb9a17327dc8768b
北京驿佳民宿式服务公寓中骏世界城店,39.923457,116.458835,北京市朝阳区金汇路6号中骏世界城B座1013室,,18001366257,1,aba388684cfa4f4196f08cbd
北京捷洁民宿国贸店,39.929714,116.462766,北京市朝阳区朝阳北路235号复地国际公寓5层526室,34c27672f2308053c9e33ca2,(010)65945855,1,34c27672f2308053c9e33ca2
北京皇城雅筑特色民宿(朝内小街分店),39.929371,116.431735,北京东城区后拐棒胡同甲2号新1楼,,,1,e1731396dbc20bf694ec84f8
北京优帕克商旅公寓新城国际民宿服务公寓,39.925314,116.463267,北京市朝阳区朝阳门外大街甲6号万通中心C座1509,d2af35bba02c2a0342afe64e,4006629898,1,e3502d46a2643bdf774ff123
北京温馨奢华小屋民宿,39.888889,116.46937,北京市朝阳区劲松农光里114号楼401,4bf28caa1ccc1c562b201ab0,13811379386,1,4bf28caa1ccc1c562b201ab0
北京觅境民宿,39.90318,116.485457,北京市朝阳区西大望路19号金港国际2号楼1单元1701,ef578106aa753256b8bd639b,4006061230-151847,1,ef578106aa753256b8bd639b
北京私房雨露民宿,39.890789,116.469466,北京市朝阳区富顿中心D座210室,,,1,c8dcc199e76f559f01294fcf
北京遇见美好民宿弘善家园店,39.875683,116.456552,朝阳区华威南路弘善家园小区408号-1213室,7d84da8c8ab6d70c9e9d6898,,1,7d84da8c8ab6d70c9e9d6898
北京鸿缘家庭民宿,39.875487,116.458597,北京市朝阳区华威南路弘善家园401楼,1f0e191a2452a777c91b958e,13031139574,1,1f0e191a2452a777c91b958e
北京金圆红青年民宿,39.888415,116.469485,北京市朝阳区劲松街道农光里小区35号楼1单元403,,15010657693,1,f4c5ed8a455216980aa8d4d5
北京同家民宿公寓长安驿店,39.912343,116.451517,北京市朝阳区建华南路6号，长安驿酒店式公寓A座1008室。,d4f17395ae7152816b49f32c,15011348098,1,d4f17395ae7152816b49f32c
北京CBD自如驿住宿,39.921415,116.508076,北京市朝阳区十里堡甲3号都会国际A座10层,,18515822051,1,81ee247437c740dc41d63e50
XY民宿公寓北京金茂府店,39.899762,116.493161,北京市朝阳区广渠路15号院金茂府23号院7号楼1单元305,e40c72d827ec20d5cb213d3a,(010)87782883,1,e40c72d827ec20d5cb213d3a
北京东篱居民宿十里堡地铁站店,39.929932,116.509104,北京市朝阳区朝阳北路129号润枫嘉尚东门1号楼3层307,732e23264cbf96c5f7e73b75,13120330787,1,732e23264cbf96c5f7e73b75
北京索辉特国际民宿,39.930036,116.508759,"北京市朝阳区朝阳北路129号院润枫嘉尚1层112号房(近燕莎,三里屯商业区)",,15510778644,1,5fbff72d84bb79294acc4a18
北京朝阳大悦城精装公寓民宿,39.928619,116.518937,北京市朝阳区朝阳北路青年汇佳园易一号地108楼,16e0ee02af6dd7010aa8d4ce,13720056837,1,16e0ee02af6dd7010aa8d4ce
北京鸿际民宿公园1872店,39.930034,116.505889,北京市朝阳区八里庄北里218号,3b8a8c64765d591f72210b9f,18511886667,1,3b8a8c64765d591f72210b9f
北京金汇民宿公寓天鹅湾店,39.925958,116.528128,北京市朝阳区雅成三里-6号楼1002,a3652288f33a59f9c27da203,4006061230-102104,1,a3652288f33a59f9c27da203
北京枫月居家民宿,39.930087,116.505824,朝阳区八里庄北里218号6层614号,,18500085786,1,854d744bef91a9abe956fa93
北京金汇民宿公寓金茂府店,39.9001,116.492905,北京市朝阳区广渠路23号金茂府7号楼二单元506,61d8a27e6234d23ba8059dac,18001125252,1,61d8a27e6234d23ba8059dac
北京零点之家民宿,39.928495,116.603443,北京市朝阳区常营常通路43号院2号楼1707,,,1,650582fff5ce3d21932ca3c3
北京都市驿家(常营店)民宿,39.927931,116.602919,北京市朝阳区常楹大厦,,4006061230-68807,1,c3567093a31b906dbe484290
北京东领鉴筑民宿,39.925168,116.559736,北京市朝阳区定福庄北街东领鉴筑公寓1号楼4单元,20c98e14c1427b25f4eafccd,(010)51280404,1,20c98e14c1427b25f4eafccd
北京7橙民宿,39.878966,116.620105,北京市朝阳区双桥东路定辛庄公交站牌北50米,8db9525d6e2593809868b406,13716028018,1,8db9525d6e2593809868b406
北京夏天的小屋特色民宿(朝阳北路辅路分店),39.9292,116.59671,柏林爱乐柏林爱乐-东门,,,1,b38c09a180efa90a1df74d26
北京美途民宿,39.927934,116.603042,北京市朝阳区管庄常楹大厦(北京科技大学东北),,15600507485,1,b5386eac42e1be927069d3ec
北京丸宝民宿常楹大厦店,39.92796,116.603118,朝阳北路辅路常楹大厦,,,1,7f752896118fa0e66318099e
西山会友中心(餐饮部),39.966539,116.14571,北京市石景山区黑陈路炮厂小区8号,93df0dc3f7e9a22b882fb5dd,(010)51725621,1,93df0dc3f7e9a22b882fb5dd
金泓源渔村,39.954609,116.11805,西老店236号金泓源渔村,c7eca12b2f1d222ee115f95f,(010)61818828,1,c7eca12b2f1d222ee115f95f
晨光火锅,39.94101,116.114681,北京市门头沟区双峪路1号一层19号,9fbf300a54b52b264c6d4678,(010)69834241,1,9fbf300a54b52b264c6d4678
北京靠谱儿导游的民宿(五里陀路分店),39.958334,116.130538,北京石景山区北京石景山区京西景园,,18910232040,1,21b6b481dcefea122fb908f0
北京西山国林山庄民宿,39.970969,116.206603,北京市海淀区香山南路黄土坡1号,,(010)62591456,1,0523a141020ebc04b23c8102
德盛坊宾馆,39.959735,116.232001,北京市海淀区杏石口路80号,69fcd6dfbde41851cb2915ba,(010)82599902,1,69fcd6dfbde41851cb2915ba
海舟慧霖葡萄园,39.943233,116.262728,北京市海淀区永定河路,b52ebc4b007d8860c16c14e3,(010)68188300,1,b52ebc4b007d8860c16c14e3
北京京西的美丽花园民宿,39.941242,116.284086,北京市海淀区营慧寺美丽园24号楼(西直门及北京展览馆地区),c3e2ea9ca2e62d0b9e9d68b1,13611026098,1,c3e2ea9ca2e62d0b9e9d68b1
北京龙都民宿,39.97167,116.309845,北京市海淀区万泉河路小南庄400号龙都宾馆院内,9ee392b8ec6fec58bbbd633e,(010)62546339,1,9ee392b8ec6fec58bbbd633e
北京8号宾馆,39.942715,116.35142,北京市西城区西外南路戊8号,f1ca50ecc0155d3b38e4a654,13552467711,1,f1ca50ecc0155d3b38e4a654
北京如意家庭民宿北营房东里店,39.93169,116.358323,"展览路街道北营房东里10号楼1501,近阜外医院",4618c4068c3b19ae15c90598,13520635423,1,4618c4068c3b19ae15c90598
居派空间民宿(北京电影学院店),39.979573,116.354859,北京市海淀区知春路太月园小区5号楼,39875abcad7abb2fa8059d0d,15510253612,1,39875abcad7abb2fa8059d0d
北京菲所民宿公寓中关村店,39.987703,116.313705,北京市海淀区中关村彩和坊西小街1号中湾国际H座3楼305(邻近海淀黄庄，中关村，海淀法院，万柳，中国人民大学),9ede19d0cb15f516ea56fa7c,(010)56269316,1,9ede19d0cb15f516ea56fa7c
北京世纪嘉苑青年民宿,39.980402,116.327159,北京市海淀区双榆树北路63号,0dc3d82dd926467575e5b60b,,1,0dc3d82dd926467575e5b60b
北京知春路青年民宿,39.977775,116.34587,北京市海淀区知春路太阳园小区近知春路地铁B口,8bed358b5805f233f92d6170,15911076823,1,8bed358b5805f233f92d6170
北京小韩家庭民宿,39.932009,116.359854,北京市西城区北礼士路149号(北营房东里内),3903e040adf892fef4eafc68,15810082090,1,3903e040adf892fef4eafc68
北京银平家庭民宿,39.932216,116.359801,北京市西城区北礼士路149号院611号,91ab3527b26b8d93c61e51cd,13051280882,1,91ab3527b26b8d93c61e51cd
北京斑斓家公寓民宿(北京中关村店),39.979979,116.309165,北京海淀区海淀南路36号美华海润大厦纽约客公寓,bdad2484d1b844575fbe8672,13810210030,1,bdad2484d1b844575fbe8672
北京凯西民宿中关村店,39.983341,116.318225,北京市海淀区海淀中街16号,0ec57b7745ed082540d63e18,(010)53673353,1,0ec57b7745ed082540d63e18
美家精品民宿公寓北京西直门店,39.950304,116.357584,北京市海淀区交大东路66号钻河公馆A口2号楼,a5deeed944024bfd9d95debc,(010)62249172,1,a5deeed944024bfd9d95debc
新疆巴州金丝特酒店餐饮住宿,39.969556,116.346967,北京市海淀区皂君庙2号,b4b43d42e36d892b902ca32f,(010)62115556,1,b4b43d42e36d892b902ca32f
北京友谊民宿紫金庄园店,39.972196,116.315498,北京市海淀区万泉河68号紫金庄园,475a24d0f8fdc3f14f6d461b,13910996120,1,475a24d0f8fdc3f14f6d461b
北京世佳民宿公寓苏州街店,39.987718,116.313795,北京市海淀区苏州街彩和坊1号(中湾国际7单元4层),96858d16c84e199b1e1d1171,(010)82868587,1,96858d16c84e199b1e1d1171
北京坤泰民宿中湾国际店,39.987681,116.313612,彩和坊西小街1号,,(010)56185846,1,746f7aed617028618c55ecde
北京民族大学聚缘之家民宿,39.955248,116.323933,北京市海淀区鑫德嘉园B座17层1703,e8cf1eabc72df59a08ccdd56,15501155561,1,e8cf1eabc72df59a08ccdd56
美家精品民宿公寓北京中关村店,39.983423,116.319055,北京市海淀区海淀东三街中关村公馆F座10层,ac160f7ede2da3431b11d53e,15601230135,1,ac160f7ede2da3431b11d53e
北京有你有我优家民宿,39.972485,116.332886,北京海淀区北京海淀区北京海淀北三环西路双安商场,,,1,9209ad1132a80575c8291549
北京姜Ginger民宿,39.987322,116.311833,北京市海淀区大河庄苑4号楼3单元1627,36ae7078034361e66f47601c,,1,36ae7078034361e66f47601c
北京回声轰趴馆住宿,39.971778,116.314632,北京市海淀区万泉河路紫金庄园6号楼2018,5478b8fb777524ba21022049,18210062686,1,5478b8fb777524ba21022049
北京circle特色民宿(百胜村路分店),39.945232,116.31258,北洼东里3号楼北洼东里,,,1,a494b3926440a05683a00c7f
北京暖屋民宿(大运村西路分店),39.985388,116.34458,海淀区紫金数码园-2号楼,,,1,53ff57f81b226cc8e115f9d0
丽景山庄,40.009511,116.116479,军庄南坡甲1号,ea37046517655a582806ceca,13521697988,1,ea37046517655a582806ceca
北京东山王家农院住宿,40.017664,116.146088,北京市门头沟区东山贡梨园旁香山景区的山后面,5a333b68dfa22508220262da,,1,5a333b68dfa22508220262da
北京半山驿农家乐,40.034232,116.182459,北京市海淀区白家疃村簸箕水村86号院百合素食南30米,8e1f1a3fa9304dfe3913fd92,13801293848,1,8e1f1a3fa9304dfe3913fd92
山乡农家院(海淀区西北旺店),40.043702,116.241937,海淀区西北旺镇冷泉东路20号(龙泉驾校东侧),,(010)62400759,1,53349ee37e3a347722026275
北京云逸民宿,40.027842,116.278553,北京市海淀区天秀花园26号楼二层,,18519783887,1,d3e0152a6c66bae309a8d40e
北京好山水民宿(颐和园店),40.028288,116.275954,北京市海淀区马连洼天秀路裕隆新村小区6号楼6单元502室,ea5f4e2ed2084712ad080ffb,18910478171,1,ea5f4e2ed2084712ad080ffb
御林观光园,39.989424,116.243205,北京市海淀区普安店266号,eac2bfe0529ef3d62ce67b1d,,1,eac2bfe0529ef3d62ce67b1d
北京黑山扈36号民宿,40.031882,116.271729,黑山扈路甲36号,ffe0a45462e51ac629fc4874,(010)62873559,1,ffe0a45462e51ac629fc4874
地大国际会议中心,39.99724,116.351812,北京市海淀区学院路29号(毗邻中国地质大学北门),c5ddcc086c1c19dfd813183c,(010)82323888,1,c5ddcc086c1c19dfd813183c
千熙青年民宿,40.018472,116.358128,北京市海淀区学清路逸成东苑5号楼3单元,,17611446280,1,1d6a8f3f761d1b5240afe684
北京大学蔚秀园家庭民宿,40.002375,116.309669,北京市海淀区北京大学西门蔚秀园小区29号楼2单元,cf39fcefe6113480c26c14a4,13366951129,1,cf39fcefe6113480c26c14a4
北京永泰园家庭民宿,40.040999,116.356249,北京市海淀区永泰北路永泰园13号楼,0e373f64119c0f9054bfffdf,13164266492,1,0e373f64119c0f9054bfffdf
北京叁艾特五道口空间住宿,39.998096,116.34173,北京市海淀区成府路华清嘉园5号楼402室,d30ece44781c1e6443afe600,(010)56213510,1,d30ece44781c1e6443afe600
北京城市小驿家庭民宿,40.017046,116.35827,北京市海淀区学院路城华园2号楼,08549d6921e3ef48c8213d7c,13126970050,1,08549d6921e3ef48c8213d7c
北京路客BI1140精品民宿,39.996312,116.34109,华清嘉园,,,1,5b308cebcc0355a84207c1cf
北京Alice secret 主题民宿(静淑苑路店),40.008471,116.355975,北京市海淀区清华东路与静淑苑路交叉口东北侧(北京林业大学东一门对过)中铁置业·翰庭2号楼1单元707,f5c9ebbef9810ed7a6da393c,,1,f5c9ebbef9810ed7a6da393c
北京颐和东路民宿,40.003595,116.307912,北京颐和园路东口,,13681205302,1,2b13e91427b1212e35b06cd7
北京绿豆Beanbean住宿,39.996317,116.342889,北京市海淀区五道口东升园华清嘉园19号楼1609,749e4db4d724fb18b020a85b,18617305907,1,749e4db4d724fb18b020a85b
祥鸿(集团)清景园民宿,40.035888,116.357748,北京海淀区永泰庄西路清景园小区,7e3c7d08ff6c9fe6c9fa5ffa,,1,7e3c7d08ff6c9fe6c9fa5ffa
北京壹宅壹院樱树下农家乐,40.079027,116.104855,回归田庄农家院饭馆苏家坨镇管家岭民俗旅游村3号,,,1,885505842a22983dad31e5f7
妙灵山庄,40.068511,116.109574,北京海淀区苏家坨镇北安河贝家花园路6号近颐和园,,(010)62481188,1,49d959388d14565ac61e51c8
朋友圈农家院,40.078774,116.145797,北京市海淀区苏家坨西路,,,1,2b74cbe1e3a32946e9f853c5
北京三宝短租住宿,40.04913,116.259698,北京市海淀区西北旺镇黑龙潭路58号,d494cc36d8c8456601294f06,,1,d494cc36d8c8456601294f06
北京京游民宿,40.069981,116.257837,北京市海淀区西北旺永旺家园5区10号楼5单元501,f00dffd20665804e46e274a1,13611382591,1,f00dffd20665804e46e274a1
北京御都民宿,40.059196,116.307336,北京市海淀区西二旗上地十街1号院辉煌国际3号楼,08a1971db2e8826a1ce999c7,18310464714,1,08a1971db2e8826a1ce999c7
北京辉煌国际大厦民宿,40.05936,116.308085,北京市海淀区辉煌国际大厦3号楼,59652e00238a3b141894c661,13581653215,1,59652e00238a3b141894c661
北京汽车主题民宿回龙观店,40.085521,116.338431,北京市昌平区回龙观西大街上北鑫座3号楼112,6d870ec2f1c6a18eda2f28c7,15210922012,1,6d870ec2f1c6a18eda2f28c7
东北小馆农家院(北京人家店),40.087065,116.308383,回龙观二拨子商业街65号,3fa5f8546f44b2dd2fb17e66,(010)80799338,1,3fa5f8546f44b2dd2fb17e66
北京新城卓越云趣民宿,40.092621,116.334875,北京市昌平区回龙观公交总站对面,ee1fc9a5a9e051262811d1db,(010)86240195,1,ee1fc9a5a9e051262811d1db
鑫亿(集团)东村家园民宿,40.070963,116.350885,北京回龙观城铁东南角700米,88eaedd39d3cf63d2902e100,,1,88eaedd39d3cf63d2902e100
北京怡家民宿,40.088017,116.345944,北京市昌平区回龙观西大街9号(东亚上北中心10楼1021),3f9337d61785efaaf7231035,(010)59428556,1,3f9337d61785efaaf7231035
北京佳禾民宿公寓,40.082859,116.330661,北京市昌平区回龙观琥珀天地1单元206室,e70910810766c5b6ae080f76,18301405248,1,e70910810766c5b6ae080f76
北京鑫亿集团育新花园民宿,40.06488,116.351714,北京市海淀区西三旗育新花园内,ff97f5f1c43de52e30169b0a,,1,ff97f5f1c43de52e30169b0a
北京新城卓越(集团)龙旗2号民宿,40.080707,116.356728,北京市昌平区文华东路23号,9cc6726f218b1781cae33c3d,,1,9cc6726f218b1781cae33c3d
北京金龙公寓住宿,40.046302,116.319711,北京市海淀区上地东路16号,,(010)62985308,1,f8b9c88259777c44c356ac2e
蓝梦庄园,40.116395,116.118678,北京海淀区苏家坨镇台头村路5号(近凤凰小区),,,1,4447a0ae35cde2dbab175a1a
北京云鼎居舍民宿,40.134911,116.119148,北京市昌平区后二路附近,,(010)80199077,1,cd00945d464abbc8ab0dd8d3
艺轩山庄,40.143366,116.128432,北京市昌平区阳坊镇后白虎涧村委会北800米佛山福路北侧,,13641271817,1,060f5e53139e20d7081cc71c
京白梨基地农家院,40.132926,116.121507,后二路,,(010)69768806,1,ec82971a6ef8cf4bb64f54ab
北京黄家民宿,40.14448,116.15136,北京市昌平区阳坊西贯市西河滩街15号,,(010)69767886,1,989e14f8d66db08840ab9a30
北京唱宇农家乐,40.13506,116.118074,北京昌平区北京市昌平区阳坊镇后白虎涧村,,13381492443,1,55a3d4b76996226b354aae54
北京铜锣湾休闲洗浴住宿,40.131254,116.185088,北京市海淀区前章村小学西(前章村路北),8715478c0a214bace6e96562,,1,8715478c0a214bace6e96562
北京昌阳君兰种植园,40.152101,116.17057,东贯市东路与016县道交叉口西100米,,,1,a9b4524a1945a7f8d8d89180
北京干净舒适一居室民宿客栈,40.133828,116.211787,北京市海淀区庄镇中心三嘉信苑7号楼8单元(梅所屯村娱乐文化广场),71ab927ae25b73abede4a53f,4006061230-82249,1,71ab927ae25b73abede4a53f
碧清园有机农庄,40.126805,116.236557,北京市海淀区梅所屯路与沙阳路交叉口东北角,858177529b31a0bcabf0cd30,13901078777,1,858177529b31a0bcabf0cd30
北京暖屋民宿(北清路店),40.104404,116.293535,北京市昌平区北清路1号院珠江摩尔大厦8号楼1单元,,,1,493787b47a96afb6f32d83c7
北京西店73号民宿,40.105112,116.28977,北京市昌平区西半壁店村内,d65b7dd8a9d81db1aecb66b0,(010)69738650,1,d65b7dd8a9d81db1aecb66b0
北京东店140号民宿,40.105458,116.294567,北京市昌平区东半壁店村内,c9384aded75503c77369d301,(010)80724625,1,c9384aded75503c77369d301
北京西店320号民宿,40.105758,116.294522,北京东半壁店村内,3066176f6fb66b0b2811d13e,,1,3066176f6fb66b0b2811d13e
北京绿洲水乡民宿,40.111301,116.356993,北京市昌平区沙河镇白各庄518号,,(010)52988888,1,1d787c9020ff7dbe631809fd
北京沙河伊鑫家园住宿,40.151958,116.304987,北京市昌平区沙河镇于辛庄中心街西二巷9号,bb4fec6b34febc13f02d8351,"18701691954,18701691974",1,bb4fec6b34febc13f02d8351
新庄园住宿,40.152656,116.298995,北京市昌平区于辛庄村24号,436985c2d487766e36b06c82,(010)51731869,1,436985c2d487766e36b06c82
北京牛鲜花家庭民宿,40.105112,116.318061,北京市昌平区地铁八号线和城铁昌平线朱辛庄站B2口出朱辛庄新区1号楼2单元302号,46c064e19cf850093ee23104,13699255561,1,46c064e19cf850093ee23104
君和山庄,40.108005,116.356659,北京市昌平区X024(七北路),d2079a5595efd24de6e9659b,(010)80700131,1,d2079a5595efd24de6e9659b
上河庄园(上河店),40.134597,116.324891,北京市昌平区小沙河260号,0ce65c2ddebee8402d473315,,1,0ce65c2ddebee8402d473315
北京百合家园民宿,40.151968,116.307787,北京沙河于辛庄村,898ed74b4e6fd4517702690f,13811371906,1,898ed74b4e6fd4517702690f
北京灰鸽子公寓民宿,40.115313,116.328758,七里渠西桥(朱辛庄地铁东1000米),cefda5e920903cfdf942b200,13120315822,1,cefda5e920903cfdf942b200
北京沙河锦江家园住宿,40.150011,116.308416,北京市昌平区于辛庄路锦江家园,9888292d8cf3f1a09868b479,13811384962,1,9888292d8cf3f1a09868b479
北京沙河赵新家园住宿,40.151603,116.308617,北京市昌平区于新庄村内,9574f10b8b7c6b23d5b74e3c,,1,9574f10b8b7c6b23d5b74e3c
北京松兰堡58号住宿,40.157951,116.305559,北京昌平区沙河镇松兰堡村北口58号院,733083ac6c2ecc7ec6effb69,18612326989,1,733083ac6c2ecc7ec6effb69
北京沙河爱洁家园住宿,40.151654,116.30863,北京市昌平区于辛庄村内,558cab95440b7993631c67ec,,1,558cab95440b7993631c67ec
北京沙河东东家园住宿,40.151426,116.308241,北京市昌平区于辛庄村内,86555fe1b8c8f9973913fd72,,1,86555fe1b8c8f9973913fd72
北京民乐家园住宿,40.152553,116.307989,北京市昌平区沙河镇于辛庄村,8b5538f2a83cd2be4d776e38,,1,8b5538f2a83cd2be4d776e38
北京沙河舒新家园住宿,40.152546,116.308119,北京市昌平区于新庄村内,5ffa175df7ee3bab3fe23125,,1,5ffa175df7ee3bab3fe23125
北京四禾居宾馆,39.932261,116.378519,北京市西城区西四北大街北二条10号,f757e6eee37f7a17260bd037,"(010)63134585,(010)66150145",1,f757e6eee37f7a17260bd037
易忆四合院民宿(北京簋街雍和宫店),39.947693,116.426736,北京市东城区东直门内大街北新桥头条30号,,13683013587,1,d5c1faec7cfb2f5cbbbd631f
北京友谊家庭民宿,39.980634,116.407969,北京市朝阳区安贞西里小区一区9号楼,8b63af5847b3f7ccbea24085,15810501003,1,8b63af5847b3f7ccbea24085
北京吉庆堂四合院特色住宿,39.952752,116.408511,北京市东城区北锣鼓巷纱络胡同7号,d558425857e3cbabc056acee,"(010)64043838,(010)84043131,(010)84033131",1,6deee308fdfdcc7329fc4806
北京青年湖民宿,39.963336,116.413387,青年湖东里6号,49a02a7a062a5a592b201a36,(010)84125281,1,49a02a7a062a5a592b201a36
隐海文化民宿空间,39.945004,116.399877,北京市西城区银锭桥胡同6号,658bda3dbe07c824eb56fa24,(010)66019660,1,658bda3dbe07c824eb56fa24
北京爱特家民宿公寓,39.986644,116.388089,北京市朝阳区祁家豁子8号健翔大厦1223室,2cc3c8e8908453cf4d2fdf01,(010)82994588,1,2cc3c8e8908453cf4d2fdf01
北京栖木堂特色民宿(小经厂胡同分店),39.95123,116.410576,安定门内大街北锣鼓巷谢家胡同43号,,,1,4d4c7d3f325f4526631c6780
北京好运之家民宿公寓,39.983654,116.365956,"北京市海淀区北土城西路193号,塔院小区4号楼晴冬园301室",8612f1db934675027f29bd26,15120060877,1,8612f1db934675027f29bd26
北京豆豆家家庭民宿,39.95437,116.40285,北京市东城区赵府街7号近地铁2号线鼓楼大街站,543eecf57868a94c8c55ece9,18600087831,1,543eecf57868a94c8c55ece9
北京南锣20号院民宿,39.937292,116.409632,北京市东城区织染局胡同20号,1a95131f8d223abd4054d770,13001262966,1,1a95131f8d223abd4054d770
北医家庭民宿,39.9873,116.366994,北医三院对面,,15201158985,1,e40eed80fdee84aedeee8b27
北京晴冬园家庭民宿,39.985566,116.366496,北京市海淀区塔院西街晴冬园3号楼,9bb873ab9f3278d114c8f6b5,15010532665,1,9bb873ab9f3278d114c8f6b5
北京北航爱心家庭民宿,39.986436,116.364896,北京市海淀区花园北路48号院邮科小区塔4号楼1层,803cb6b3e03db434b54f54d8,13521034716,1,803cb6b3e03db434b54f54d8
北京大漂亮家民宿,39.948772,116.395025,北京市西城区鸦儿胡同69号,65cb4306938dca52c3364409,18519880023,1,65cb4306938dca52c3364409
北京市海淀家庭民宿,39.98722,116.36828,北京市海淀区北医三院对面塔院小区朗秋园(晴冬园)1号楼,411b7644b02c543481288a4d,13621278567,1,411b7644b02c543481288a4d
北京安贞温馨家庭民宿,39.978182,116.407954,北京市朝阳区仟村商务大楼B座13楼,74a3db5c20df6c3985420e29,13522949423,1,74a3db5c20df6c3985420e29
北京瑞华四合院民宿,39.95121,116.410752,北京市东城区谢家胡同43号,e597f01c797445983010afc3,18618356118,1,e597f01c797445983010afc3
国旺西巷18号民宿,39.951731,116.401923,东城区国旺西巷18号附近,,,1,a11618fbb74a3133b7265507
北京晴冬园4号楼民宿,39.986754,116.365746,北京市海淀区花园北路49号(北医三院对面向南100米),35b96226e009b067fea778ef,15311066181,1,35b96226e009b067fea778ef
北京幸福之家公寓,39.986749,116.366528,北京市海淀区塔院小区晴冬园1号楼,59d049646d53ed9c2d47331a,13611244961,1,59d049646d53ed9c2d47331a
美家精品民宿公寓北京鸟巢店,39.986406,116.38769,祁家豁子街8号健翔国际公寓9层,094a66224155344c631809d1,(010)81401399,1,094a66224155344c631809d1
隐海文化民宿空间(北京西四店)(原大红罗厂街分店),39.93303,116.381004,北京西城区大红罗厂街南巷16号,,(010)66019660,1,165137342bdd3952a0acc49e
北京9间民宿,39.942648,116.409524,北京东城区南锣鼓巷,ea72a73d3cb04a6501294f6d,18911622369,1,ea72a73d3cb04a6501294f6d
北京胡同民宿|四合院儿,39.944585,116.425574,北京市东城区西仓门胡同4号,49b015f1891798deb42655f6,18500191468,1,49b015f1891798deb42655f6
北京雅园小筑特色民宿(松树街店),39.943411,116.388421,松树街39号院,,,1,df649d26a88183696ca3cca1
北京鸟巢成果民宿公寓,39.985001,116.397586,北京市朝阳区民族园路1号丰宝恒大厦,5086b7a38c05ede5213bf20d,(010)62001188,1,5086b7a38c05ede5213bf20d
北京周叔特色民宿(花园路街道北太平庄路社区分店),39.978018,116.380617,北京市海淀区月季园小区,,,1,18a654836b8dca12a1a93487
北京兔子家的温馨小窝住宿,39.968035,116.417159,兴华西里15号楼二单元601,,,1,609d32cd7318300e2afc483f
北京越狱空间民宿,39.944633,116.423049,北京市东城区科林大厦A座B1,619c969609142f9fe8e5824c,,1,619c969609142f9fe8e5824c
北京安贞里三区家庭民宿,39.976831,116.410812,北京市朝阳区安贞里三区,28ae7827d812cc7b1b11d524,(010)64422460,1,28ae7827d812cc7b1b11d524
北京朝阳鑫鑫家庭民宿,39.977619,116.407743,北京市朝阳区仟村商务大楼B座901室,1b8caf1b904f2c683c9a5e6a,18701117078,1,1b8caf1b904f2c683c9a5e6a
斑斓·家公寓民宿(北京三里屯使馆区店),39.946672,116.453253,北京市朝阳区东直门外大街28号港湾国际401室,8ff5660bc95a3bfb16c9051c,13811647485,1,9da6f6ac8993c43d873304a7
北京XY民宿公寓东直门簋街店,39.946549,116.453649,朝阳区东直门外大街28号港湾国际16层,4e59da2bdd010a812202205b,13520937209,1,4e59da2bdd010a812202205b
北京晓筑民宿,39.93735,116.429786,北京市东城区东四七条石桥胡同甲13号,cbe3fec8a1777e568936ee95,13269155715,1,cbe3fec8a1777e568936ee95
北京簋街四合院民宿,39.946229,116.430509,大菊胡同28号近东直门内大街,4dce0f1574dddc0725d2bbb9,18600280092,1,4dce0f1574dddc0725d2bbb9
北京郝好家庭民宿,39.975751,116.431667,北京市朝阳区北三环东路甲11号,631db60568cf50a4f5c59cc5,17310553939,1,631db60568cf50a4f5c59cc5
北京小黄庄家庭民宿,39.97599,116.432181,北京市朝阳区樱花园中路3号楼,5e53731a36c41f8efbdc85a8,13811985966,1,5e53731a36c41f8efbdc85a8
北京Sleep with me民宿工体店,39.935477,116.449669,北京工体西路3号,6fb84e44c682ffe959bbbc75,15901007809,1,6fb84e44c682ffe959bbbc75
北京红姨家庭民宿,39.983456,116.439701,芍药居二号院一号楼三单元102,468a14a8ebd3e7978bf15d40,,1,468a14a8ebd3e7978bf15d40
北京永利静雅公寓民宿,39.940445,116.451504,北京市朝阳区工体北路永利国际2单元,fd249703209bd39dc4f50d30,18801291238,1,fd249703209bd39dc4f50d30
北京三元桥国展东直门高档民宿,39.96132,116.448169,北京市朝阳区左家庄中街豪成大厦1205室,,,1,e636311fe968f0428ab988e6
北京远洋民宿,39.964713,116.468354,北京市朝阳区东三环霞光里66号远洋公馆A座4号楼,831637275b236a653362125d,(010)53245599,1,831637275b236a653362125d
北京永利国际特色民宿(辅路分店),39.940468,116.451516,北京市朝阳区工人体育场北路21号永利国际2单元5层507,,15810865288,1,a0853827f37cc28b3686f410
北京美家精品民宿公寓东直门港湾国际店,39.946638,116.453402,北京市朝阳区东直门外大街28号,af0ad0f114ea0c5fb34c490b,(010)62249172,1,af0ad0f114ea0c5fb34c490b
北京工体时代民宿式服务公寓,39.940298,116.451514,"工体北路21号永利国际2单元,近北京工人体育馆",e8d11db0a7c8f5d2ebe58252,18601294490,1,e8d11db0a7c8f5d2ebe58252
北京相寓INN民宿公寓上东8号店,39.976432,116.491615,北京市朝阳区将台西路芳园南里9号院6号楼(上东8号北楼),273575e9705ccbad05026fa5,4009515515-6,1,273575e9705ccbad05026fa5
北京路客BC8020精品民宿,39.983846,116.427369,朝阳区惠新南里2号,,,1,d68390995a605fa50289724e
北京路客AA4730精品民宿,39.946785,116.44487,东直门外大街40号,,,1,11c0eba273ede9323a13fd7e
北京海淀设计师之家特色民宿(白家庄路店),39.935072,116.464511,团结湖白家庄西里-6号楼1单元203,,,1,38b2639029fcf02eee74f834
北京相寓INN民宿港湾国际店,39.94657,116.453331,东直门外大街28号港湾国际,1f2c36eb12aca9f9f503b812,4009515515-6,1,1f2c36eb12aca9f9f503b812
北京多生活体验馆民宿,39.934798,116.471906,北京市朝阳区姚家园路白家庄东里42号院,378a8fa77cb4a96e28d7abdb,18643926625,1,378a8fa77cb4a96e28d7abdb
北京新东方公寓,39.946017,116.45059,北京东直门外大街乙36号,,,1,d5ceae8413dcc1feebe58227
北京清韵民宿,39.940112,116.454929,北京市朝阳区工人体育场北路幸福一村甲55号保利源一层8102室,7321c8f563fd1328e856faa5,(010)57488299,1,7321c8f563fd1328e856faa5
北京幸福三村家庭民宿,39.944312,116.458987,北京市朝阳区三里屯幸福三村1号楼5单元301室,de1e6c69f437d4424354d796,13701364256,1,de1e6c69f437d4424354d796
北京安静舒适民宿,39.963028,116.47286,北京市朝阳区天泽路华远九都汇7号楼1单元616,502fb6151f0e164914b54b15,,1,502fb6151f0e164914b54b15
北京志志民宿,39.971862,116.454579,北京市朝阳区西坝河东里14号附近西坝河东里-12号楼1层103室12号楼1单元,44c51a5444dddf41a0acc45c,4006061230-76852,1,44c51a5444dddf41a0acc45c
北京蓝之梦民宿公寓远洋公馆店,39.964756,116.468121,朝阳区东三环霞光里66号远洋公馆4号楼,2eb26b7a76012ac57369d324,18756926482,1,2eb26b7a76012ac57369d324
北京金融分析师民宿,39.941114,116.45172,北京市朝阳区永利国际-3单元609,161e4688fbc761c2077ce8ca,,1,161e4688fbc761c2077ce8ca
北京路客AA5210精品民宿,39.939013,116.470989,朝阳区团结湖北头条2号楼,,,1,2db59833d9168fd71894c6b9
北京路客BC2130精品民宿,39.941734,116.46233,朝阳区东三里屯东11号楼5单元,,,1,2f6ceff4546afe0c26d2bb79
北京路客BC5620精品民宿,39.931553,116.445199,吉祥里111号楼702室,,,1,29734df6ccff38e6b5147fa3
北京青年路民宿,39.9397,116.522889,北京市朝阳区青年路西里3号院7号楼3层(国美第一城3号院7号楼3层),ee367bc36bdbe3b01c389438,(010)52066766,1,ee367bc36bdbe3b01c389438
佳丽饭店-住宿,39.975174,116.495704,北京市朝阳区酒仙桥乙21号佳丽饭店(近酒仙桥电子科技城酒仙桥工业园区),31a96e8b5e28a96c0d3ddaae,(010)64363366,1,31a96e8b5e28a96c0d3ddaae
北京恋家民宿,39.932003,116.621235,五里桥一街北京中弘像素北区11号楼2层0226号(草房地铁站北),140a1789ca0ca4ee30169be1,(010)58422272,1,140a1789ca0ca4ee30169be1
北京旅途时光家庭住宿,39.93423,116.616447,北京市朝阳区五里桥一街3号院首开畅心园5号楼,80e9048664548b23621c67ad,,1,80e9048664548b23621c67ad
北京荷荷123456特色民宿(万象商业街分店),39.9358,116.60387,北京朝阳区常营北路10号院天际万象二区,,,1,4d6eb0a6a8987bb05a3ac8a1
北京信诚连锁民宿北辰福地,39.934151,116.607643,北京市朝阳区北辰福第,2f2ca323c62338d7dc1e525d,,1,2f2ca323c62338d7dc1e525d
北京暖屋民宿(五里桥一街分店),39.934047,116.621593,北京朝阳区北京朝阳区五里桥一街一号院(朝阳北路6号线草房站)中弘北京像素,,,1,15f903d7e631af6c0bf5eb61
北京亚运村民宿,40.000856,116.413054,北京市朝阳区北辰东路8号,be54cde97d77074178f79608,"(010)64991199,(010)64993088",1,be54cde97d77074178f79608
北京弥邸设计师民宿(北沙滩路分店),40.012505,116.377653,北京朝阳区北沙滩7号院中天国际,,15711252884,1,7094d683890ae8f5c27da211
北京三来民宿,40.00804,116.425714,北京市朝阳区大屯路222号1号楼1102,b35fbc62898f82f8dbeced7c,13699113599,1,b35fbc62898f82f8dbeced7c
北京遇见家民宿,40.002142,116.417938,北京市朝阳区慧忠路3号院亚奥观典小区B座1105室,0bbcbd6ab475eb5602294f81,,1,0bbcbd6ab475eb5602294f81
北京弥邸设计师民宿(慧忠路分店),40.002182,116.411125,北京市朝阳区慧忠里小区410号楼9单元403室,6d054cd8bf347f5146e274c1,4006061230-24280,1,6d054cd8bf347f5146e274c1
北京京城百千惠民宿,40.040021,116.42279,北京市朝阳区北苑红军营南路媒体村C6楼,,(010)52365182,1,184e7f9a2dbc8580c036448c
北京繁星民宿,40.012112,116.412984,北京市朝阳区慧忠北里110号楼601,8ba3641b803dab8ed8ecedff,13910120931,1,8ba3641b803dab8ed8ecedff
北京初一民宿卧龙小区店,40.005662,116.409584,北京市朝阳区卧龙小区225号楼,,,1,ba27fa209fd193b33ce231d4
北京海豚湾民宿望京悠乐汇店,39.996105,116.484589,北京市朝阳区阜荣街望京悠乐汇D座19层1922室,245b4309409c80ab5bf6be9f,17746594134,1,245b4309409c80ab5bf6be9f
北京绿萝居民宿,39.996521,116.484204,北京市朝阳区阜安东路和阜荣街交叉口悠乐汇C座1922室,6042cbf04d93e5ea9222e0e9,15201663887,1,6042cbf04d93e5ea9222e0e9
北京商隐民宿望京悠乐汇SOHO店,39.996455,116.484172,北京市朝阳区望京园603号楼悠乐汇C座3008号,5aba338ce96dc861cc06a4dd,(010)84765531,1,5aba338ce96dc861cc06a4dd
北京怡家小住家庭民宿,40.002737,116.475897,北京市朝阳区望京西园四区419号楼16层,c88a75e777a6f8a504fef51c,17326983809,1,c88a75e777a6f8a504fef51c
北京斑斓家公寓民宿(望京SOHO店),39.996549,116.484353,北京市朝阳区广顺南大街悠乐汇C座,d156dfa247b7dc63276e987a,4006061230-76899,1,d156dfa247b7dc63276e987a
北京丽斯精品民宿公寓,39.995388,116.48355,朝阳区望京悠乐汇A座12层,3f77301ff51b2f7fc06c145c,18911373977,1,3f77301ff51b2f7fc06c145c
北京顾家公寓民宿,40.031995,116.455329,"朝阳区新北路甲6号-9号(亚运村,奥运村商圈近地铁13号线北苑站)",cec6977f17f1154252e5c5c8,(010)84950806,1,cec6977f17f1154252e5c5c8
北京望京小住家庭民宿,40.00191,116.476683,北京市朝阳区望京西园四区421号楼,be0b7f131fee4eb0b6147f0d,18910237096,1,be0b7f131fee4eb0b6147f0d
悠乐汇宏悦酒店,39.995347,116.483177,北京市朝阳区广顺南大街望京园609号楼悠乐汇A座9层,8afec9a550441597441a320a,15110212003,1,8afec9a550441597441a320a
北京柠檬树家庭民宿,40.000181,116.476217,北京市朝阳区望京西园四区426号楼1409,d4d1a0b7aa5e47fe28d7abc9,18911736928,1,d4d1a0b7aa5e47fe28d7abc9
北京天诺民宿望京soho店,40.002154,116.484086,北京市朝阳区阜安西路与望京街交汇处合生麒麟社1号楼1912,8f9fe4d2592fc3ab6b49f3c0,17746578766,1,8f9fe4d2592fc3ab6b49f3c0
北京霍姐韩式家庭民宿,40.007223,116.483855,北京市朝阳区望京街望京西园三区302号楼,032aee18cbaf0b6a8f1a8905,18301029917,1,032aee18cbaf0b6a8f1a8905
北京望京万隆日租短租家庭民宿,40.001823,116.479707,北京市朝阳区望京新城四区415号楼11层,850815e173e1168243e19239,(010)64748514,1,850815e173e1168243e19239
北京儒家民宿,39.997864,116.479508,广顺南大街东亚望京B座10层1006室,,15810018468,1,cc57d749782ce1734107c141
北京望京家庭民宿,40.004352,116.479293,北京市朝阳区望京西园四区403号楼16层,f28fa1c48a7a20d393114c5b,17701028667,1,f28fa1c48a7a20d393114c5b
北京伐木累民宿,40.019788,116.475682,北京市朝阳区利泽中一路一号博雅国际B座3层,8a8f0a93a9c27ae317c8f61a,13810305471,1,8a8f0a93a9c27ae317c8f61a
北京北卫新园民宿,40.03804,116.434113,北京市朝阳区立水桥北卫新园小区内,b0feafee52113282c336441a,,1,b0feafee52113282c336441a
北京精诚民宿,40.000627,116.47892,北京市朝阳区望京新城四区418楼912号,143431e740da50af0f0e6bde,(010)64711758,1,143431e740da50af0f0e6bde
北京弥邸设计师民宿(北苑路分店),40.001967,116.427934,北苑路甲166号楼2008室,378c27ae4f3f5c19c17da26c,15711252884,1,378c27ae4f3f5c19c17da26c
北京Mark的民宿,39.995322,116.461909,北京市朝阳区南湖西园303号楼2单元2101,fe59385e95fe132d3fe2313a,18601949066,1,fe59385e95fe132d3fe2313a
北京浩瀚精品民宿麒麟店,40.002575,116.483487,北京市朝阳区望京街合生麒麟社一号楼21层,42fbc6c5807f7fb030169bbd,13331063086,1,42fbc6c5807f7fb030169bbd
北京宏泽百合住宿,40.039305,116.432301,北京市朝阳区红军营南路,c5fe6a36f684bc6880a00c9b,18516862082,1,c5fe6a36f684bc6880a00c9b
北京W公寓式民宿,39.996054,116.484788,望京悠乐汇D座16F,997199d742d429b9e215f93d,17710392719,1,997199d742d429b9e215f93d
北京佳寓户小公寓式民宿,39.996026,116.48472,北京市朝阳区望京阜通东大街东口悠乐汇D座16层,be30ed5caf32bbe202294f92,(010)84787083,1,be30ed5caf32bbe202294f92
北京望京甲顺韩式家庭民宿,40.001528,116.478013,北京市朝阳区望京西园4区401楼2607室,c71c5b17ddddceefe5e9658b,(010)84717618,1,c71c5b17ddddceefe5e9658b
北京相寓INN民宿公寓望京悠乐汇店,39.995993,116.484824,北京市朝阳区望京园602号悠乐汇D座10层1028,a2d86ac536bd67f77069d391,18612012816,1,a2d86ac536bd67f77069d391
北京去去帝都暖窝民宿,40.019175,116.471612,北京市朝阳区望京利泽西园小区,,13381067767,1,225b9ddb25f6c19e14b54b04
北京民宿(北苑路分店),40.002396,116.42785,北京市朝阳区北苑路166风格派欧陆经典风格派,,,1,865c5670082c16aedeee8ba8
北京温馨韩式家庭民宿,40.002459,116.465334,北京市朝阳区湖光中街首开知语城317号楼3层(华联超市楼上),,13521675789,1,2e23a90afa681e16028972dc
家安民宿,40.002244,116.476698,北京市朝阳区望京西园4区421号楼2层208,4277ee1edff4d245acb22aec,,1,4277ee1edff4d245acb22aec
北京望京韩式家庭民宿,40.002529,116.47376,北京市朝阳区望京光顺北大街31号夏都家园1号楼B单元2103,2db729f16e4f16e1283a9f93,18610831667,1,2db729f16e4f16e1283a9f93
E平安北京民宿,40.001724,116.475526,北京市朝阳区望京新城四区422楼1812室,ee192af9d0688753eb1e974b,13366599341,1,ee192af9d0688753eb1e974b
北京相寓INN民宿公寓东亚望京中心店,39.997923,116.47919,北京市朝阳区广顺南大街东亚望京中心B座3305室,0f603a19de4a4d00475726d9,4009515515-6,1,0f603a19de4a4d00475726d9
北京逅客民宿麒麟社店,40.002572,116.483555,北京市朝阳区望京街合生麒麟社1号楼、2号楼,0831e14d657b7deb05026fe4,18210651917,1,0831e14d657b7deb05026fe4
北京金隅家庭民宿,39.990784,116.464752,北京市朝阳区望京西路48号金隅国际大厦C座17楼,2e9a8478a9e26ccf4151c0bc,(010)64787565,1,2e9a8478a9e26ccf4151c0bc
北京走心民宿,40.007441,116.428066,朝阳区携程朝阳区大屯路220号浩运园一号楼406室,37b50502bfed37b3b23c8118,18240069403,1,37b50502bfed37b3b23c8118
北京幸福源民宿公寓麒麟社店,40.002776,116.48438,北京市朝阳区望京街合生麒麟社2号楼2011,80ea916d61a8a33416c905cf,18611049159,1,3d04d2c51a50be4e5d0d0210
北京YES家庭民宿,40.005717,116.481038,北京市朝阳区望京西园三区321楼,,15911117716,1,cd13f9a8f8ca90112902e198
北京圣馨家庭民宿,40.001336,116.468361,北京市朝阳区南湖南路9号圣馨大地B座0103室,20971f50e7ff94c016a19040,(010)64738403,1,20971f50e7ff94c016a19040
北京创家民宿,40.002689,116.484059,北京市朝阳区望京合生麒麟社2号楼417,7d00f2d063c76349d3ff23f3,(010)57389905,1,7d00f2d063c76349d3ff23f3
北京金家民宿,40.00154,116.479097,朝阳区望京新城四区406号楼2001室,28d81939c02db4f1ca1b956b,18618130469,1,28d81939c02db4f1ca1b956b
北京费家村青年民宿,40.022026,116.509964,北京朝阳区崔各庄乡费家村39号,5b3bee1e6504dadbf8f0cbad,(010)64318501,1,5b3bee1e6504dadbf8f0cbad
和心聚住宿,40.028664,116.508577,北京市朝阳区来广营东路99号崔各庄金鑫超市南50米,78d8a2bb47cd7fc5ad0457dd,13911680738,1,78d8a2bb47cd7fc5ad0457dd
蟹岛农庄,40.025547,116.554463,北京市朝阳区蟹岛路1号蟹岛绿色生态度假村内,a4c1a222b384ca981f389498,(010)84324500,1,a4c1a222b384ca981f389498
出租住宿长租短租,40.019453,116.509259,北京市朝阳区东辛店中街,a2b739374969c5d26b49f3af,,1,a2b739374969c5d26b49f3af
北京798艺术电影小屋民宿,39.995528,116.498033,北京市朝阳区酒仙桥北路9号荧屏里小区1号楼,d2b66a1652b7863b1b11d5b1,4006061230-87972,1,d2b66a1652b7863b1b11d5b1
北京美迪行特色民宿(望京店)分店,40.039334,116.496872,北京市朝阳区香江北路香江北岸c座,7f97259a50fd153feb56fabf,4006061230-81388,1,7f97259a50fd153feb56fabf
二楼住宿,40.011955,116.579668,北京市朝阳区东苇路8号附近,,,1,691ae293edacd12cf32d83da
温馨房屋出租住宿,40.016193,116.579376,北京市朝阳区河湾路附近,bffb701c96f4d06a4acc4a12,15910343088,1,bffb701c96f4d06a4acc4a12
北京永诚(集团)润枫欣尚民宿,40.063255,116.418659,北京市朝阳区中东路5号,61e6b62f77597648b4f42f83,,1,b8d5ff313107c90621022042
北京喔嘉民宿酒店式公寓,40.085387,116.416729,北京市昌平区天通苑西三区26号楼4层,a82e00decc0c9bd12bb97cc8,15632379938,1,a82e00decc0c9bd12bb97cc8
北京丽水园小区-日租住宿,40.070031,116.423876,北京市昌平区立水桥北路(丽水园小区12号楼一单元401),9c62e7b87de2793540afe681,13701229143,1,9c62e7b87de2793540afe681
蓝黛住宿,40.053234,116.414735,北京市朝阳区立清路8号明天第一城内,d6d2a4afd20deabdcac3db27,(010)84673288,1,d6d2a4afd20deabdcac3db27
北京东亚兴华民宿公寓,40.060607,116.417607,北京市朝阳区汤丽路201号院奥北南区1号楼,63a6ae9577517ed5bda24046,18612561648,1,63a6ae9577517ed5bda24046
天通苑西二区-14楼民宿,40.078236,116.41682,北京市昌平区天通苑西二区,922b23cc2c8fa816d23ce350,,1,922b23cc2c8fa816d23ce350
北京新城卓越集团国风美唐民宿,40.079236,116.366954,"北京市昌平区回龙观东,13号线霍营站北侧",acc7ced46ee4fe8f5fbe8627,,1,acc7ced46ee4fe8f5fbe8627
北京新城卓越(集团)龙锦东4区民宿,40.088234,116.38178,东小口镇天鑫家园对面,e0b55848cfbbe1bff423102e,,1,e0b55848cfbbe1bff423102e
北京朝阳北苑立水桥南华发颐园刘女士民宿,40.04985,116.42138,北京市朝阳区北苑街道立水桥南华发颐园,8c46eadc39b563867adbd2eb,15201294188,1,8c46eadc39b563867adbd2eb
北京温暖的港湾特色民宿(辅路分店),40.057346,116.419586,立水桥东方郁金香,,,1,67050f794af3fb869d82ea7e
北京优住清幽民宿公寓,40.067957,116.391206,北京市昌平区建材城东路森林大第,66ed6d95e1a00c9925d2bb04,13241765504,1,66ed6d95e1a00c9925d2bb04
天通苑西二区-18楼民宿,40.078324,116.414656,北京市昌平区天通苑西二区,933d1dbfbad372b6f603b855,,1,933d1dbfbad372b6f603b855
北京永诚北京北民宿,40.062266,116.412877,北京市昌平区东小口镇中滩村大街8号院,2da8c9c85045fdfb04026fd7,,1,2da8c9c85045fdfb04026fd7
北京润枫民宿,40.064145,116.418539,北京市昌平区东小口镇润枫欣尚2号楼102室(立汤路与中东路交叉口西侧),767e606cacfe805775e5b6ad,(010)57466838,1,767e606cacfe805775e5b6ad
北京永诚(集团)中滩园民宿,40.067067,116.414291,北京市昌平区立水桥东小中镇中滩园,e03cacc1b019f8ffed74f815,,1,e03cacc1b019f8ffed74f815
顺鑫公寓住宿,40.046918,116.483652,北京市朝阳区顺白路974号附近,0c53553a5198e8e4c1f1cfbd,,1,0c53553a5198e8e4c1f1cfbd
北京紫绶园家庭民宿,40.04939,116.435073,北京市朝阳区立水桥南站旁紫绶园,acab7a0ed996303b46e274f9,13311335709,1,acab7a0ed996303b46e274f9
北京爱佳民宿,40.046181,116.430473,茉藜园-东门8号楼508室,,,1,cce1802c0cef2a4940ab9aef
北京好梦dreamland特色民宿(清河营南一街东口分店),40.047276,116.44697,北苑东路中国铁建广场,,(010)80187829,1,38b09a7301a143384afd3f04
北京家源家业民宿,40.048622,116.447324,朝阳区北苑东路19号中国铁建广场,a8fc108fa478bdd57369d307,,1,a8fc108fa478bdd57369d307
北京天通中苑民宿,40.077957,116.432522,天通中苑(小汤山温泉度假区),12dc78b9e6ebd5d81ce99912,15210746597,1,12dc78b9e6ebd5d81ce99912
吉如安农家院停车场-出入口,40.05041,116.448734,北苑东路与清河营南街交叉口东南100米,d896bd9039cad9a328d7abd2,,1,d896bd9039cad9a328d7abd2
北京忆嘉民宿,40.086578,116.547817,会展誉景国际公寓16号院北门,b8fdd97c7959b533c42ba18b,13621290019,1,b8fdd97c7959b533c42ba18b
圣露庄园木屋民宿,40.050566,116.497128,北京市崔各庄乡奶东工业园圣露国际酒庄(近赛特奥特莱斯),,,1,f0ba90f552c0492e91114cf8
北京金孔雀速八精品房民宿,40.06931,116.581729,北京市顺义区天竺镇小王辛庄南路8号院速8酒店5层,,(010)57122660,1,f35c6b6135fb1547bd4842b3
北京青青小屋家庭民宿,40.094374,116.562536,北京市顺义区机场附近地铁15号线花梨坎车站旁蓝星花园内9号楼3单元0102(半地下),41994ecd53f4701d88db7363,(010)80482701,1,41994ecd53f4701d88db7363
北京首都机场温馨园民宿,40.050652,116.615249,北京市顺义区岗山路42号13栋B座二楼,b27b7d7dcbec3c122e47338b,18311198286,1,b27b7d7dcbec3c122e47338b
北京首都机场新悦航空民宿公寓,40.049622,116.616293,岗山路42号15幢公寓楼2层,0b97f868a1fc8bb04e2fdf23,(010)64573807,1,0b97f868a1fc8bb04e2fdf23
北京王府别墅家园民宿,40.110969,116.415591,北京昌平区王府公寓王府街1号A113,71197123bd45fe8d6949f35f,18801116792,1,46ea20bdbfefecda882fb59e
金子住宿,40.10281,116.381713,北京市昌平区北七家镇小辛庄村,c58e3e470e5eefbd8bb988c4,,1,c58e3e470e5eefbd8bb988c4
维拉派  轰趴的民宿(小汤山镇二店),40.144862,116.415059,北京市昌平区渡上别墅区北边100米,,,1,f7aefcc61d4c1d037c29bd9e
北京朋来乐度假公寓民宿,40.107507,116.409319,昌平区北七家王府街9号院,70df3692bb2b888a13293582,13910639310,1,70df3692bb2b888a13293582
北京九五住宿,40.11025,116.409348,王府花园一层,79e435a3e9eca5b84f3a5997,13910027948,1,79e435a3e9eca5b84f3a5997
北京麦子888民宿(七北路分店),40.108749,116.43488,北京市昌平区亚运村正北清路名流花园梅苑2号楼,783a5974c9a70c458bf15d3a,13683542135,1,783a5974c9a70c458bf15d3a
QQ草莓园,40.155968,116.475987,沟流路96号,,,1,319ee744874dc42e744ff1fa
王飞垂钓园农家院,40.137353,116.526864,北京市顺义区顺于路,f9cd12c8d5b9f89384330494,,1,f9cd12c8d5b9f89384330494
北京春晖园温泉私汤民宿公寓,40.138397,116.494531,北京市顺义区春晖园随园(近国展地铁站),48706b7ca76ea85ef50e77e2,15652195791,1,48706b7ca76ea85ef50e77e2
北京程程的家民宿,40.13877,116.494442,"北京市顺义区春晖园随园75号楼,沟头路",2ba197636670738b14b54b09,4006061230-101691,1,2ba197636670738b14b54b09
北京金马民宿,40.137627,116.562952,北京市顺义区西马各庄顺于路与火寺路交叉口东侧150米路北,e0ad1a47abd2521be6e96565,15801228305,1,e0ad1a47abd2521be6e96565
闲菜村熹泽民宿小院(顺义店),40.151673,116.576757,北京市顺义区高丽营镇文化营39号国际艺术园内,91b8dbccff6f638200ec0183,18600392525,1,91b8dbccff6f638200ec0183
北京西马社区住宿,40.153181,116.559925,北京顺义区荣府街火寺路,cd6f7dc5ee274a64c2f1cf04,13261757212,1,cd6f7dc5ee274a64c2f1cf04
