name,lat,lng,province,city,district,adderss,street_id,telephone,detail,uid
浪淘沙网咖,39.746291,116.149251,北京市,北京市,房山区,北京市房山区拱辰大街12号楼,,,1,c5f448a26b081b6a5d0d02e5
白夜网咖(网娱店),39.735877,116.148136,北京市,北京市,房山区,北京市房山区拱辰南大街19号,,,1,9af2a64a868b473cfa0cade3
金苹网吧台球,39.735045,116.141686,北京市,北京市,房山区,北京市房山区西潞南大街甲8号,,,1,e3c60a26cb4599a0acee7a41
亿龙缘网络会所,39.734819,116.1267,北京市,北京市,房山区,月华南大街10号,e505128b4c136abfc51b7508,,1,e505128b4c136abfc51b7508
逍遥游网咖,39.72914,116.162714,北京市,北京市,房山区,北京市房山区长虹东路10号,343c467292daabae04026f45,,1,343c467292daabae04026f45
学悦网咖,39.732286,116.142133,北京市,北京市,房山区,西潞街道西潞南大街14号梦艺主题酒店二层,19021bcd5ceea07738e4a607,,1,19021bcd5ceea07738e4a607
北京金运佳乐网吧,39.732833,116.14751,北京市,北京市,房山区,良乡五街罗府家园1号,19fe6a4e54db08a4e8e582c1,(010)69385878,1,19fe6a4e54db08a4e8e582c1
昊衡网吧,39.738145,116.148142,北京市,北京市,房山区,北京市房山区拱辰大街181号麦当劳楼上,1ae1b3bde9c7f803b21e36e9,13521794365,1,7d72171c9dec38cfc61b7512
海龙网咖,39.741734,116.146821,北京市,北京市,房山区,北京市房山区良乡北关西路朝晖大厦3楼,,"(010)86935661,(010)69382899",1,230d4076396d2057b5147f9e
世纪创艺网咖,39.732365,116.14209,北京市,北京市,房山区,北京市房山区西潞南大街甲14号国大写字楼东北门,c1e24b375e3465926b49f3ec,(010)89358630,1,c1e24b375e3465926b49f3ec
网鱼网咖(良乡大学城店),39.729029,116.167788,北京市,北京市,房山区,长虹东路荷园东街1号院申宝大厦2层,0172a6170c84cee51f38949c,,1,0172a6170c84cee51f38949c
SummerNight网咖,39.72905,116.17759,北京市,北京市,房山区,北京市房山区书院南街12号院3号楼201-202-203室,794ffe8ec2f62864eb12e46e,,1,794ffe8ec2f62864eb12e46e
北京龙腾网吧,39.727315,116.284647,北京市,北京市,大兴区,北京市大兴区黄村镇北京航空旅游专修学院西门,bdd263986245a94e4d2fdf40,,1,2c46873f606cfd4bc7f02521
电玩城网吧,39.759115,116.295759,北京市,北京市,大兴区,黄村芦城黄鹅路昕睿宾馆2层,7b6cb01fffe86578c16c1408,,1,7b6cb01fffe86578c16c1408
快乐网咖,39.742785,116.349216,北京市,北京市,大兴区,北京市大兴区黄村富强路2号时代龙和北门,e8a739913191fac5095cb3d9,15010995655,1,e8a739913191fac5095cb3d9
世纪网安,39.734579,116.338658,北京市,北京市,大兴区,北京市大兴区黄村镇兴华大街67号,6d148d5b4fe117b72e4733e5,,1,6d148d5b4fe117b72e4733e5
学海网吧(清源北路店),39.751649,116.340081,北京市,北京市,大兴区,清源北路12号,e603e47ef44c796a1e58009b,(010)69209674,1,e603e47ef44c796a1e58009b
北京联圣奇上网服务有限公司,39.728587,116.342961,北京市,北京市,大兴区,北京市大兴区黄村林校北路21号,4ea3f2f1b1c72cb3afcb66bf,13240115111,1,4ea3f2f1b1c72cb3afcb66bf
博文网城(三中西巷),39.738663,116.337821,北京市,北京市,大兴区,兴华大街中段27号,68e456ad325defd2a8175a51,,1,68e456ad325defd2a8175a51
百联兴华网咖,39.755582,116.340557,北京市,北京市,大兴区,北京市大兴区兴华北路二段78号院-53号,2f26e550418f8cd401294f59,(010)69205493,1,2f26e550418f8cd401294f59
新干线网吧,39.728002,116.357715,北京市,北京市,大兴区,北京市大兴区海北路11-4号,7b2b35507dbbeaf554bfff29,(010)69298606,1,7b2b35507dbbeaf554bfff29
电玩网咖,39.75545,116.340536,北京市,北京市,大兴区,北京市大兴区兴华北路物美超市附近,c867876abd8128dcbd484294,(010)69205493,1,c867876abd8128dcbd484294
e网情网吧,39.719101,116.353516,北京市,北京市,大兴区,黄安路8号,a69ed34b7f6793090869d9df,,1,a69ed34b7f6793090869d9df
世先锋网吧,39.742485,116.35857,北京市,北京市,大兴区,黄村镇团河路69号2层,198fc963ce2bbf44d92f2884,,1,198fc963ce2bbf44d92f2884
新开心网吧,39.737199,116.347775,北京市,北京市,大兴区,北京市大兴区黄村东大街56号楼帝园鞋城3层,80169b61c94f725deedfcafb,,1,80169b61c94f725deedfcafb
天和隆网吧,39.734233,116.349311,北京市,北京市,大兴区,市场路139号二层(建设银行旁),ebc8359638f54d95ebe5820b,13520902111,1,ebc8359638f54d95ebe5820b
监控网络,39.741842,116.350641,北京市,北京市,大兴区,北京市大兴区黄村东里8号楼5单元101,3f6c1cf8ad91a28cf42310d5,,1,3f6c1cf8ad91a28cf42310d5
盛唐网咖(竞技时空店),39.816107,116.161103,北京市,北京市,丰台区,北京市丰台区云岗西路12-3号附近,03bf6bf075e3912a74026987,,1,03bf6bf075e3912a74026987
星空网咖,39.813139,116.19524,北京市,北京市,丰台区,北京市丰台区云岗路朱家坟188号(华冠超市隔壁),,18701036606,1,d1ec185ae9f17da12cfaa751
鹏博网咖,39.780447,116.227496,北京市,北京市,房山区,北京市房山区天泰新景温泉家园18号楼2层01-01,,17665485210,1,2134061bef7cd2a0157643ce
北京东方网盛网咖,39.791724,116.291877,北京市,北京市,大兴区,黄村地区狼垡四村八条1号,1ae5963ae3926f18bbbd63f2,,1,1ae5963ae3926f18bbbd63f2
绿色经典网吧,39.780019,116.341384,北京市,北京市,大兴区,北京市大兴区郁花园二里小区(兴丰大街西),8541e79df560d866c42ba1e3,,1,f520d163a5136f3a047ce8ca
十指飞扬网吧,39.776763,116.34136,北京市,北京市,大兴区,北京市大兴区兴丰大街双流兔头诚一锅2楼,f8f71070e774b602d22dd6cd,,1,f8f71070e774b602d22dd6cd
博旺网城,39.798701,116.346077,北京市,北京市,大兴区,西红门北一街一号院5号楼,f7f40831de49870f5a3ac8c5,,1,f7f40831de49870f5a3ac8c5
鸿源鑫网咖,39.763733,116.317845,北京市,北京市,大兴区,北京市大兴区康庄路53号院8号楼,0ae40e0a05ecf1decf06a458,,1,0ae40e0a05ecf1decf06a458
静慧诚网城,39.764696,116.357618,北京市,北京市,大兴区,北京市大兴区金苑路14号2层,52d9465503c2f6a8f6c59c5e,,1,52d9465503c2f6a8f6c59c5e
欣宇亚伟网城,39.806224,116.340178,北京市,北京市,丰台区,北京市丰台区京良路10号c座3楼,bebed7112af99c059122e097,,1,bebed7112af99c059122e097
四海畅通网吧,39.833938,116.214766,北京市,北京市,丰台区,长辛店大街39号,a4f6309f4cfb4878b5147f71,,1,a4f6309f4cfb4878b5147f71
泰天通网吧,39.844711,116.256385,北京市,北京市,丰台区,丰西北里98号,a27db123f281f1fe9868b4ce,(010)51222356,1,a27db123f281f1fe9868b4ce
北京双璐潞通网吧,39.865064,116.258737,北京市,北京市,丰台区,北京市丰台区卢沟桥路356号,90a3f9da9caa8ffb1b11d5cd,,1,90a3f9da9caa8ffb1b11d5cd
星河时空网吧,39.866494,116.262987,北京市,北京市,丰台区,五里店路与卢沟桥路交叉口东北50米,888294c7e4d9879c5e17c390,,1,888294c7e4d9879c5e17c390
馨馨快乐金桥网吧,39.84708,116.295404,北京市,北京市,丰台区,北京市丰台区丰台南路116号(博源晟书店),c2df96ad56bc29335e0d02ef,,1,c2df96ad56bc29335e0d02ef
网咖,39.846802,116.295451,北京市,北京市,丰台区,北京市丰台区丰台南路118号附近,,,1,c55833bf1f96e7cd260bd056
北京华美联上网服务有限公司网吧,39.862931,116.264714,北京市,北京市,丰台区,北京市丰台区五里店南路9号院-1号楼,420d11a6dc57203c4002453b,,1,420d11a6dc57203c4002453b
熙启庆鑫网吧,39.864299,116.309539,北京市,北京市,丰台区,丰管路5号院盛鑫嘉园5号楼二层,a85a6ce3968047432efaa7dd,"13701108585,(010)83663781",1,a85a6ce3968047432efaa7dd
7号电竞一店网咖,39.84591,116.312634,北京市,北京市,丰台区,北京市丰台区花乡鸿业兴园二区1号楼三层(丰台南路),,,1,d7679763aec58bf5a2a9340a
蓝桥网咖,39.840654,116.30144,北京市,北京市,丰台区,北京市丰台区恒富中街5号,132b4d896e4d88788bb98873,,1,132b4d896e4d88788bb98873
追梦网吧,39.820019,116.297451,北京市,北京市,丰台区,北京市丰台区北京国际花园198号,b876f1d9ed01d6d1260bd0fb,,1,b876f1d9ed01d6d1260bd0fb
大华网吧,39.863129,116.299562,北京市,北京市,丰台区,东大街嘉诚广场9号地下一层,,,1,f5584d5d0c092d3b7bf79633
小辉网咖,39.846433,116.328842,北京市,北京市,丰台区,首经贸中街6号,cb983a382ad648d0f32d83f8,,1,cb983a382ad648d0f32d83f8
动漫世界网络会所,39.828506,116.346185,北京市,北京市,丰台区,新发地168号,bd29ddd64a633bb75cd4fe57,,1,bd29ddd64a633bb75cd4fe57
北京瑞得在线丰华网吧,39.827946,116.319211,北京市,北京市,丰台区,北京市丰台区樊羊路69号院2号楼建设银行旁边,04a89264d789c3fdf60e773e,(010)59813825,1,04a89264d789c3fdf60e773e
丰瑞达网吧,39.843035,116.302732,北京市,北京市,丰台区,北京市丰台区恒富中街2号院兴鹏大厦1层,3e0bf0b04f75a7216c20b95e,(010)63788735,1,3e0bf0b04f75a7216c20b95e
零度聚阵网吧,39.852085,116.344515,北京市,北京市,丰台区,丰台区南三环西路88号春岚大厦4号楼2层,b340464907df70032b3a9f69,,1,b340464907df70032b3a9f69
思无界网吧,39.855981,116.339487,北京市,北京市,丰台区,万柳桥甲3号北京宝隆大厦地下M层,0465165945067145f82d6199,,1,0465165945067145f82d6199
诺德网络中心,39.833209,116.307353,北京市,北京市,丰台区,北京市丰台区汽车博物馆南路,95b7ccffbddd3e5cdb131858,,1,95b7ccffbddd3e5cdb131858
蓝色伊洛网吧,39.915835,116.117963,北京市,北京市,门头沟区,北京市门头沟区永定镇冯村商业街永定B区5005号,3a699e7a9ce429e22cb9084b,13521094552,1,3a699e7a9ce429e22cb9084b
花雨网吧,39.921536,116.204908,北京市,北京市,石景山区,北京市石景山区八角西街41号,4b135b444fba2ae7764ff1be,13718685458,1,4b135b444fba2ae7764ff1be
来电(协成金豆网吧),39.920799,116.195752,北京市,北京市,石景山区,古城小街6号,835f89fb561badc40c0e6bd6,,1,835f89fb561badc40c0e6bd6
龙喵网咖,39.912926,116.198151,北京市,北京市,石景山区,"北京市石景山区古城南里甲2号(地铁一号线古城站C口出,麦当劳楼上)",,18611880966,1,dcea983b8e635c0080a12eb2
糖果盒网吧,39.920107,116.188068,北京市,北京市,石景山区,古城西路甲8号速8酒店1层,b915e1f5f430c83f2802e161,(010)88755891,1,b915e1f5f430c83f2802e161
吉祥网吧(鲁谷南路店),39.905995,116.218367,北京市,北京市,石景山区,北京市石景山区鲁谷南路西鑫大厦26号二楼北侧,41572e00e38ef8adb55f1ea5,13898774588,1,41572e00e38ef8adb55f1ea5
北京畅游时代(新大厦),39.915596,116.211917,北京市,北京市,石景山区,八角东街65号,7741281e6a7f57de475726ae,,1,7741281e6a7f57de475726ae
空中漫游,39.918315,116.215669,北京市,北京市,石景山区,北京市石景山区石景山路25号北京石景山游乐园西园内,e60d99b2f3c18a579e9d6877,(010)68862547,1,e60d99b2f3c18a579e9d6877
信息网络中心,39.912422,116.229178,北京市,北京市,石景山区,北京市石景山区石景山路18号区政府304室,,,1,0a82747e1b03aaddc26c14b4
万方鑫诺网咖台球,39.911723,116.271473,北京市,北京市,海淀区,北京市海淀区永定路88号西点百货B1,,15010781009,1,0563e54e29247343eee4a502
E聚电竞生活馆,39.904458,116.235724,北京市,北京市,石景山区,北京市石景山区鲁谷街道五芳园18号楼底商南侧1栋2号1-2层,39a8da55f82b6b49873304d1,,1,39a8da55f82b6b49873304d1
紫金豪庭网吧,39.924417,116.279385,北京市,北京市,海淀区,北京市海淀区金沟河路一号,e09ac647caa1a8c931f71d10,(010)51881655,1,e09ac647caa1a8c931f71d10
瀚海网咖,39.910061,116.244006,北京市,北京市,石景山区,邓丽君餐厅东侧地下1层,,13301174231,1,c706ae2c8e67dfe0b8bd6311
嘉任金诚网吧,39.897987,116.23485,北京市,北京市,石景山区,鲁谷大街重兴园小区内,0d211a6bb81293e961685868,13552749880,1,0d211a6bb81293e961685868
杰杰网城(御翰苑商务写字楼西),39.89525,116.258362,北京市,北京市,丰台区,北京市丰台区小屯路9号,8de4a5c5ce1d435e58109341,13261349888,1,8de4a5c5ce1d435e58109341
余乐网吧(台球),39.907092,116.233708,北京市,北京市,石景山区,北京市石景山区永乐西小区26号楼,e5158f5762e4c951d12dd6e8,(010)68663848,1,e5158f5762e4c951d12dd6e8
零距离网吧,39.879111,116.286169,北京市,北京市,丰台区,北京市丰台区西四环南路8号,53bcff147a686a6c9e95de7a,,1,53bcff147a686a6c9e95de7a
金火石网城,39.879428,116.291616,北京市,北京市,丰台区,丰台区望园路6号,14b1c58e2afae27b990050c1,(010)63850072,1,14b1c58e2afae27b990050c1
鑫启运网吧,39.924027,116.268301,北京市,北京市,海淀区,北京市海淀区金沟河路17号院,e0c52ff3590bd1ba132935cb,18600269218,1,e0c52ff3590bd1ba132935cb
北京君瑞春城网吧,39.89825,116.27058,北京市,北京市,丰台区,北京市丰台区卢沟桥街道大成里青塔西路秀园2号楼地下一层,,,1,14061eaf2120d4d2220220a8
宏鹏网咖,39.895337,116.267519,北京市,北京市,丰台区,水头庄298号2层,,,1,14955303dbc83898ca291507
休闲网咖,39.878924,116.286349,北京市,北京市,丰台区,北京市丰台区西四环南路8号附近,,,1,483ae7920d731db154bffff7
网咖,39.923976,116.268494,北京市,北京市,海淀区,北京市海淀区金沟河路17号院,407ed781988c85eb2d4733b9,15101097120,1,407ed781988c85eb2d4733b9
网咖,39.895335,116.258337,北京市,北京市,丰台区,卢沟桥街道小屯路9号,50b06bdc5b8bb12f7bf7966f,(010)51811911,1,50b06bdc5b8bb12f7bf7966f
互联网,39.887154,116.283887,北京市,北京市,丰台区,北京市丰台区阅园一区6号楼15层,,,1,1ae6ac01ea1d2a59240bd03e
网咖(望园路店),39.879759,116.291393,北京市,北京市,丰台区,望园路小井润园一区上山下乡,ba9410c9887fc955aeb22ac7,,1,ba9410c9887fc955aeb22ac7
食讯网调度中心,39.886308,116.284597,北京市,北京市,丰台区,北京市丰台区卢沟桥乡岳各庄市场北侧,,,1,b5ad38470acf7808b24c4987
雄鑫网吧,39.902502,116.345277,北京市,北京市,西城区,北京市西城区莲花池东路24号院甲1号,9eff39ca7b75bc76ca2915e9,(010)63322636,1,9eff39ca7b75bc76ca2915e9
益友盛上网服务中心,39.903868,116.328579,北京市,北京市,海淀区,莲花池东路31号西新隆商场B1层,a5097bfacabaa77af13cbab6,18610607650,1,a5097bfacabaa77af13cbab6
比邻网咖,39.889321,116.318937,北京市,北京市,丰台区,太平桥西里小区25号楼2层,ec57fdb23a67f48deb56fa9f,,1,ec57fdb23a67f48deb56fa9f
蓝海风网吧,39.890592,116.341561,北京市,北京市,西城区,北京市西城区马连道南街红莲北里20号2层,68544511413698a1dc1e523d,(010)63485717,1,68544511413698a1dc1e523d
缘相聚网吧,39.904284,116.327208,北京市,北京市,海淀区,北京市海淀区羊坊店路17-8号,20d1eb3ecefaa1fdbea240c6,(010)63972939,1,20d1eb3ecefaa1fdbea240c6
中塔电竞馆,39.925505,116.316097,北京市,北京市,海淀区,北京市海淀区西三环中路7-11号大中电器B1层,2936a98eaf62d2ce2fb96de9,15810765208,1,2936a98eaf62d2ce2fb96de9
网与咖网吧,39.914717,116.307245,北京市,北京市,海淀区,海淀区复兴路47号天行建商务大厦正门底下1楼(近翠微商场),71ecdb229eeee1d5aecb66a1,18401460204,1,71ecdb229eeee1d5aecb66a1
东威四方网络休闲会所,39.893865,116.301873,北京市,北京市,海淀区,万丰路18号院5,671e69ac53793626950319ad,,1,671e69ac53793626950319ad
关丽都网吧,39.883254,116.360079,北京市,北京市,西城区,西城区建功南里3号楼地下一层,,(010)63557073,1,f8824296427c571e57bfffc7
青叶网吧,39.916285,116.307139,北京市,北京市,海淀区,北京市海淀区翠微路2号院,c52212a9282b27d00e3ddabf,(010)68150223,1,c52212a9282b27d00e3ddabf
吴天时尚网咖,39.89081,116.330675,北京市,北京市,西城区,马连道南街12号气象宾馆地下一层,,,1,ce15b7b5ef7ebc17c7f025b9
零度聚阵穿越时空网吧,39.886401,116.32353,北京市,北京市,丰台区,华源一里甲9号楼B1,a48b1d268da7c025cc06a40d,,1,a48b1d268da7c025cc06a40d
平华兴业网吧,39.908641,116.330977,北京市,北京市,海淀区,北京市海淀区羊坊店东路120号,,(010)63953993,1,96d041addc6d9ed68bfc06c3
住宿网吧,39.904381,116.327439,北京市,北京市,海淀区,北京市海淀区庆丰包子铺(羊坊店路店),ed6b3df18d86ae7b28d7ab29,,1,ed6b3df18d86ae7b28d7ab29
网梦时代网吧,39.889553,116.32393,北京市,北京市,丰台区,北京市丰台区太平桥西里30号楼1层,5508504d4e2bdbd2c6f02580,15810036397,1,5508504d4e2bdbd2c6f02580
鑫华水网吧,39.930852,116.307908,北京市,北京市,海淀区,北京市海淀区北洼路66号华光商厦楼后鑫华水网吧,,18744523333,1,841c4ab6995bb6a5eb1e978e
华宇大地网吧,39.881872,116.331479,北京市,北京市,西城区,北京市西城区马连道路甲1号,9e3e34bc402095ce22022091,,1,9e3e34bc402095ce22022091
新联网吧,39.929456,116.351488,北京市,北京市,西城区,北京市西城区展览馆路48号附近,,,1,ff10ed03b3a1c6a6c27da21f
知心雨网吧,39.927871,116.36106,北京市,北京市,西城区,北京市西城区万明园13-4,,,1,e73c4f3b808288c15abbbced
北京和永佳上网服务中心,39.914328,116.307218,北京市,北京市,海淀区,北京市海淀区复兴路47号天行建商务大厦b101,39d43f82c9ea3c9fa9059d83,,1,39d43f82c9ea3c9fa9059d83
互联网驿站,39.92066,116.301964,北京市,北京市,海淀区,北京市海淀区翠微中里16号楼1门3层,adc4b1900bd9d7ff74026900,,1,adc4b1900bd9d7ff74026900
英图网咖,39.895563,116.309013,北京市,北京市,丰台区,北京市丰台区丰台街道莲香园小区1号楼B区三楼,,(010)63993137,1,c4929d78a9a2db0cd3ff23e7
网吧(185店),39.882216,116.353203,北京市,北京市,西城区,北京市西城区鸭子桥路1号院5号搂底商(近信德祥和),ad527a010c0b79a1c92915d7,(010)63388139,1,ad527a010c0b79a1c92915d7
北京瑞得在线美好比邻上网服务有限公司,39.878329,116.300363,北京市,北京市,丰台区,万丰路308号,16d773f682348c812efaa785,,1,16d773f682348c812efaa785
静心斋网吧,39.920613,116.302609,北京市,北京市,海淀区,北京市海淀区万寿路翠微中里16号楼B1层,4fc3161a89ef3eb03b13fdbf,(010)68258912,1,4fc3161a89ef3eb03b13fdbf
中新网,39.930989,116.344179,北京市,北京市,西城区,百万庄南街12号,30d514bab92ad0fecb213dc7,(010)87826688,1,30d514bab92ad0fecb213dc7
狂飙空间,39.888712,116.335511,北京市,北京市,西城区,西城区茶马北街1号院2世纪茶贸中心2-2-228,92f728075868ef630f0e6b9b,,1,92f728075868ef630f0e6b9b
快乐生活一点通,39.882648,116.339843,北京市,北京市,西城区,北京市西城区红莲南路30号红莲大厦710室,af34059d6afdaeaa260bd05a,(010)52605811,1,af34059d6afdaeaa260bd05a
G网中心,39.912647,116.338488,北京市,北京市,海淀区,北京市海淀区北京铁路局6号楼,,,1,ae73f55b65b7fc9922f017e1
网咖,39.712038,116.388747,北京市,北京市,大兴区,北京市大兴区团桂路3号附近,,,1,4a60c10ef1b9cde9cb213d0e
网吧,39.715752,116.484235,北京市,北京市,大兴区,北京市大兴区青云店镇垡上村孙垡路顺安酒店,,,1,e22ed317697148d5c1f1cff3
自由城网吧,39.743575,116.553424,北京市,北京市,通州区,北京市通州区S303(漷马路),,,1,36dffb738e465df988db739a
天宏伟都网咖,39.739726,116.587138,北京市,北京市,通州区,北京市通州区小周易村7号,,,1,222575e59aa1c01215c905e3
诚业久远网咖,39.731798,116.565532,北京市,北京市,通州区,北京市通州区周营医院(马驹桥建材城东北),86830a059c2f55ec4bcc4a76,,1,86830a059c2f55ec4bcc4a76
韵营星空网吧,39.739648,116.58419,北京市,北京市,通州区,周易北街6号,,(010)60599236,1,6bf0e48cf7736e20213bf205
新起点网咖,39.813874,116.407872,北京市,北京市,丰台区,南苑北里二区6号楼三层,c14aa785f7b0870211882465,,1,c14aa785f7b0870211882465
童智星城网吧,39.800702,116.373093,北京市,北京市,大兴区,西红门镇绿林苑21号楼,9a6010105c15382809b93a0b,15201665440,1,9a6010105c15382809b93a0b
博斯盾网吧,39.800302,116.371254,北京市,北京市,大兴区,西红门路7号,fde222cd58c5f37b07fef519,,1,fde222cd58c5f37b07fef519
绿之洲网吧,39.770916,116.386714,北京市,北京市,大兴区,北京市大兴区团河路1号如家酒店3层,421b9f243d1189ccd22dd606,,1,421b9f243d1189ccd22dd606
华宇时空网络家园,39.816445,116.36509,北京市,北京市,丰台区,南苑乡新宫村翠海明苑西门27号,c573dfc381f86d6543ab9a06,13311294739,1,c573dfc381f86d6543ab9a06
北京千龙网都世纪网全上网服务有限公司,39.770222,116.389686,北京市,北京市,大兴区,北京市大兴区金星庄村14号农村商银行二楼,dd68f3bd6515a25295ca07c0,(010)61280415,1,dd68f3bd6515a25295ca07c0
盛唐网吧,39.778901,116.366156,北京市,北京市,大兴区,北京市大兴区广平大街星光视界园北门,,17326835519,1,213d48660bc364194c3a59d1
天际通网咖(东高地一店),39.79503,116.426781,北京市,北京市,丰台区,北京市丰台区南大红门路97号临时附近,a27fdc5c33688efe86420ecd,,1,a27fdc5c33688efe86420ecd
"网咖,养乃世家",39.800689,116.373094,北京市,北京市,大兴区,西红门绿林苑21号底商,706bc8bef521cfe2f60e77ec,13488681798,1,706bc8bef521cfe2f60e77ec
吧友网咖(旧宫店),39.80538,116.462739,北京市,北京市,大兴区,北京市大兴区旧宫旧桥路12号院楼下地下一层(旧宫新苑南区东门),bb7c58713a3a78f4f90cad17,(010)69288288,1,bb7c58713a3a78f4f90cad17
江玙网吧,39.78959,116.427769,北京市,北京市,大兴区,旧宫镇芳源里7号楼1层108,b924a8a7a105429ca8f72924,,1,b924a8a7a105429ca8f72924
恒远思达网吧,39.81084,116.447554,北京市,北京市,大兴区,北京市大兴区旧宫镇旧宫西路17-1,56f2f69693f503990ba8d481,(010)87962425,1,56f2f69693f503990ba8d481
北京前程万里上网服务有限公司,39.812531,116.459242,北京市,北京市,大兴区,旧宫东路55号,d146b3880aac54c7750269aa,,1,d146b3880aac54c7750269aa
异境地带网吧,39.810543,116.430844,北京市,北京市,丰台区,北京市丰台区万源路93号,6ed5c0da432ed4a16f3e1b6b,13439481097,1,6ed5c0da432ed4a16f3e1b6b
星星物语网咖,39.808933,116.457647,北京市,北京市,大兴区,北京市大兴区西红门多乐多超市3层,e20f1313031a3b9e6f3e1bc0,(010)87964828,1,e20f1313031a3b9e6f3e1bc0
曲乐园,39.814609,116.450029,北京市,北京市,大兴区,北京市大兴区庑殿路32号,5441cad188fa33021b94c65f,,1,5441cad188fa33021b94c65f
华诚网吧,39.799934,116.486411,北京市,北京市,大兴区,亦庄镇贵园南路6号B1层,99039f7f3db1e147cd04efe6,,1,99039f7f3db1e147cd04efe6
鑫迪特网吧,39.797616,116.504948,北京市,北京市,大兴区,北京市大兴区天宝南街4号,,,1,58c0fb4e5cd05a3a0f0e6b6c
松柏网吧,39.807963,116.513938,北京市,北京市,大兴区,宏达北路10号北京万源商务中心C区2楼,98f774699adf4b268b2fb528,,1,98f774699adf4b268b2fb528
天蕴网咖,39.80869,116.539196,北京市,北京市,大兴区,科创五街城乡世纪广场4001号,,,1,7d107737f99aad7eb6147f5e
兴业雷石网吧,39.761652,116.550622,北京市,北京市,通州区,北京市通州区马驹桥镇神龙潼关小区10楼地下室,527f1c67ac638d36b72655f7,,1,43c23cce5f10755f90114ceb
金手指网吧,39.770729,116.556814,北京市,北京市,通州区,北京市通州区马驹桥镇北门口村41号,a88dcc9bfaef38ca4e5547d8,,1,a88dcc9bfaef38ca4e5547d8
七星网吧,39.76184,116.55487,北京市,北京市,通州区,马驹桥镇通州第二医院旁边,393ff3dd111d4f48593ac83c,,1,393ff3dd111d4f48593ac83c
祥源旋风网吧(金海店),39.815076,116.550884,北京市,北京市,通州区,台湖镇金海石材园(近科创五街),142b14b5419ddd075abbbcd0,,1,142b14b5419ddd075abbbcd0
亿星方缘网咖,39.766111,116.551753,北京市,北京市,通州区,北京市通州区新海东路1号,8b4e708cea748a790782c2ad,,1,8b4e708cea748a790782c2ad
时代网咖(马驹桥店),39.763832,116.560391,北京市,北京市,通州区,马驹桥镇兴华大街8号,b0f4bc3a05f4093ebda2405d,18310068595,1,b0f4bc3a05f4093ebda2405d
亿世界网吧,39.766879,116.558981,北京市,北京市,通州区,马桥北街西200米,dbe3c642a9dda09472210b62,,1,dbe3c642a9dda09472210b62
福乐天网咖,39.801673,116.576561,北京市,北京市,通州区,北京市通州区经海七路100号院10号楼,c3110ee9571a28c695f08c16,,1,c3110ee9571a28c695f08c16
阿威网络会所,39.764544,116.562623,北京市,北京市,通州区,马驹桥镇商业街中路1号2层,9135c188b6befbf6cafa5f23,,1,9135c188b6befbf6cafa5f23
水晶恋网吧(新月星空六店),39.769938,116.562847,北京市,北京市,通州区,马驹桥,959105c00fe41826afcb66e9,,1,959105c00fe41826afcb66e9
新世都网咖,39.803398,116.570995,北京市,北京市,通州区,北京市通州区定海园三里9号楼,,,1,c5740ad5fa2217a2f82d617d
鈤悦网吧,39.764675,116.565147,北京市,北京市,通州区,北京市通州区马驹桥镇兴华中街36号,98d03b286b9608fa0ab93a2c,,1,98d03b286b9608fa0ab93a2c
新月星空网吧,39.768511,116.560116,北京市,北京市,通州区,马驹桥镇马桥北街百分百超市3层,c785d1fa1e6b942941d63e24,,1,c785d1fa1e6b942941d63e24
力强网咖,39.808999,116.584801,北京市,北京市,通州区,次渠村路与潞西路交叉口西150米,,15311333373,1,af546609323f0fb10a5cb321
浩瀚网咖,39.808401,116.588144,北京市,北京市,通州区,北京市通州区次北路与铺西路交叉口西150米,,,1,9d30e724b3e925d6b6f42f48
蓝色必酷网吧,39.768856,116.561006,北京市,北京市,通州区,北京市通州区马驹桥二街村村委会西400米,f4e500487ccb152258109319,,1,f4e500487ccb152258109319
裕新大东方网吧,39.771295,116.560196,北京市,北京市,通州区,四支路北段南100米,,,1,c5e454316882194e2fe67b3f
聚缘驿站网吧,39.867233,116.392581,北京市,北京市,丰台区,马家堡东路27号二层,1d757f82ca8037782efaa785,(010)67265573,1,1d757f82ca8037782efaa785
神箭鸿翼网吧,39.851614,116.370543,北京市,北京市,丰台区,北京市丰台区永辉超市3楼,63e95f7e565224278a36ee7f,,1,63e95f7e565224278a36ee7f
网梦时尚,39.872465,116.380188,北京市,北京市,丰台区,北京市丰台区右安门外开阳里7区2号楼,ff46b3a0d015c36aa8059d91,(010)63514136,1,ff46b3a0d015c36aa8059d91
六合网咖(右安门外店),39.866784,116.371652,北京市,北京市,丰台区,北京市丰台区右外大街56号院2号楼,88c2300779628ca37dc876e7,(010)83974007,1,88c2300779628ca37dc876e7
先锋创e网咖,39.860538,116.404041,北京市,北京市,丰台区,北京市丰台区南苑路果园小区6号楼金泰商贸大厦地下一层288号,c56e1d4ff13cf42088fc06f3,,1,c56e1d4ff13cf42088fc06f3
宏宇网苑,39.856211,116.387033,北京市,北京市,丰台区,北京市丰台区角门北路甲８北京市鑫华鑫星商场B1层,a3f21eeed30c785d2eb17eb2,(010)67583232,1,a3f21eeed30c785d2eb17eb2
迅捷网咖,39.862145,116.420368,北京市,北京市,丰台区,北京市丰台区赵公口6-7楼,c69a9bc68d533a46b64f5494,(010)67214647,1,c69a9bc68d533a46b64f5494
碧海网吧,39.821309,116.409115,北京市,北京市,丰台区,北京市丰台区和义东里五区9号楼,b63f5c783d80be5a0782c29d,(010)67986036,1,b63f5c783d80be5a0782c29d
丰北炫酷网吧,39.84718,116.392653,北京市,北京市,丰台区,丰台区西马厂路6号院14号楼B1楼,72b40b5658355efe631c67bd,(010)67506817,1,72b40b5658355efe631c67bd
金射手网吧,39.859212,116.392214,北京市,北京市,丰台区,马家堡东路69号,9b98999115a928114d776ebe,,1,9b98999115a928114d776ebe
金蟾玉宫网吧,39.848125,116.420261,北京市,北京市,丰台区,南顶路4号南10号楼1层,75a8b86e7a1ccee17bf79638,,1,75a8b86e7a1ccee17bf79638
网之星网吧,39.8403,116.373644,北京市,北京市,丰台区,北京市丰台区祥龙湾ktv地下1层,5638fdd1fd8fc3afc17da25e,,1,5638fdd1fd8fc3afc17da25e
盛世云海网吧,39.866125,116.413665,北京市,北京市,东城区,北京市东城区富莱茵花园12号3楼,33fbfa832db257d80af5eba8,,1,33fbfa832db257d80af5eba8
网吧,39.852149,116.365652,北京市,北京市,丰台区,北京市丰台区草桥欣园一区5号楼3层,e418ac9810d4c7eaf32d83b0,,1,e418ac9810d4c7eaf32d83b0
白龙马网吧,39.86306,116.394536,北京市,北京市,丰台区,北京市丰台区马家堡东路52号(洋桥大中电器地下一层),af230d248e56c9f27369d3ba,(010)67227288,1,af230d248e56c9f27369d3ba
兄弟汇网咖,39.845781,116.377936,北京市,北京市,丰台区,北京市丰台区马家堡西路,,,1,21c42380222018acb21e3651
兄弟联盟网咖(公益西桥店),39.845735,116.377973,北京市,北京市,丰台区,北京市丰台区马家堡西路32号院7号楼底商,4904bcc9f2db9de1fbdc85e0,(010)67589981,1,4904bcc9f2db9de1fbdc85e0
梦幻星空网咖,39.863001,116.414756,北京市,北京市,丰台区,北京市丰台区赵公口桥西马公庄八号楼一层,b6471d0f2e76285b52e5c505,,1,b6471d0f2e76285b52e5c505
夜时尚网吧棋牌,39.84719,116.392616,北京市,北京市,丰台区,马家堡东路6号院14号楼B1层,c013ea828af6b694233bf2e0,(010)67506807,1,c013ea828af6b694233bf2e0
浩天伟业网吧,39.871868,116.394509,北京市,北京市,东城区,北京市东城区西革新里112号院2号楼B1层,3aa580ec69f1b7fbf7eafc14,(010)87892727,1,3aa580ec69f1b7fbf7eafc14
三楼网咖,39.851863,116.365283,北京市,北京市,丰台区,北京市丰台区草桥东路14号楼,4b0a562dfd7e834008f5eb27,,1,4b0a562dfd7e834008f5eb27
金世纪网吧,39.868198,116.398935,北京市,北京市,丰台区,北京市丰台区西罗园一区12号楼二层,dfdde1803530992c1d1d115e,,1,dfdde1803530992c1d1d115e
璟点久隆台球网咖,39.862926,116.394008,北京市,北京市,丰台区,北京市丰台区马家堡东路洋桥大中电器B1层,a60b5f8acdababf0601c67b3,,1,1e088ed663f5874c6d476079
弘宇网吧,39.853374,116.420619,北京市,北京市,丰台区,大红门街道石榴庄光彩路慧时欣园10号楼2层,7348009e77bf6e87b6147fcd,(010)87241989,1,7348009e77bf6e87b6147fcd
尚环国际娱乐会馆 二层网吧,39.848822,116.417503,北京市,北京市,丰台区,北京市丰台区大红门光彩路蓝琴酒店(南顶村小区旁),39364d67a0d6d50d276e9813,,1,39364d67a0d6d50d276e9813
网民公社,39.847381,116.393918,北京市,北京市,丰台区,北京市丰台区马家堡东路106号新天地写字楼8层,9f2f543305a8a79640afe677,,1,9f2f543305a8a79640afe677
翔鑫阳光网城,39.846152,116.383957,北京市,北京市,丰台区,北京市丰台区角门14号院13号楼(角门南站14总站旁),,,1,f714c86c5d95ea88c909f0a6
网络休闲会所,39.821426,116.408921,北京市,北京市,丰台区,北京市丰台区南苑路116号附近,,,1,5118abf6e6d5902d9ee321fe
点到网分敛中心,39.823211,116.411473,北京市,北京市,丰台区,和义街道南苑路112号三期六号库,,,1,8ab7194f630d31e4abf0cd44
社区信息网络中心,39.845158,116.413546,北京市,北京市,丰台区,北京市丰台区大红门路5号附近,0122705c27f6da68ed74f8b0,,1,0122705c27f6da68ed74f8b0
搜酷网咖(北京宋家庄店),39.851729,116.433863,北京市,北京市,丰台区,北京市丰台区宋庄路71号,cdff0274ea6c46fca1d230a9,(010)87605032,1,cdff0274ea6c46fca1d230a9
银河世纪网吧,39.869721,116.435917,北京市,北京市,丰台区,芳群园二区12,2c0bd6c57bc3d5b342ab9aaa,(010)87670866,1,2c0bd6c57bc3d5b342ab9aaa
飞讯网咖,39.82215,116.447195,北京市,北京市,大兴区,庑殿路74号,8b90ef83d06554f0c1f1cf04,,1,8b90ef83d06554f0c1f1cf04
网福网咖(方庄南路店),39.86143,116.445018,北京市,北京市,丰台区,方庄南路68号山城辣妹子地下一层,8ff3383fd97243e9fb2213b9,,1,8ff3383fd97243e9fb2213b9
星宇网吧,39.85079,116.450927,北京市,北京市,丰台区,北京市丰台区成仪路2号,e2568d35835cd919c51e5171,,1,e2568d35835cd919c51e5171
电玩城网咖,39.851519,116.433744,北京市,北京市,丰台区,宋庄路65号附近,a1eaa6153d033b6743afe613,,1,a1eaa6153d033b6743afe613
好特·热温泉酒店-网吧,39.868955,116.441709,北京市,北京市,丰台区,北京市丰台区方庄群星路二区12号,ea18579f2e3aaceafa0cadbf,(010)67655777,1,ea18579f2e3aaceafa0cadbf
品盛网络,39.85837,116.444037,北京市,北京市,丰台区,北京市丰台区东铁匠营街道方庄南路成寿寺158号北平食府西侧灰色楼,6e8839092428188a13293554,,1,6e8839092428188a13293554
起航之星甲壳虫,39.84323,116.461733,北京市,北京市,朝阳区,北京市朝阳区南四环东路29号附近,1228b93f56dbd98b9e95debe,(010)53028187,1,1228b93f56dbd98b9e95debe
休闲网吧,39.847328,116.513056,北京市,北京市,朝阳区,武基路96号,2db8294a68af0d140289722a,,1,2db8294a68af0d140289722a
鑫咖网咖,39.828248,116.530485,北京市,北京市,大兴区,北京市大兴区三羊生活广场五层,235c055bda3b2fbbabf0cd9a,,1,235c055bda3b2fbbabf0cd9a
武夷山网络中心,39.821237,116.552713,北京市,北京市,通州区,北京市通州区台湖镇经海七路武夷公寓C158(停车场院内),69796ab86e89691b79dbd26f,13811425050,1,69796ab86e89691b79dbd26f
网吧,39.832978,116.513514,北京市,北京市,朝阳区,十八里店横街子百分百商业街,efacb8df010f108abadf8f5f,,1,efacb8df010f108abadf8f5f
点与线网咖,39.853222,116.533341,北京市,北京市,朝阳区,北京市朝阳区十八里店王村路90号,cca1a444a798c1afb6f42f43,13810832444,1,cca1a444a798c1afb6f42f43
云海阁网吧,39.836081,116.510916,北京市,北京市,朝阳区,北京市朝阳区十八里店镇阳区横街子7号,729838b98ec03507704b8700,(010)87301220,1,729838b98ec03507704b8700
志鑫上网,39.823018,116.54952,北京市,北京市,通州区,北京市通州区科创三街华联购物中心旁,84773f88d2c203cb6c476017,15141769662,1,84773f88d2c203cb6c476017
X战车,39.872174,116.501125,北京市,北京市,朝阳区,北京市朝阳区欢乐谷,494dce6e04012b36a6c75647,,1,494dce6e04012b36a6c75647
聚仁网咖,39.864928,116.536114,北京市,北京市,朝阳区,北京市朝阳区双合家园C出口,,,1,101cf4ba2baa144adbd89157
触极网吧,39.851277,116.57693,北京市,北京市,朝阳区,北京市朝阳区铂城湾食街2层,f1916885187bbdf876e5b64d,13466309668,1,f1916885187bbdf876e5b64d
东石易龙网城,39.840846,116.619288,北京市,北京市,通州区,北京市通州区胡家垡路与铺胡路交叉口东150米,ddc32804117a9ae00bccdd8b,,1,ddc32804117a9ae00bccdd8b
金泽网吧(潞西路),39.818536,116.57517,北京市,北京市,通州区,北京市通州区台湖镇光机电一体化产业基地兴光五街7号,0be6904203dfc9de6b49f313,,1,0be6904203dfc9de6b49f313
杰拉网咖(王府井店),39.922415,116.416311,北京市,北京市,东城区,北京市东城区锡拉胡同8号,101d0e9f09cd88d245e274d9,15306508953,1,858c50516d44b5495d17c33d
网鱼网咖(陶然亭店),39.885082,116.394245,北京市,北京市,西城区,北京市西城区太平街8号院朱雀门6号楼2层,,(010)57274900,1,14fcb76c665b5b7379dbd21f
碧海网咖(崇文门外大街店),39.9018,116.425699,北京市,北京市,东城区,北京市东城区崇文门外大街44号地下一层,d420e4e78460b074cf06a41b,,1,d420e4e78460b074cf06a41b
恒天阳网吧,39.880727,116.374684,北京市,北京市,西城区,北京市西城区半步桥街14号院,8d571efff5dbc2895a3ac8f8,,1,8d571efff5dbc2895a3ac8f8
金网友网吧,39.894329,116.363287,北京市,北京市,西城区,广安门内大街德源胡同8号,54f90dc92e59183b80a00ca1,,1,54f90dc92e59183b80a00ca1
网吧,39.922501,116.414848,北京市,北京市,东城区,北京市东城区万程华府酒店(皇城根遗址公园东),c73673f0d721500b3310af22,(010)65133226,1,c73673f0d721500b3310af22
汶秀网咖,39.922554,116.414813,北京市,北京市,东城区,锡拉胡同王府井阳光菜市场B1层,ddac2f406e424ae7471a3200,15811591825,1,ddac2f406e424ae7471a3200
飞翔天宇网吧,39.884471,116.373161,北京市,北京市,西城区,西城区白纸坊东街31号,cfb393fab178ed85ddee8b1d,13241498531,1,cfb393fab178ed85ddee8b1d
梦桦源网吧,39.891506,116.390452,北京市,北京市,西城区,北京市西城区虎坊路15,6d0764cb34ee8129130daac3,13911413917,1,6d0764cb34ee8129130daac3
internet coffee,39.920515,116.409516,北京市,北京市,东城区,北京市东城区南池子大街36号附近,,,1,a3f6eab1f9d8c1fcab175a8c
互联网(北京王府井银泰in88),39.922091,116.418048,北京市,北京市,东城区,王府井大街88号王府井银泰in884层,,,1,579549b210d5d624f4eafc36
时空战线网吧(崇文门店),39.906443,116.430616,北京市,北京市,东城区,北京市东城区崇文门东大街18-1号,43b7e8890cdace7358f6be1e,(010)67118299,1,43b7e8890cdace7358f6be1e
6号竞游咖,39.899241,116.444187,北京市,北京市,东城区,"北京市东城区广渠门内大街甲6-6号楼地下一层(近来相会饺子馆,庆丰包子铺,味多美等)",f952dd6e19df0cef2811d154,"15321290666,17701276856",1,a6d1676af864747df33cbafe
白夜网咖.电玩,39.903887,116.431263,北京市,北京市,东城区,西花市大街29号,856fdb974f452ed88c1a8936,,1,856fdb974f452ed88c1a8936
网咖休闲竞技,39.891908,116.483568,北京市,北京市,朝阳区,北京市朝阳区西大望路34号汉庭酒店旁,2c725a8b60efcc57b54f5474,15903355388,1,2c725a8b60efcc57b54f5474
美食广场网咖,39.909675,116.432669,北京市,北京市,东城区,北京市东城区江擦胡同,0897a24d242d7409b54f545f,,1,0897a24d242d7409b54f545f
567网咖(智慧峰店),39.892575,116.429544,北京市,北京市,东城区,体育馆西路7号楼二层,3da0404ce110436408f5eb6b,"18510227866,13681554788",1,3da0404ce110436408f5eb6b
网咖,39.920523,116.438193,北京市,北京市,东城区,北京市东城区北总布胡同甲4号,,(010)65594136,1,42210f817ef10f13a7c7564d
自游空间,39.888971,116.468777,北京市,北京市,朝阳区,南磨房镇农光里25号楼甲,e54b482e467796ad4e776e36,18518769624,1,e54b482e467796ad4e776e36
优优网吧,39.897018,116.472361,北京市,北京市,朝阳区,北京市朝阳区广渠路美联福负1楼,9da40fd42eac5c344c6d4638,(010)56210700,1,9da40fd42eac5c344c6d4638
三路网吧,39.891879,116.483565,北京市,北京市,朝阳区,北京市朝阳区西大望路34号2号,f1132379428a27d3c27da27c,15903355388,1,f1132379428a27d3c27da27c
金龙祥宇网咖,39.901477,116.441821,北京市,北京市,东城区,北京市东城区鼎新路23号1幢地下1层,6acac003cf4a90e41ef74d3a,13311320687,1,6acac003cf4a90e41ef74d3a
北京千龙网都任我游上网服务有限公司,39.925841,116.46159,北京市,北京市,朝阳区,朝外大街乙6号地下一层C座B125,1b021a079cb3ae97b34c4909,(010)59005717,1,1b021a079cb3ae97b34c4909
520台球网吧俱乐部,39.885947,116.474047,北京市,北京市,朝阳区,朝阳区武圣路农光里206楼B1楼(近农光里市场),57bfb40007443db00b69d993,,1,57bfb40007443db00b69d993
游戏厅网咖,39.899052,116.434994,北京市,北京市,东城区,广渠门内大街80号通正国际大厦B1层,71435e2d8c554d2afbf0cbab,,1,c9e855bdf40833f49322e0b0
海天网联,39.92753,116.448233,北京市,北京市,朝阳区,北京市朝阳区朝外门外大街26-14号,823ef49b17569e17a10464c2,,1,823ef49b17569e17a10464c2
网眼网咖(广渠门店),39.898915,116.435168,北京市,北京市,东城区,广渠门内大街80-4号,,,1,0f1c1c94c92b4f89e6e96538
嘉嘉网咖,39.884989,116.478867,北京市,北京市,朝阳区,北京市朝阳区武圣东里甲1号楼2层,3db69c443fc653bcad080f09,,1,3db69c443fc653bcad080f09
叩我网,39.918359,116.48228,北京市,北京市,朝阳区,北京市朝阳区光华路阳光100C座508室,,,1,6c6ea51eb704c9fb15c9055f
体坛网,39.903614,116.435504,北京市,北京市,东城区,北京市东城区东花市北里西区22号楼西段,,,1,223c475c75385eb83f9a5e54
亿兆先锋网吧,39.911543,116.432031,北京市,北京市,东城区,北京市东城区北京站西街1号世纪华联超市北京站店2楼,a0496fc8920d02c5b35c6ac2,,1,a0496fc8920d02c5b35c6ac2
牛谈互联网服务,39.895816,116.469531,北京市,北京市,朝阳区,北京市朝阳区百环青创大厦一层,3326cf352995635d364aae46,,1,3326cf352995635d364aae46
吧友网咖(百子湾店),39.905421,116.493208,北京市,北京市,朝阳区,北京市朝阳区百子湾路16百子园18号楼地下一层,c2255983da6258f8932ca3b0,(010)87770216,1,c2255983da6258f8932ca3b0
吉龙山网吧,39.917086,116.502734,北京市,北京市,朝阳区,北京市朝阳区四惠八里庄路金地·名京北门,c10843f73031a7900782c222,13601353477,1,c10843f73031a7900782c222
愿君在此咖啡廳,39.915094,116.51298,北京市,北京市,朝阳区,惠生园26,,13611246181,1,836cdcc2d53d798e6140a964
红雨网超(东四环中路辅路),39.91927,116.495924,北京市,北京市,朝阳区,北京市朝阳区甜水园东里甲1号楼,1cc64341a75cf138882fb5e1,,1,1cc64341a75cf138882fb5e1
光线通网咖(朝阳路辅路),39.921497,116.507599,北京市,北京市,朝阳区,十里堡路3号2-3层,0e64baf47ca38d31afee7add,13683281345,1,0e64baf47ca38d31afee7add
片场网,39.930891,116.55346,北京市,北京市,朝阳区,朝阳北路白家楼甲1号B-1-7号,7d3032a3eda17d47f32d831a,(010)59512033,1,7d3032a3eda17d47f32d831a
网咖,39.921437,116.507599,北京市,北京市,朝阳区,北京市朝阳区柴家街11号,ac0bee43d849c82f931fc9ac,,1,ac0bee43d849c82f931fc9ac
天路行网络购物吧全国社区连锁京072,39.92863,116.504988,北京市,北京市,朝阳区,北京市朝阳区八里庄南里8号楼,bb45b39f551d71298bb9883b,,1,bb45b39f551d71298bb9883b
互联网金融体验店,39.921313,116.501639,北京市,北京市,朝阳区,北京市朝阳区八里庄西里99号(住邦2000)2号楼1层附近,,,1,64ed8f75b6928b978733042c
E栈快递箱,39.923044,116.511452,北京市,北京市,朝阳区,十里堡东里107号楼,,,1,9b115206a16ef79e7dc87653
聚耀星空,39.90114,116.517913,北京市,北京市,朝阳区,北京市朝阳区南磨房广渠路3号竞园艺术中心27A,,,1,c9405661db4d234e0c0e6b03
来电(赛博网咖百子湾店),39.90592,116.508474,北京市,北京市,朝阳区,北京市朝阳区南磨房石门东路百子湾西里104金都心语,,,1,48c03058fae0df2c8b2fb51e
哆哆网咖,39.930413,116.617915,北京市,北京市,朝阳区,北京市朝阳区朝阳北路常营丽景园社区6号楼B1底商,,,1,af47a8e2c7119baeb35c6ae8
北五新锐网吧,39.928297,116.561906,北京市,北京市,朝阳区,朝阳北路52号,b8b2732182ad90a8eb1e9776,,1,b8b2732182ad90a8eb1e9776
网影帮,39.91683,116.573651,北京市,北京市,朝阳区,北京市朝阳区万东科技文创园15号楼406,,,1,b11bc72abd5b909594031964
一品阳光网络工作室,39.921172,116.589581,北京市,北京市,朝阳区,北京市朝阳区朝阳路建机商务楼2楼,,,1,35de7c2331462502a8059d25
红色起点网吧,39.961023,116.134392,北京市,北京市,石景山区,石门路318号,1b890a2bd9c230c0c5effba6,,1,1b890a2bd9c230c0c5effba6
和美网吧,39.960438,116.134865,北京市,北京市,石景山区,五里陀路2号,59091f69aed683731029350d,,1,59091f69aed683731029350d
爱特卡姆网吧,39.940972,116.114332,北京市,北京市,门头沟区,北京市门头沟区双峪路1号晨光饭店3层,080273c250f88fb2bbbd638b,(010)57108120,1,080273c250f88fb2bbbd638b
美希网咖(滨河路店),39.937948,116.119297,北京市,北京市,门头沟区,北京市门头沟区滨河路153-20,,,1,2075a366a43238bd9d82ea37
百合网吧,39.936567,116.203687,北京市,北京市,石景山区,北京市石景山区天宇市场3楼,14ff89fc390897a7d7851f74,(010)88931058,1,14ff89fc390897a7d7851f74
金园网吧,39.933882,116.167261,北京市,北京市,石景山区,金顶西街34号,2290615985dd7a780bccddfa,(010)88731067,1,2290615985dd7a780bccddfa
旗舰网吧,39.937857,116.190917,北京市,北京市,石景山区,北京市石景山区苹果园大街2号,c065b1daa98bb52e0c0e6b08,,1,c065b1daa98bb52e0c0e6b08
鑫领域网吧,39.936379,116.19081,北京市,北京市,石景山区,苹果园大街135号,235026b9c4dfdcd1c056ace5,(010)88733004,1,235026b9c4dfdcd1c056ace5
锐捷网络,39.944969,116.199088,北京市,北京市,石景山区,西山汇6号楼10楼,,,1,e80d330adaa8c8c3d72ce2ae
网游,39.933282,116.230906,北京市,北京市,海淀区,北京市海淀区阜石路358号附近,,,1,c3291636116f04b99c09f7da
蓝色星际,39.945202,116.193233,北京市,北京市,石景山区,石景山科技园创新园i座,,,1,5b64838c8b011244d23ce32c
E栈快递柜,39.935837,116.2235,北京市,北京市,海淀区,四季青阜石路93号院7号楼4单元,,,1,5d32a6dbc25a27303913fd3d
网咖,39.948688,116.296159,北京市,北京市,海淀区,北京市海淀区彰化路,e432ee561f73b63df5b9160d,,1,e432ee561f73b63df5b9160d
畅游我和你网吧,39.935481,116.2758,北京市,北京市,海淀区,北京市海淀区田村路甲11号,fc1b6b645d9a4fb4725e8071,(010)88621128,1,fc1b6b645d9a4fb4725e8071
锦华佳网吧,39.973728,116.254226,北京市,北京市,海淀区,闵庄南路天香颐北里17B3层,8435df89b3a51e892902e12a,18500299868,1,8435df89b3a51e892902e12a
金源在线网咖,39.967901,116.285478,北京市,北京市,海淀区,北京市海淀区老营房路烟树园小区1号楼,,,1,154374b31a5670d7e115f9e6
网罗时代网吧,39.955158,116.263157,北京市,北京市,海淀区,北京市海淀区佟家坟39号,3a1ac6e9fcba88c5f60e7714,,1,3a1ac6e9fcba88c5f60e7714
网星在线,39.934929,116.27045,北京市,北京市,海淀区,北京市海淀区田村路乐府商务大厦3层,dfea5cc9ba87104dfa0cadd0,,1,dfea5cc9ba87104dfa0cadd0
虎猫电竞(网鱼网咖第四品牌),39.934847,116.270301,北京市,北京市,海淀区,北京市海淀区永定路乙一号乐府商厦三层,beacc56a00a238b08c1a8975,(010)58976378,1,beacc56a00a238b08c1a8975
567网咖(数码部落店),39.955167,116.352343,北京市,北京市,海淀区,北京市海淀区交通大学路交大嘉园3-4号楼地下一层,f5f7f61b2f68a8d49868b429,(010)82165995,1,da3da6a51ade520dbd484274
乐态网咖(人大西门店),39.973248,116.314265,北京市,北京市,海淀区,北京市海淀区万泉河路68号紫金庄园9号楼3层,66c4300330d3b1d4b05c6a7b,(010)57419301,1,66c4300330d3b1d4b05c6a7b
白夜网啪,39.965515,116.352678,北京市,北京市,海淀区,北京市海淀区四道口路京果商厦B座2层,3a52fe4e4409007235b06c54,13520282782,1,3a52fe4e4409007235b06c54
和和网吧,39.950368,116.312532,北京市,北京市,海淀区,海淀区紫竹院路31号华澳中心地下一层,1249995751fc572c1e5800a2,(010)51906009,1,1249995751fc572c1e5800a2
MT网咖(科宇小屋店),39.934504,116.299052,北京市,北京市,海淀区,北京市海淀区西八里庄路西钓鱼台庄园商务1号楼1楼,4e4dd33523f2ac2394ec846e,13269712581,1,8e98f18c469be58c4f3a5967
明月千里网吧,39.965107,116.330204,北京市,北京市,海淀区,北京市海淀区中关村南大街甲12寰太大厦B1层,84e2035fccf74eca0e0e6b8d,,1,5a5121891cfed7bf2de67b6d
炎黄网吧,39.960616,116.329249,北京市,北京市,海淀区,北京市海淀区魏公村5号3层,09b887d60e66a954d92f28ab,(010)88572996,1,09b887d60e66a954d92f28ab
567网咖(绿色营地店),39.958043,116.354093,北京市,北京市,海淀区,北京市海淀区交大东路17号京煤大厦3层,454f127595442e94c5effba4,(010)62243652,1,454f127595442e94c5effba4
顺时网咖,39.979508,116.35488,北京市,北京市,海淀区,北京市海淀区太月园3号楼B1层,0173840c2e6682cd4302456c,(010)82059303,1,0173840c2e6682cd4302456c
白夜网咖(瑞宏嘉店),39.960488,116.325801,北京市,北京市,海淀区,北京市海淀区魏公村街1号韦伯豪家园2号楼地下一层,,,1,43a77d2c5438f21bddee8bc7
飞迪特网吧台球服务中心,39.97793,116.312869,北京市,北京市,海淀区,苏州街55号名商大厦B1层,29a4ef401e780ec9b8bd6342,,1,29a4ef401e780ec9b8bd6342
永德晖网吧,39.946163,116.307339,北京市,北京市,海淀区,北京市海淀区双紫小区东巫山烤全鱼2层,d8ee45d87adea859afcb66b1,,1,d8ee45d87adea859afcb66b1
北京易国吉通上网服务中心(银海大厦北),39.969693,116.329841,北京市,北京市,海淀区,中关村南大街10号银海大厦B1层,0a46dc0f1096d747316212b2,"(010)68948085,(010)62115771",1,0a46dc0f1096d747316212b2
网与咖网吧咖啡,39.934187,116.329078,北京市,北京市,海淀区,北京市海淀区增光路35号2层,24242c8c2527286fd12dd6d4,,1,24242c8c2527286fd12dd6d4
泰丰宇网吧,39.972733,116.336582,北京市,北京市,海淀区,北京市海淀区北三环西路甲30号双天大厦1层,982e8b55fe5d845308f5ebc7,,1,982e8b55fe5d845308f5ebc7
多奇特网咖,39.975312,116.327324,北京市,北京市,海淀区,北京市海淀区中关村大街42-7号,9809c20d79990ba7e311039a,,1,9809c20d79990ba7e311039a
兄弟联盟第九家分店友联网咖,39.934732,116.351156,北京市,北京市,西城区,展览馆路乙26号B1层,ea6bbd08570fb578f4b91695,,1,ea6bbd08570fb578f4b91695
和永祥上网服务中心,39.97972,116.351491,北京市,北京市,海淀区,北京市海淀区罗庄西里13号楼北京东达物业写字楼,9527cb2d66898b1e4bfc8df1,(010)82350718,1,d6df91c121c20373f6b916ab
金满城网吧,39.963571,116.343542,北京市,北京市,海淀区,学院南路51号,48d65e36aee2d7870a1cc77f,,1,48d65e36aee2d7870a1cc77f
迈步者网咖,39.966702,116.351833,北京市,北京市,海淀区,海淀区四道口路京果商厦A座3层319号,b5d1f8f201dd5e8781a12eb5,(010)62133078,1,b5d1f8f201dd5e8781a12eb5
逸代风潮网咖,39.943,116.311046,北京市,北京市,海淀区,北洼路28号金红都商厦2层,413ba17a7db5c6056140a991,13439239293,1,413ba17a7db5c6056140a991
城市网络,39.982993,116.319545,北京市,北京市,海淀区,榆树林一号办公楼,,,1,99e299a8da9a57c029fc48ca
网上游网咖,39.961951,116.361187,北京市,北京市,海淀区,北京市海淀区西直门北大街1号,0f48dfb28762be50e812e4cb,(010)82214788,1,0f48dfb28762be50e812e4cb
海联在线网吧,39.967915,116.305096,北京市,北京市,海淀区,北京市海淀区万柳中路29号,d7dd707bf0ec559afbdc8536,,1,d7dd707bf0ec559afbdc8536
铁骑网城,39.971739,116.347954,北京市,北京市,海淀区,北京市海淀区北三环西路甲18号,b292d4854ecb85dfc61b7599,(010)62136718,1,b292d4854ecb85dfc61b7599
网络会所,39.971979,116.348027,北京市,北京市,海淀区,北京市北三环西路甲18号大钟寺中坤广场C座1层,69f70f0301d0b48aa10464df,,1,869c3f125b107b6be812e483
易游时代,39.979125,116.311897,北京市,北京市,海淀区,苏州街盈智大厦902,,,1,d51ab157e48edf154e776ea9
泡泡网,39.985702,116.318284,北京市,北京市,海淀区,丹棱街3中国电子大厦10层1001-11层1108,d359bd9003f7c0bda5da3921,,1,d359bd9003f7c0bda5da3921
来电共享充电宝(华宇时尚购物中心店),39.97131,116.329797,北京市,北京市,海淀区,北京市海淀区中关村南大街2号华宇时尚购物中心F4,,,1,7fd5221a5ed60aef725e80af
永德兴网吧,39.979719,116.331563,北京市,北京市,海淀区,知春里甲23号2层(知春公园对面),,"(010)62534079,18610788689",1,56bb1f14e5f70973a21de9de
千龙网吧,39.972652,116.314544,北京市,北京市,海淀区,北京市海淀区万泉河路68号紫金大厦3层千龙网吧,,,1,7aa740a9c424a392acee7a1e
微播网络,39.965336,116.330186,北京市,北京市,海淀区,环太大厦10楼,,,1,84d2d13d25c2c3f0f1193701
中证互联,39.982689,116.31739,北京市,北京市,海淀区,北京市海淀区海淀南路19号时代网络大厦二层2015,,,1,f68b142479b088ce3010af2e
城市轨道交通创新网络,39.961231,116.346009,北京市,北京市,海淀区,北京市海淀区大柳树路2号院15附近,,,1,bbdf97771d58626eca1b951a
心言手语网咖,39.987655,116.341475,北京市,北京市,海淀区,北京市海淀区中关村南四街323号楼B1层,,17731269209,1,22981692786151f2dbd8911e
将军部落网吧,40.040544,116.215567,北京市,北京市,海淀区,北京市海淀区温泉镇航材大道环山村小区,f4430ca9693cd5ddb11e3676,,1,f4430ca9693cd5ddb11e3676
梦缘网吧(马连洼北路),40.039898,116.293686,北京市,北京市,海淀区,北京市海淀区东居物业写字楼2层,93bc197afedc8ae188db73d3,(010)62985581,1,93bc197afedc8ae188db73d3
翰易佳网吧,40.030329,116.285322,北京市,北京市,海淀区,北京市海淀区圆明园西路3号,00a64992e4ae512c0bccdd92,(010)62813738,1,00a64992e4ae512c0bccdd92
万方世纪网吧,40.013068,116.292917,北京市,北京市,海淀区,北京市海淀区燕欣宾馆地下1层,c7ceb15ba5dc907d5d0d027b,,1,c7ceb15ba5dc907d5d0d027b
宇航网吧(大有庄大街),40.013348,116.290732,北京市,北京市,海淀区,骚子营200号,4057a56ba1996cc0b1077d81,,1,4057a56ba1996cc0b1077d81
福圣森网吧,40.029949,116.276243,北京市,北京市,海淀区,北京市海淀区马连洼街道龙背村路天秀花园古月园旁,1dcc200e57069aa1c7f025ae,(010)62819582,1,1dcc200e57069aa1c7f025ae
高佳静网吧,40.041876,116.25299,北京市,北京市,海淀区,北京市海淀区西北旺镇韩家川村韩家川路55号,e09e92386ae17c3e9b68b422,(010)62400008,1,e09e92386ae17c3e9b68b422
诗画电竞网咖,40.012436,116.270478,北京市,北京市,海淀区,北京市海淀区香山路55号,5af35f740284fbff22f0177b,,1,5af35f740284fbff22f0177b
白夜网咖(五道口店),39.99793,116.340081,北京市,北京市,海淀区,海淀区五道口华清嘉园7号楼商务会馆B1,b948c002b7b6d938fa42b21f,,1,b948c002b7b6d938fa42b21f
NASA网咖,39.993298,116.341316,北京市,北京市,海淀区,北京市海淀区中关村路乙12号,,13161297337,1,d5c311248678cb8ec4f50d0f
白夜网吧,40.006101,116.35222,北京市,北京市,海淀区,北京市海淀区东王庄小区10号楼海旭商贸中心2层,b645dad3de5a227459bbbc60,(010)82385411,1,b645dad3de5a227459bbbc60
网酷网吧,40.040476,116.318645,北京市,北京市,海淀区,信息路甲28科实大厦C座B1层,a31935cf4fc6d4509122e018,,1,a31935cf4fc6d4509122e018
新华创联网咖,39.998825,116.358952,北京市,北京市,海淀区,北京市海淀区成府路20-3号,9b8df1489d91516cf4eafc5c,(010)62318609,1,9b8df1489d91516cf4eafc5c
新天宇网咖,40.043131,116.338872,北京市,北京市,海淀区,北京市海淀区小营西路25号,a1418eb4fcb20466eae582e5,(010)62912867,1,a1418eb4fcb20466eae582e5
彩虹网吧(万泉河路辅路店),40.002384,116.302027,北京市,北京市,海淀区,北京市海淀区西苑庆丰包子铺(西苑店)西南90米,a1ed173d0ab36322eb12e419,,1,a1ed173d0ab36322eb12e419
婷祥网咖,40.030635,116.305758,北京市,北京市,海淀区,沙河镇农大南路88号院泰来大厦二层,b2df3797a66fa83fc8213de1,,1,b2df3797a66fa83fc8213de1
恒讯网吧,40.026515,116.322151,北京市,北京市,海淀区,海淀体院西路甲2号,7bf3005c0d79421c26d2bb73,(010)82783216,1,7bf3005c0d79421c26d2bb73
月牙湾网城,40.036764,116.348284,北京市,北京市,海淀区,北京市海淀区清河毛纺路7号商业楼3层,565cb378b07435d8bda2402e,(010)62914373,1,565cb378b07435d8bda2402e
讯通网吧,40.008778,116.322029,北京市,北京市,海淀区,北京市海淀区水磨中街新区13号,d5692d48ad89c68d46e274c2,(010)62619813,1,d5692d48ad89c68d46e274c2
广华明网咖,40.036253,116.361152,北京市,北京市,海淀区,北京市海淀区清河街道龙岗路51号院7号楼二层,,,1,f0dfa95e056390267702690e
网府网咖,40.026008,116.321008,北京市,北京市,海淀区,北京市海淀区体院西路甲2号F座101室,bba87388f5b257b9bda822a9,(010)82782929,1,bba87388f5b257b9bda822a9
斗鱼网络,39.997661,116.345673,北京市,北京市,海淀区,北京市海淀区成府路28号优盛大厦C座18层,,,1,2817dcecd36b9090e6e9651d
京城网事连锁网咖,40.026341,116.321896,北京市,北京市,海淀区,体院西路甲2号中关村民营科技创业园附近,36b2ebbc5656a2a50f0e6bbc,,1,36b2ebbc5656a2a50f0e6bbc
吉祥网城,40.03073,116.306092,北京市,北京市,海淀区,农大南路泰来商务大厦2楼,,,1,0b007e12f227be179a0050d5
北京市五道口工人俱乐部,39.999064,116.346027,北京市,北京市,海淀区,中关村街道成府路23号,a9a87b1b834dfc7f57bfff23,(010)62345673,1,a9a87b1b834dfc7f57bfff23
心言手语上网服务中心,39.989956,116.313132,北京市,北京市,海淀区,北京市海淀区海淀西大街39号海淀图书城步行街48号B1楼,1a35a84ed8a43f1f4bcc4a34,(010)82612563,1,1a35a84ed8a43f1f4bcc4a34
泰丰宇网咖(学院路店),40.004034,116.359007,北京市,北京市,海淀区,北京市海淀区学院路9号学府大厦三层,,13701089279,1,2be3161c443e954b79dbd205
艺海网咖,40.006026,116.357046,北京市,北京市,海淀区,北京市海淀区清华东路16号,4eeb9288c4393643047ce8d8,,1,4eeb9288c4393643047ce8d8
投融网(北京地金电子商务有限公司),39.993624,116.321892,北京市,北京市,海淀区,北京市海淀区中关村北大街燕园资源大厦528室,9fe2720f70b8468f2cb9081d,,1,9fe2720f70b8468f2cb9081d
优互网吧(永大路),40.081975,116.229735,北京市,北京市,海淀区,北京市海淀区西北旺永丰屯北100米(永大路北),2505d4b1b1e36ef0bbdf8f79,,1,2505d4b1b1e36ef0bbdf8f79
天光日新网吧,40.046308,116.196282,北京市,北京市,海淀区,温泉镇杨家庄温泉路与白家疃东路交口(近百福园家常菜),ee93e090a9664e1481288ae7,,1,ee93e090a9664e1481288ae7
随竞缘网吧,40.080328,116.226404,北京市,北京市,海淀区,西北旺西北旺镇永丰屯村,8640ff5faa8b76f7734b87a0,,1,8640ff5faa8b76f7734b87a0
网御星云,40.054957,116.294893,北京市,北京市,海淀区,东北旺西路8号中关村软件园21号楼2层,,(010)56633333,1,418a502b9e5ecc16c03644b6
同心网咖,40.096838,116.310474,北京市,北京市,昌平区,北京市昌平区北农路5号,7c06ddc43920da5e213bf275,,1,7c06ddc43920da5e213bf275
MT网咖,40.057033,116.336989,北京市,北京市,海淀区,北京市海淀区安宁庄后街北1号维海纳酒店2层,1d478e36f68d7e640782c29f,,1,1d478e36f68d7e640782c29f
龙腾天地网吧,40.084768,116.356307,北京市,北京市,昌平区,北京市昌平区回龙观龙跃苑二层一号商业二层,82bf180d9a85e8a759bbbc77,15712951896,1,82bf180d9a85e8a759bbbc77
接触时代网咖(龙旗广场店),40.072005,116.353605,北京市,北京市,昌平区,北京市昌平区回龙观黄平路泰华龙旗广场1号楼下沉广场院内,74c0da044f3fd63328201adf,13691266737,1,74c0da044f3fd63328201adf
超兴速网城,40.087281,116.328322,北京市,北京市,昌平区,北京市昌平区育知西路回龙观风雅园二区1层(三合庄小区东门对面),289ee4fd6f0a410df603b85d,(010)81717874,1,289ee4fd6f0a410df603b85d
北京瑞得在线金色阳光上网休闲会馆清河店,40.045751,116.339924,北京市,北京市,海淀区,清河三街72号,e268eaba84b2f12d9122e0ff,(010)62913460,1,e268eaba84b2f12d9122e0ff
接触时代网咖(东亚上北店),40.086911,116.345846,北京市,北京市,昌平区,北京市昌平区西大街9号院-18-6,a612977e02f27a986c3e1b0c,15711088389,1,a612977e02f27a986c3e1b0c
瞳驰岛网吧,40.080537,116.308694,北京市,北京市,昌平区,北京市昌平区二拨子新村南门,d52e839a9c91659debe58276,13701167916,1,d52e839a9c91659debe58276
接触时代电竞馆,40.093973,116.350695,北京市,北京市,昌平区,北京市昌平区文华路龙回苑28号楼,,13263367558,1,a8572b67525e57b7c7f025c5
567网咖(黄土坡店),40.057527,116.34445,北京市,北京市,海淀区,北京市海淀区西三旗悦秀路78号楼南楼,6c14b351ee36a4ae28201a50,"(010)58425505,(010)56242577",1,6c14b351ee36a4ae28201a50
网咖,40.094763,116.355828,北京市,北京市,昌平区,北京市昌平区文华东路,1e0118238ca69de443024580,(010)81743818,1,1e0118238ca69de443024580
网州网咖,40.090444,116.334639,北京市,北京市,昌平区,北京市昌平区回龙观清河中心站综合业务楼3层,f4c7655f887c253388f15d2c,,1,f4c7655f887c253388f15d2c
科海波网吧,40.063512,116.337432,北京市,北京市,昌平区,北京市昌平区回龙观西三旗建材城西路87号院c座地下1层,bb7d215c95d305ea61685872,13716259023,1,bb7d215c95d305ea61685872
万虎网络,40.080527,116.323367,北京市,北京市,昌平区,北京市昌平区回龙观西大街115龙冠大厦4层,,,1,f232dff1226f03ff3813fdd9
借贷撮合网,40.073409,116.341017,北京市,北京市,昌平区,北京市昌平区新龙城40号楼6单元101,7a433d1ce208ca8bad080f46,,1,7a433d1ce208ca8bad080f46
天宇网咖,40.094633,116.355893,北京市,北京市,昌平区,回龙观田园风光雅苑小区商业楼2层,20b2639afe8baf17d8eced01,,1,20b2639afe8baf17d8eced01
点通天地网吧,40.103036,116.125765,北京市,北京市,海淀区,北京市海淀区苏家坨艺术传媒职业学院南门对面,,13120085070,1,784f033d4cc5925b1c389413
网吧,40.143562,116.148723,北京市,北京市,昌平区,商业街路南临18号,,,1,06cd8f95663559b68505bfe4
艺苑立程网吧,40.105495,116.221426,北京市,北京市,海淀区,上庄路30号,e086ae503ee31a9482a12ee0,,1,e086ae503ee31a9482a12ee0
长空网咖,40.130369,116.274752,北京市,北京市,昌平区,沙河镇345车站邮政局对面,225d1f029d827a4826d2bbd0,,1,225d1f029d827a4826d2bbd0
台球新体验网咖,40.126941,116.257537,北京市,北京市,昌平区,北京市昌平区沙阳路18号,84e3604e6dd055c403ec0136,18713772701,1,84e3604e6dd055c403ec0136
ST网咖(暂停营业),40.105784,116.294553,北京市,北京市,昌平区,北京市昌平区,,,1,3c17c6a9782f562c22f01728
华宽网咖,40.153014,116.298712,北京市,北京市,昌平区,北京市昌平区大学城南于辛庄村新庄园大酒店对面,,,1,74a9be33218b981ecafa5f38
创迪天成网络会馆,40.15256,116.298431,北京市,北京市,昌平区,北京市昌平区沙河丰善百沙路便宜居快捷酒店,7040e10972fd37c2bfa82214,,1,7040e10972fd37c2bfa82214
天河网吧,40.112553,116.327644,北京市,北京市,昌平区,七小路与七里渠南工业园路交叉口东北100米,,,1,e9fc58a8a098f23c46e274a9
民嘉利鑫网吧,39.945757,116.370332,北京市,北京市,西城区,北京市西城区西内大街甲67号,,(010)66184672,1,9da77c74b0960b32cac3dbb3
魔力水晶网吧(地安门外大街),39.942092,116.402769,北京市,北京市,西城区,北京市西城区地安门外大街128号,a840ca1e80911610b23c81c4,,1,a840ca1e80911610b23c81c4
战神电子竞技场,39.932421,116.423607,北京市,北京市,东城区,北京市东城区东四北大街485号,dac3bf33692d8fbc5d17c309,13693023129,1,dac3bf33692d8fbc5d17c309
北京盛大友联网吧,39.976635,116.390278,北京市,北京市,西城区,裕中西里34-12,83ed8d1e94201968c16c14d0,(010)62374856,1,83ed8d1e94201968c16c14d0
翔天畅海网咖,39.973344,116.374957,北京市,北京市,海淀区,北三环中路32号超市发西侧2层(北太平桥西路南),8fb09d7128db314a1df74d3e,(010)62003866,1,8fb09d7128db314a1df74d3e
网聚网吧(东四北大街),39.93301,116.423593,北京市,北京市,东城区,北京市东城区东四北大街449号(东四地铁口东城区政府南锣鼓巷),4a0a645eb7bf11369cec2b9f,,1,4a0a645eb7bf11369cec2b9f
枫人院网络俱乐部,39.942027,116.423655,北京市,北京市,东城区,北京市东城区东四北大街126号2层,8f6828edd69656ddc91b958c,18513659500,1,8f6828edd69656ddc91b958c
异彩网吧,39.972728,116.391853,北京市,北京市,西城区,北京市西城区黄寺大街23-94号,,15011157180,1,c1d0c8f01da5a1d522026240
温莎堡网咖,39.949612,116.37904,北京市,北京市,西城区,北京市西城区新街口北大街78号2层,,15810488160,1,7d4254af85dc330af32d8368
网友会,39.944098,116.423556,北京市,北京市,东城区,北京市东城区东四北大街,d6be24f4314f96f9cb213d00,,1,d6be24f4314f96f9cb213d00
松杰网吧,39.940429,116.41545,北京市,北京市,东城区,北京市东城区交道口南大街140号,92b806d237c972e778b55c87,(010)84036652,1,92b806d237c972e778b55c87
护国寺网吧,39.94136,116.382647,北京市,北京市,西城区,护国寺街73号,,(010)83283524,1,5f8a01b9b8f26c329fec2b39
艺苑冲浪网吧,39.986122,116.383708,北京市,北京市,海淀区,北京市海淀区牡丹园北里甲2号,9ee7cc7880e74d6917c90583,,1,9ee7cc7880e74d6917c90583
103网吧,39.978265,116.371831,北京市,北京市,海淀区,北京市海淀区花园路甲13号院-7号,16f477d6dfcbb9042fb908af,,1,16f477d6dfcbb9042fb908af
指间写意(东四店),39.942323,116.423638,北京市,北京市,东城区,东四北大街92号,4eca6f1b42c32efe932ca33a,13146009268,1,4eca6f1b42c32efe932ca33a
诚泰网吧,39.936132,116.423853,北京市,北京市,东城区,东四北大街320-1号,5e6b38dfdca047f37369d34f,,1,5e6b38dfdca047f37369d34f
网咖,39.963135,116.36492,北京市,北京市,海淀区,枫蓝国际购物中心北京市海淀区西直门北大街32号B1,33d3296fa60ba5ed3310afda,,1,33d3296fa60ba5ed3310afda
大唐网络,39.975016,116.37765,北京市,北京市,海淀区,北京市海淀区北太平庄路18号城建大厦c座,54683f2ecc59b49b3310af76,,1,54683f2ecc59b49b3310af76
海龟网咖欢乐海洋,39.931993,116.419734,北京市,北京市,东城区,隆福寺街99号金隆基大厦地下一层,5c2af102cd1768b43904b115,,1,c17deb3787d35dae901fc9d7
北京建翔花园上网服务有限公司,39.978325,116.371888,北京市,北京市,海淀区,北京市海淀区花园路甲13号庚坊国际写字楼地下一层103室,6ee0102049316af653e5c5be,"(010)82257382,13661115063",1,6ee0102049316af653e5c5be
v电影网,39.945672,116.412947,北京市,北京市,东城区,北京市东城区菊儿胡同7号北京一轻研究所C座2-3层,668f5e224811ddb0d3ff2386,(010)82051889,1,668f5e224811ddb0d3ff2386
网鱼网咖(麦子店街店),39.949736,116.475268,北京市,北京市,朝阳区,朝阳区麦子店街9号楼2楼,,18210930506,1,42b6a26379f2b5ce40ab9ac2
福鑫网吧,39.940112,116.445627,北京市,北京市,东城区,东城区新中西里巨石大夏b1层,21ba47eb77dbf2ba28b97cc8,,1,21ba47eb77dbf2ba28b97cc8
网上家园网咖,39.949409,116.446774,北京市,北京市,东城区,北京市东城区察慈小区15号楼2楼,ee2b5ff2df0cbaffa80dd847,(010)64637636,1,ee2b5ff2df0cbaffa80dd847
人来人往,39.94694,116.430302,北京市,北京市,东城区,北京市东城区东直门内大街176,39b0bab55a80d668c51e5157,,1,39b0bab55a80d668c51e5157
魔兽世界,39.94481,116.489294,北京市,北京市,朝阳区,北京市朝阳区朝阳公园南路1号朝阳公园内,defb384a93a2a5d30ab93a31,,1,defb384a93a2a5d30ab93a31
泛阿网络,39.987057,116.430169,北京市,北京市,朝阳区,惠新西街11号紫光发展大厦A座19层,,,1,c36ab6eb316ca51304026fe4
嘉华盛世,39.936388,116.487497,北京市,北京市,朝阳区,北京市朝阳区六里屯中街17号,cbcef53d6aecfa92c5f02546,,1,cbcef53d6aecfa92c5f02546
任我游网咖(将台店),39.977521,116.495218,北京市,北京市,朝阳区,将台西路18号(皮革大厦中国邮政院里一层),420ea61099b01d993ce23188,,1,420ea61099b01d993ce23188
热点网咖,39.965751,116.504422,北京市,北京市,朝阳区,南十里居41号泰华滨河苑B1层,67350f80e06c22cff4e73bde,(010)58293699,1,67350f80e06c22cff4e73bde
优优网咖,39.966243,116.497839,北京市,北京市,朝阳区,北京市朝阳区酒仙桥南路亮马水晶9号院4号楼,,15600005228,1,951c241b315440ff46572633
北网网咖(朝阳店),39.935219,116.511491,北京市,北京市,朝阳区,十里堡1-2号,,,1,198be0a3a367017372455b5d
闽凤兴网吧,39.980609,116.496026,北京市,北京市,朝阳区,朝阳区酒仙桥路21号2层,a23adbfe39c0f112715e8072,15901553137,1,a23adbfe39c0f112715e8072
北京易谋上网服务有限公司,39.936987,116.511027,北京市,北京市,朝阳区,十里堡北区炫特嘉园13号2层201,bdd29b64a00597d8e6e96552,,1,bdd29b64a00597d8e6e96552
兄弟网缘网吧,39.966212,116.49788,北京市,北京市,朝阳区,酒仙桥南路9号院4号楼2层,4f763aab5e86c389cae33cd4,15600005228,1,4f763aab5e86c389cae33cd4
前锦网络,39.985856,116.496966,北京市,北京市,朝阳区,北京市朝阳区酒仙桥路甲10号星城国际大厦C座20层,,,1,17f8816a477321078bb988fd
阳光新境界上网服务有限公司,39.973847,116.495882,北京市,北京市,朝阳区,酒仙桥路庚21号2层,6f215b7ac4c033ca17c8f62a,13121618176,1,6f215b7ac4c033ca17c8f62a
古得奇圣网咖,39.934963,116.606432,北京市,北京市,朝阳区,北京市朝阳区常惠路4号楼地下1层,3ca445e855682ba202294fa9,(010)85303661,1,3ca445e855682ba202294fa9
梦瑞空间网咖,39.95767,116.562723,北京市,北京市,朝阳区,北京市朝阳区康各庄路朝新嘉园东里六区1号楼3层312号,24acc8f5d73862b8abf0cdfa,(010)65757027,1,24acc8f5d73862b8abf0cdfa
网逸轩网吧,39.957688,116.563921,北京市,北京市,朝阳区,北京市朝阳区康各庄路驹子房路欢乐牧人3楼(东坝店),b3c21edb07ca247317948e1b,(010)65798941,1,b3c21edb07ca247317948e1b
优优网咖台球棋牌,39.997047,116.3901,北京市,北京市,朝阳区,北京市朝阳区安翔里25,28e700f1bbca7500085cb3b3,(010)64840600,1,28e700f1bbca7500085cb3b3
蜘蛛客网咖,39.996167,116.372118,北京市,北京市,海淀区,志新西路15号(科技大学东门对面),12a6d1be8e3647808e7727bc,(010)82326668,1,12a6d1be8e3647808e7727bc
文亮网吧(大屯路店),40.009466,116.422803,北京市,北京市,朝阳区,朝阳区北苑路169号奥亚酒店B1楼,ed9429eb73d93332a7c7567e,,1,ed9429eb73d93332a7c7567e
大都网咖(K酷时尚广场店),40.039367,116.426024,北京市,北京市,朝阳区,北京市朝阳区北苑路42号K酷时尚广场F3,0b37b12bb71278327bf7968c,,1,0b37b12bb71278327bf7968c
流体网络,40.037214,116.42346,北京市,北京市,朝阳区,北京市朝阳区北辰新纪元北苑路甲13号院2号楼14层,,,1,f94fc075c7e7ca004e554732
MK网络战场,39.988466,116.397508,北京市,北京市,朝阳区,北京市朝阳区民族园路2号,,15810258025,1,555d06d7b928da35a7c756f5
静安顺通网吧,40.028877,116.483272,北京市,北京市,朝阳区,来广营东路甲1号,7947434d484ea35838221c20,,1,7947434d484ea35838221c20
北京友缘在线网络科技有限责任公司,40.011716,116.435937,北京市,北京市,朝阳区,北京市朝阳区北苑路乙108号北美国际商务中心C1座,3d69a5c8b60d5229bea240a5,(010)57643006,1,3d69a5c8b60d5229bea240a5
熊猫电竞(望京店),39.996353,116.490181,北京市,北京市,朝阳区,望京街9号望京国际商业中心A座B1层,,(010)56226052,1,4861783ed72e751c901fc96d
驭缘网络,40.002815,116.487353,北京市,北京市,朝阳区,望京街望京SOHO塔1-C座1507,,,1,4aeaddcbf9cc5e81616858c9
真相网络,40.018793,116.486062,北京市,北京市,朝阳区,北京市朝阳区望京博泰嘉华大厦504,ad70c918b38424d44151c010,,1,ad70c918b38424d44151c010
来电共享充电宝(凯德MALL店),39.998838,116.475045,北京市,北京市,朝阳区,北京市朝阳区北京市朝阳区广顺北大街33号凯德MALLB1,,,1,fc6e2a85f270877190114ca3
搜门网,40.039308,116.432226,北京市,北京市,朝阳区,北京市朝阳区红军营南路15号瑞普大厦c座701,4dc146923d9fc88e3fe231fa,,1,4dc146923d9fc88e3fe231fa
酷玩网咖(宏泰西街),40.007772,116.475472,北京市,北京市,朝阳区,望京西园222号星源国际HBT文化会所B座,,,1,961585f86a203996293a9f5d
北电网络中国公司,40.013096,116.496655,北京市,北京市,朝阳区,望京东路1号院-1号楼,215625782aeda3af4e2fdf97,,1,215625782aeda3af4e2fdf97
浩月网咖(回龙观东大街店),40.087247,116.368166,北京市,北京市,昌平区,昌平区回龙观东大街1号楼04号B1楼上岛咖啡楼下(上岛咖啡和速八酒店),ae4f5ce0fa70eb162ab97c0a,"15910710272,15801398818",1,f2d056dca72b8380ed74f8eb
昊易奇网吧,40.083235,116.375742,北京市,北京市,昌平区,北京市昌平区霍营华龙苑中里中区(黄平路东),7ab3ede2e31e7208d1f49e24,,1,7ab3ede2e31e7208d1f49e24
银海月光网吧,40.068647,116.423199,北京市,北京市,昌平区,北京市昌平区天通苑五区三楼,c27443aa04506a407ec87656,,1,c27443aa04506a407ec87656
天宇行网吧,40.080844,116.415909,北京市,北京市,昌平区,北京市昌平区太平庄中二街天通尾货3层,d782b0a81a08e8ba0b1cc730,"15010225988,13717675284",1,d782b0a81a08e8ba0b1cc730
千龙网咖(北京汉章针刀医院西),40.085555,116.416711,北京市,北京市,昌平区,天通西苑三区26号楼20-101号2-3层,,,1,a309a3d227ca74ee5a10930f
凯锐网吧,40.066731,116.426162,北京市,北京市,昌平区,北京市昌平区东小口镇天通苑老三区惠民网超市二层,,,1,a635fb2b3bb05f0e9a0050ab
瑞得在线世纪飞速网吧,40.08813,116.406015,北京市,北京市,昌平区,北京市昌平区九台路鑫源如家公寓旁,36ba4ab6d3ea8a419cf7790b,13466586427,1,36ba4ab6d3ea8a419cf7790b
东三旗旧货市场网络部,40.098291,116.426642,北京市,北京市,昌平区,亚运村汽车交易市场C区01/02正西方向84米,17961d58bf35dafcd22dd670,,1,17961d58bf35dafcd22dd670
6Cspace共享空间(立水桥店),40.053323,116.416477,北京市,北京市,朝阳区,立水桥明天第一城8号院3号楼20-F1-A09室,,,1,9cb92feacf2cbeadb65f1e32
万城网咖,40.082742,116.38545,北京市,北京市,昌平区,北京市昌平区霍营街417号紫金新干线四区3号楼二楼,,,1,101d831fac3d6ad35b109378
万成网景网咖,40.083717,116.385259,北京市,北京市,昌平区,北京市昌平区建材城东路紫金新干线四区3号楼2层,,(010)60780018,1,9b251bbf83fd7b2196f08c98
赛博空间,40.068172,116.425948,北京市,北京市,昌平区,北京市昌平区天通苑一区8,745d260e016eda4bf02d83c5,(010)84824623,1,745d260e016eda4bf02d83c5
冰河谷网咖(国泰百货店),40.079426,116.442032,北京市,北京市,昌平区,北京市昌平区天通东苑三区2号国泰百货F1,9cc660d60c9ce3f10b1cc732,,1,9cc660d60c9ce3f10b1cc732
天才龙上网服务,40.090254,116.574808,北京市,北京市,顺义区,北京市顺义区天柱东路天馨公寓大红果,80b107f21df408fb1b11d590,,1,80b107f21df408fb1b11d590
免费上网体验区(北京首都国际机场2号航站楼),40.088801,116.600563,北京市,北京市,朝阳区,北京市朝阳区机场西路北京首都国际机场2号航站楼F2层,,,1,21aeec264255161c6cc02c49
国货航网络,40.070434,116.567788,北京市,北京市,顺义区,天柱路29号,6da09518271bb7e72a02e1b9,,1,6da09518271bb7e72a02e1b9
隆轩网咖台球,40.053252,116.601434,北京市,北京市,朝阳区,燕翔东路8号2楼,23ea865d2177db06aecb66ce,,1,23ea865d2177db06aecb66ce
怪兽充电(指间缘网吧首商步行街),40.053465,116.601511,北京市,北京市,朝阳区,北京市朝阳区机场南路3号首商步行街3层,,,1,b9126fae7492bc9d84330491
北京市残疾人免费上网点,40.053501,116.604743,北京市,北京市,朝阳区,燕翔东里40,d3e7e09367d88e1041d63ef5,,1,d3e7e09367d88e1041d63ef5
天地飞扬网吧,40.106282,116.37878,北京市,北京市,昌平区,北京市昌平区北七家平西府大街179号,9a0b166bf22a088b5fbe8665,18910203645,1,9a0b166bf22a088b5fbe8665
科海方圆网城(无分店),40.134785,116.410184,北京市,北京市,昌平区,北京市昌平区东沙各庄村苏果超市对面,f1143d802cfd2d9ac056ac86,,1,f1143d802cfd2d9ac056ac86
同合众鑫网咖(沙河店),40.121585,116.377679,北京市,北京市,昌平区,定泗路与苍龙街交叉口西150米,23148d1806f24ca9223bf26d,,1,23148d1806f24ca9223bf26d
网咖,40.13508,116.416389,北京市,北京市,昌平区,东北路与立汤路交叉口东100米,20df94922f9f5977b9df8fda,,1,20df94922f9f5977b9df8fda
网咖,40.123763,116.420126,北京市,北京市,昌平区,北京市昌平区定泗路,,,1,b0e994b8bc0176ef97ec84bf
好网络,40.114402,116.37975,北京市,北京市,昌平区,北京市昌平区宏福大道,,,1,83108e13c0f23ae92dfaa7a2
恒通网咖,40.123216,116.439362,北京市,北京市,昌平区,北京市昌平区七星路,,,1,91d90313a3594c8e84154131
联速网络,40.112543,116.429955,北京市,北京市,昌平区,北七家镇北清路名佳花园1区保安楼二楼,7a788029d80faf7d7c29bdb2,15201022053,1,7a788029d80faf7d7c29bdb2
米可网咖,40.104957,116.549664,北京市,北京市,顺义区,北京市顺义区裕民大街32号院1号,,(010)69458286,1,9e9cfb68cd9fff527ec87665
网吧,40.104121,116.501815,北京市,北京市,顺义区,北京市顺义区中心街15号,,,1,d9bf57d4e5dfff2fb6f42f1e
星辰电竞Club网咖,40.113829,116.562591,北京市,北京市,顺义区,后沙峪镇双峪东区丁一号楼天洋国际大厦4层,,15652117986,1,e37862e14b60a906d3ff2386
金络之星网吧,40.141307,116.575731,北京市,北京市,顺义区,北京市顺义区高丽营镇东马各庄村隆华超市二楼,,15712816047,1,35f03096e0a5be8f8d1a891d
心语网吧,40.106026,116.56945,北京市,北京市,顺义区,北京市顺义区铁十字路24号,cdbd61f02ebabb2b990050d7,,1,cdbd61f02ebabb2b990050d7
蓝天网络会所(张西路),40.152608,116.568513,北京市,北京市,顺义区,北京市顺义区顺沙路世纪华联购物中心,2ba02fb576e94820d8eced31,,1,2ba02fb576e94820d8eced31
钻石之星网吧,40.10611,116.569223,北京市,北京市,顺义区,北京市顺义区天竺路撞8台球旁,19553f79b6ecd4f6b6f42f94,18310213983,1,19553f79b6ecd4f6b6f42f94
钻石网络会馆(铁兴西街),40.108601,116.574503,北京市,北京市,顺义区,北京市顺义区后沙峪铁匠营新村,,,1,17782f86527d8515902ca305
网咖,40.141414,116.575801,北京市,北京市,顺义区,东湖北街809乡附近,,,1,980443e3985912de82288ad0
