name,lat,lng,adderss,street_id,telephone,detail,uid
博安消防,39.843323,116.275736,花乡看丹路798号鹤童慈善老人院对面楼,ea0c46885cb6deb4260bd018,,1,ea0c46885cb6deb4260bd018
北京海岸青年公寓,39.815006,116.550126,北京市通州区科创五街798号金海投资大厦2-4层,,,1,132ff2f664bdea9cebe58270
观印象艺术发展有限公司,39.873259,116.492656,北京市朝阳区弘燕东路山水米兰国际商业街7号楼A01,efc0d3f81d52d1e6cc06a488,,1,efc0d3f81d52d1e6cc06a488
798家常菜串吧,39.89734,116.4674,垂杨柳北里4号楼(近双井美食街双井桥南路西胡同把口),eaef2a980efc2d8ae81e975d,(010)57192211,1,eaef2a980efc2d8ae81e975d
五洲源KTV,40.116387,116.217529,上庄镇上庄村798号,277a76b29f3db37c22026289,,1,277a76b29f3db37c22026289
停车场(798中二街),39.986616,116.500613,北京市朝阳区万红路5号30^-3附近,49b7639a0aafa533d8d891fc,,1,49b7639a0aafa533d8d891fc
北京798艺术区-南门,39.987752,116.501855,酒仙桥路4号,ea11d4444668c3015e0d023b,,1,ea11d4444668c3015e0d023b
798艺术足球场-西北门,39.985701,116.510391,万红路与驼房营路交叉口南100米,d2170d5ea53c25afcb213dc7,,1,d2170d5ea53c25afcb213dc7
便宜坊(酒仙桥798艺术区店),39.985542,116.495755,北京市朝阳区酒仙桥路13号苏宁电器大山子店3层,8ea1589978016281f7231005,"(010)64388550,(010)64388560",1,8ea1589978016281f7231005
纸飞机(GM798艺术区店),39.987596,116.501049,朝阳区万红路5号院蓝涛中心C栋101,dcf96846f44d15749222e00b,,1,dcf96846f44d15749222e00b
北京798艺术区-F区,39.988018,116.503555,北京市朝阳区酒仙桥路2号北京798艺术区内,bd3a87e3322a9c8c4c3a5958,,1,bd3a87e3322a9c8c4c3a5958
北京798艺术区-南1门,39.986963,116.505742,万红路与酒仙桥东路交叉口北50米,73a8076643fc6f774f6d46d4,,1,73a8076643fc6f774f6d46d4
七九八创新空间北京科技有限公司,39.962817,116.512348,将台路14号1号楼,620091f876e686c04151c0bb,,1,620091f876e686c04151c0bb
顺丰速运(北京朝阳七九八营业点),39.987721,116.501444,北京市朝阳区酒仙桥万红路5号蓝涛中心内,c5829387edf61ffc2e473349,(010)64388732,1,c5829387edf61ffc2e473349
汉庭酒店(酒仙桥798店),39.980656,116.495398,北京市朝阳区酒仙桥路13号,442076460e633672deee8b76,(010)64368880,1,442076460e633672deee8b76
798艺术区足球公园,39.985836,116.510635,驼房营路甲1号,fa1f95b4e3b420d000ec0187,,1,fa1f95b4e3b420d000ec0187
ECHOO回声轰趴(798店),39.987297,116.500795,万红路5号院瑞达电子院内17号楼(蓝涛中心旁),39aa1b6bc1f20501eee4a5dc,,1,39aa1b6bc1f20501eee4a5dc
北京798艺术区E区-足球场,39.985923,116.510516,驼房营路甲1号,f579f1468f529de576e5b67c,13651257633,1,f579f1468f529de576e5b67c
德邦物流(万红路798店),39.987935,116.501181,北京市朝阳区万红路5号,13af0aa71e6909df9f09f7b2,95353,1,13af0aa71e6909df9f09f7b2
北京798艺术区停车场-出入口,39.988004,116.501676,北京市朝阳区万红里北巷,0b5125870198b25a1c38948f,,1,0b5125870198b25a1c38948f
北京旅途港湾公寓(酒仙桥798店),39.976935,116.509689,北京朝阳区将台将府家园北里(滨河一号)202号楼,,,1,5892f74c072c2aa93c9a5ed1
fit4lifegirlpowerstudio(酒仙桥路798店),39.986101,116.504901,酒仙桥东路10号恒通商务园无界空间三层(园区东北侧),,,1,4e16903f584fd1a24e776e3c
德国Crystalblk晶透屏幕(798艺术区)体验店,39.987043,116.50203,北京市朝阳区酒仙桥万红路甲31号院内小二楼798艺术园区南门外(合升影音私人影院内),45776ccc9842bde1931fc943,,1,45776ccc9842bde1931fc943
iFitStar星健身(798旗舰店),39.98624,116.503577,酒仙桥路10号恒通国际商务园UBP东街B36栋1层,36a99efb10cc35fdfd0eb007,18510761498,1,36a99efb10cc35fdfd0eb007
GMKIDS轻奢潮童影像馆纸飞机(798店),39.9872,116.500617,北京市朝阳区万红路5号院蓝涛中心c101室,e4704c24efe8f9929d9d682c,,1,e4704c24efe8f9929d9d682c
浩石运动攀岩空间(798店),39.987479,116.500227,北京市朝阳区酒仙桥万红路5号蓝涛中心7号楼-2北京浩石运动攀岩空间,c48d243905a8ddbad1f49e91,(010)64319881,1,c48d243905a8ddbad1f49e91
三草影像SANCAOPHOTO儿童摄影(798艺术区店),39.987532,116.503613,北京市朝阳区798艺术区七星中街南150米,b65438ca9f4ce887b35c6ae0,15910704007,1,b65438ca9f4ce887b35c6ae0
酷迪宠物(酒仙桥798店),39.981857,116.496952,北京市朝阳区酒仙桥路12号陈各庄乐天玛特B1楼,a28649b2d817f4a0ad080fd9,18311105913,1,a28649b2d817f4a0ad080fd9
上海浦东发展银行(电子城支行),39.983939,116.496581,朝阳区酒仙桥路10号星城国际大厦B1座内(798艺术区南侧),cf77d66878f1d913b21e3653,(010)64350556,1,cf77d66878f1d913b21e3653
映书吧,39.988104,116.503017,北京市朝阳区酒仙桥路2号北京798艺术区F区内,6ecb49afc39e7aae4054d781,,1,6ecb49afc39e7aae4054d781
藏茶文化推广中心,39.987765,116.503379,北京市朝阳区酒仙桥路2号北京798艺术区F区内,8636c3bbdd8a0b941b94c66e,,1,8636c3bbdd8a0b941b94c66e
中景颐艺术发展有限公司,39.987567,116.506847,大山子798艺术区东南门(原718厂节能办后院)万红路1号院,808764a4b7a8a86128d7abd0,,1,808764a4b7a8a86128d7abd0
蓝涛中心-6号楼,39.987367,116.499954,北京市朝阳区酒仙桥路蓝涛中心(北京798艺术区附近),0a9ee01c4e7626a6901fc90f,,1,0a9ee01c4e7626a6901fc90f
MORE BEN DESIGN,39.987083,116.50116,北京市朝阳区酒仙桥路蓝涛中心(北京798艺术区附近),05d367f9059eecaff82213ec,,1,05d367f9059eecaff82213ec
北京观景艺术文化发展有限公司,39.987511,116.506883,北京市朝阳区大山子798艺术区东门,940648d1497d35f3f7eafc1c,,1,940648d1497d35f3f7eafc1c
野牛非洲艺术馆,39.98806,116.503538,酒仙桥路4号北京798艺术区七星中街,0d393522e837dbfaea1e9721,13701290701,1,0d393522e837dbfaea1e9721
意大利葡萄酒协会,39.98804,116.503459,北京市朝阳区酒仙桥路2号北京798艺术区F区内,77db7b3d50d4820d3a04b13f,,1,77db7b3d50d4820d3a04b13f
物资公司,39.98682,116.505417,北京市朝阳区酒仙桥路4号798艺术区751D·PARK北京时尚设计广场A26,3dbb705ec2775bc82fb17e06,,1,3dbb705ec2775bc82fb17e06
蓝涛中心-12号楼,39.987987,116.500778,北京市朝阳区酒仙桥路蓝涛中心(北京798艺术区附近),9b4e7208bf863347d4851fc7,,1,9b4e7208bf863347d4851fc7
翰·艺术中心,39.987361,116.501953,北京市朝阳区798艺术区南门外万红里31号(798南门外万红里甲31号院),,,1,b6d2094f83ab5b873586f4c5
威玛仕,39.987687,116.503711,北京市朝阳区酒仙桥路2号798艺术区七星中街6号七星中街F03-6,ebdd215571298e798bfc0638,(010)57626307,1,ebdd215571298e798bfc0638
栢和茶坊,39.98668,116.502758,北京市朝阳区万红路万红里甲31号(798艺术区南门路口东北角),1a8b9dff88a04849f82213e2,(010)84561855,1,1a8b9dff88a04849f82213e2
羊驼小美手工,39.988005,116.501016,北京市朝阳区酒仙桥路2号798艺术区,1c4f5844cc7795fc581093a6,,1,1c4f5844cc7795fc581093a6
秉音创声,39.987639,116.503739,北京市朝阳区酒仙桥路2号798国际艺术区七星中街,,13811059929,1,4f6f85c8228aa9dcd12dd6ef
意大利卓越卡萨(北京)设计事务所,39.987914,116.503593,北京市朝阳区酒仙桥路2号北京798艺术区F区内,f957fc22473f2bb0eb12e4cc,,1,f957fc22473f2bb0eb12e4cc
互影科技公司,39.987819,116.503326,798艺术区七星中街朝鲜民艺文化中心三层,9086de402a02004c31f71d1b,,1,9086de402a02004c31f71d1b
Activation Group,39.987367,116.503772,北京市朝阳区酒仙桥路2号北京798艺术区F区内,d212ebf1e474fae7c056aca6,,1,d212ebf1e474fae7c056aca6
朝鲜民艺文化中心,39.987592,116.503544,酒仙桥路4号798艺术区七星中街,e7f0539ec652a2b7d1f49e2b,(010)57626209,1,e7f0539ec652a2b7d1f49e2b
北京星越文化传媒有限公司,39.98582,116.497028,酒仙桥798艺术区星城国际,,,1,eebb54893b7054032eb90874
蓝涛中心-1号楼,39.986631,116.499816,北京市朝阳区万红路蓝涛中心(北京798艺术区附近),aa1edded9b7641b8fd0eb0cf,,1,aa1edded9b7641b8fd0eb0cf
北京荣晟商贸有限公司,39.987162,116.500843,酒仙桥路4号798艺术区院内陶瓷一街综合楼三层,3f6268a54a18b7ce31f71dc1,,1,3f6268a54a18b7ce31f71dc1
星璀文化,39.987362,116.50411,北京市朝阳区酒仙桥路2号北京798艺术区F区内,2f8b66286856b6e25d0d02d5,,1,2f8b66286856b6e25d0d02d5
贞元社,39.987946,116.501114,北京市朝阳区酒仙桥路4号北京798艺术区南门停车楼南侧,ef9dc5fdd668efaa2b11d199,,1,ef9dc5fdd668efaa2b11d199
酒仙桥菜馆,39.986711,116.502934,酒仙桥路4号798艺术中心七星西街向南100米二楼DIY陶艺工坊,,(010)64349137,1,8b362c025cb1b57ceee4a5c5
古纳文化,39.987627,116.503771,北京市朝阳区酒仙桥路2号798国际艺术艺术区七星中街,20673a8697cee75ff82d6165,18611482645,1,20673a8697cee75ff82d6165
3+3艺术空间,39.987735,116.503894,北京市朝阳区酒仙桥路2号北京798艺术区F区内,47e37bfbf1492cae30169bb7,,1,47e37bfbf1492cae30169bb7
蓝涛中心-停车场(万红里北巷),39.987502,116.501238,北京市朝阳区万红里北巷蓝涛中心(北京798艺术区旁),c639a15a2cea11ec76e5b676,,1,c639a15a2cea11ec76e5b676
北京山禾金缘艺术设计有限公司,39.986781,116.504084,北京市朝阳区酒仙桥万红里甲31号(798艺术区南门)佳通轮胎2楼路万红,a4b6a2e0c34d868ee5e9659c,(010)64347166,1,a4b6a2e0c34d868ee5e9659c
额尔古纳乐队音乐工作室,39.987648,116.503858,北京市朝阳区酒仙桥路4号798艺术区,3076af575ec16d20badf8f5d,,1,3076af575ec16d20badf8f5d
恒田设计研究所,39.987357,116.506651,北京市朝阳区798艺术区南一门万红路一号院,bd49f560c928839ac1f1cffb,18611460707,1,bd49f560c928839ac1f1cffb
泡的面馆,39.9875,116.503658,北京市朝阳区798艺术区七星中街朝鲜民艺创作中心一层,66a833a5f7827107acee7a42,"18600771958,15712971696",1,66a833a5f7827107acee7a42
陈音乐玩家空间,39.986824,116.505473,北京市朝阳区酒仙桥路4号万红路798艺术区南一门A26,1d303e11b692b8659d82ea21,,1,1d303e11b692b8659d82ea21
芳园里北区-北1门,39.980911,116.495295,酒仙桥路汉庭酒店(北京酒仙桥798店)附近,6c69e56a92a483f33517dcae,,1,6c69e56a92a483f33517dcae
交通银行(酒仙桥支行),39.985918,116.497222,北京市朝阳区酒仙桥路10号星城国际大厦内(798艺术区南侧),51475764c92c34cdc51e5159,"95559,(010)64350991,(010)64354445,(010)64351150",1,51475764c92c34cdc51e5159
蓝涛中心-10号楼,39.987982,116.500325,北京市朝阳区酒仙桥路蓝涛中心(北京798艺术区旁),f4e2d460382cc497b9df8ff5,,1,f4e2d460382cc497b9df8ff5
北京丰捷联,39.987805,116.503325,北京市朝阳区酒仙桥路2号北京798艺术区F区内,662fa48bfb10cee8a20464cd,,1,662fa48bfb10cee8a20464cd
四楼花园,39.987532,116.503425,北京市朝阳区大山子798艺术区(南门)七星中街四楼花园(藏茶文化中心),ed771901f136163f7ab55cb6,,1,ed771901f136163f7ab55cb6
北京威塑健康科技有限公司,39.987909,116.503295,北京市朝阳区798艺术区七星中街4号,148e3711edc2689840ab9a66,,1,148e3711edc2689840ab9a66
映春风摄影教育机构,39.987489,116.503873,北京市朝阳区酒仙桥路2号北京798艺术区F区内,752ed062b338c175a8f0cd83,,1,752ed062b338c175a8f0cd83
北京新湾国际贸易有限公司,39.987412,116.502194,万红路北京798艺术区南门外1号院,276d0e5b05582b4d58109339,,1,276d0e5b05582b4d58109339
蓝涛中心-2号楼,39.986739,116.499964,北京市朝阳区万红路蓝涛中心(北京798艺术区附近),ba8a3326d59218ddcae33c7a,,1,ba8a3326d59218ddcae33c7a
影音汇,39.9871,116.501888,北京市朝阳区万红里甲31号798南门,05673720676b736ddc1e5206,,1,05673720676b736ddc1e5206
爱丽美发,39.98482,116.51227,北京市朝阳区驼房营将府家园北里丽都壹号3号楼底商101号(798东南门),,,1,24f6ccbd9f7a9f1db54f5449
陋室文化,39.987909,116.503588,酒仙桥路4号798艺术区七星中街F区03-6-3,,,1,19dc1776aee73888095cb34e
合唱(北京)影业有限公司,39.987337,116.504046,北京市朝阳区酒仙桥路4号798艺术区,31ce4e18fe6f5aeb9222e066,,1,31ce4e18fe6f5aeb9222e066
养心齐,39.987577,116.50355,北京市朝阳区七星中街,,13801199636,1,f407eadd6ff6c5613904b11d
布落美学工作室,39.987922,116.503487,北京市朝阳区七星中街,,13693680737,1,21a0a65d9638ddb1d618b7b1
陶磊建筑,39.987832,116.503666,北京市朝阳区七星中街361号,56b9a7bb02941adcf5c59c66,(010)84792952,1,56b9a7bb02941adcf5c59c66
TAOA,39.987884,116.503527,酒仙桥东路4号3附近,,,1,b0ea15014f4a5ae48733045d
玩转文化传媒,39.986981,116.504754,北京市朝阳区酒仙桥路4号751园区A22楼2层,5a48439de29bb9e3d8eced94,,1,5a48439de29bb9e3d8eced94
旅行的雨晴Cafe,39.986914,116.50535,万红路751南门陈音乐玩家空间院内,,,1,cb8891c7d74b7d3a441a3244
厦耐公司-南门,39.986671,116.503469,北京市朝阳区万红路甲31号附近,b8f6c3f9acf2eef1f03cba62,,1,b8f6c3f9acf2eef1f03cba62
厦耐公司,39.986902,116.503705,北京市朝阳区万红里甲31号,6ed3083a46a0eab72b3a9f4b,,1,6ed3083a46a0eab72b3a9f4b
八九八创新空间北京科技有限公司-东南门,39.960893,116.511053,东风南路北50米,00f60936cc8c50e56240a978,,1,00f60936cc8c50e56240a978
科学队长,39.987653,116.503469,北京市朝阳区七星中街,ccf0c70ee9fbb89935b06c46,,1,ccf0c70ee9fbb89935b06c46
汉庭酒店酒仙桥店-停车场,39.980694,116.495477,北京市朝阳区酒仙桥路13号(近将台路),934e381ea44af053d42ce207,,1,934e381ea44af053d42ce207
厦耐公司-北门,39.987238,116.503882,北京市朝阳区七星中街,3586d6f71bfd3aa82ce67b91,,1,3586d6f71bfd3aa82ce67b91
北京道禾兴业贸易有限公司,39.986701,116.503756,北京市朝阳区酒仙桥万红路甲31号院甲5号,555daccfe789a9e4c27da28a,,1,555daccfe789a9e4c27da28a
V梦工厂,39.988057,116.503326,七星中街4号,5ebebfee56dbcf2a9a68b4cf,(010)57620330,1,5ebebfee56dbcf2a9a68b4cf
佳通轮胎(酒仙桥万红路店),39.986682,116.504134,酒仙桥万红路31号东跨B03(如意会馆旁),,,1,9f5164f0c24412e230169ba3
奇异乐器研究中心,39.986872,116.505131,北京市朝阳区万红路甲1号院西南70米,,,1,096e2db54076eac9b817e753
场景实验室,39.987714,116.504262,北京市朝阳区酒仙桥路4号751D·PARK时尚设计广场A21栋,cd0c139a489e3fdc1d5800a9,,1,cd0c139a489e3fdc1d5800a9
北京伊迪共通传媒广告有限公司,39.987731,116.503635,北京市朝阳区七星中街伊迪传媒四楼花园,1e1c3e1ad37a6ef21df74dcf,,1,1e1c3e1ad37a6ef21df74dcf
望京小腰（798店）,40.001484,116.488473,朝阳区酒仙桥大山子北里三楼南侧3-1-2,6998225400d4db844afd3f2d,,1,6998225400d4db844afd3f2d
得劲儿(望京SOHO店),40.003118,116.486371,"望京街望京SOHO1203底商(望京西园,花家地,望京国际商业中心,798艺术区)",0fbaae3d579e1e6177026944,,1,0fbaae3d579e1e6177026944
北京798艺术中心,39.991142,116.502303,北京市酒仙桥4号798艺术区798东街,934e1fcc10ee0881eedfca5b,(010)59789114,1,934e1fcc10ee0881eedfca5b
798西街,39.992297,116.499985,北京市朝阳区,,,0,0c07c1f63b02ce4a6c20b922
798东街,39.991454,116.502905,北京市朝阳区,,,0,2c7a5d23a31a0b2bfa221379
798中二街,39.991679,116.501945,北京市朝阳区,,,0,458e53191cd504ab461a3240
798纹身彩绘,39.989359,116.50235,北京市朝阳区798艺术区陶瓷三街盛典空间旁,9c0e313d2cb0dafb430245a7,18611656617,1,9c0e313d2cb0dafb430245a7
798中一街,39.991531,116.500867,北京市朝阳区,,,0,6dcf9ae493fd1da9c62ba1df
798西街,39.990585,116.499983,北京市朝阳区,,,1,ebef8e0517add78f21026268
北京798文化创意产业投资股份有限公司,39.993251,116.50345,北京市朝阳区酒仙桥路2号706北二街2幢1401室,,,1,7d5e67b0926f771bae080f23
七星东街/798东街(路口),39.990411,116.502919,北京市朝阳区七星东街,fee1ac63c63843b116c905d8,,1,fee1ac63c63843b116c905d8
798东街/706北一街(路口),39.992373,116.502875,北京市朝阳区706北一街,d8065fa91af94a7cc61e51ab,,1,d8065fa91af94a7cc61e51ab
798/751活的3D博物馆,39.990043,116.507792,北京市朝阳区酒仙桥路4号751时尚广场C12号,,,1,73061f385ed64d609122e0ad
798西街/797路(路口),39.992294,116.49997,北京市朝阳区798西街,5f1cc1bd2f7ced8708ccdd23,,1,5f1cc1bd2f7ced8708ccdd23
707街/798西街(路口),39.992293,116.499985,北京市朝阳区797路,30fc786f7d556349b5f42f5f,,1,30fc786f7d556349b5f42f5f
798东街/797路(路口),39.992388,116.502874,北京市朝阳区798东街,c234826c88ecb78354bfff55,,1,c234826c88ecb78354bfff55
798路与798中一街交叉口,39.990377,116.500868,北京市朝阳区798路,a194395ba9957a7a8b2fb5d5,,1,a194395ba9957a7a8b2fb5d5
798中二街/797路(路口),39.992354,116.501953,北京市朝阳区798西街,48318fd1d67bf5cdf60e77d2,,1,48318fd1d67bf5cdf60e77d2
798中二街/798路(路口),39.990395,116.501924,北京市朝阳区七星东街,f65d420798e3e3ffc27da22d,,1,f65d420798e3e3ffc27da22d
797路与798中一街交叉口,39.992325,116.500817,北京市朝阳区798中一街,e5583f5e787ee0ced6b74e34,,1,e5583f5e787ee0ced6b74e34
798路,39.990408,116.501935,北京市朝阳区,,,0,2995e529e5f1bd4cf703b822
798泉空间,39.99245,116.500747,北京市朝阳区酒仙桥路2号北京798艺术区B区内,81c60d1db1ba083affa77876,(010)57626373,1,81c60d1db1ba083affa77876
798铁器时代,39.992448,116.49819,北京市朝阳区酒仙桥路2号798艺术区,130f19aa796beca25cd4fe04,13811263594,1,130f19aa796beca25cd4fe04
798艺术区798剧场,39.988991,116.499628,七星西街1号,2849bba9fffe574887154104,13911692297,1,2849bba9fffe574887154104
798商业摄影,39.990525,116.497383,酒仙桥路798艺术区,e4f86bee928012e92dfaa728,"(010)80105953,18601200141",1,e4f86bee928012e92dfaa728
798烟斗村,39.988544,116.500442,北京市朝阳区酒仙桥路2号北京798艺术区南门,89ff8524d045b2e0b817e7a7,"13611334414,13811908473",1,89ff8524d045b2e0b817e7a7
陈手工乐器(798一店),39.989123,116.502357,北京市朝阳区酒仙桥路4号798艺术区南门陶瓷三街E06号,a23764ac443253498f1a8941,15001146152,1,a23764ac443253498f1a8941
798创意广场-金属库,39.998973,116.50781,北京市朝阳区酒仙桥北路798创意广场金属库,,,1,49e37dedd9208f1c213bf22f
798西街/798路(路口),39.990344,116.500002,北京市朝阳区798西街,39e801c6cdfd478b81a12e87,,1,39e801c6cdfd478b81a12e87
798东街/798路(路口),39.990405,116.502885,北京市朝阳区七星东街,4c751666679d56ccb34c499a,,1,4c751666679d56ccb34c499a
Flatwhite Cafe(798中二街),39.990603,116.505344,北京市朝阳区酒仙桥路4号整东集团院内A9-2座1层110室,497cc115c084a1413210af55,(010)64322798,1,497cc115c084a1413210af55
七星西街/798西街(路口),39.990344,116.500002,北京市朝阳区七星西街,fa690f88b14f39e0c26c14f1,,1,fa690f88b14f39e0c26c14f1
798树上咖啡,39.990518,116.501822,北京市朝阳区酒仙桥路2号北京798艺术区D区内,da83c5b407463b319ff779d1,(010)57626356,1,da83c5b407463b319ff779d1
798红石广场,39.992706,116.500057,北京市朝阳区酒仙桥路4号798艺术区797路,5dc926dfba2b049ec056ac6c,,1,5dc926dfba2b049ec056ac6c
798创想乌托邦,39.991215,116.5003,酒仙桥路4号北京798艺术区798中一街,6db36e30001dd5d8d1f49e00,,1,6db36e30001dd5d8d1f49e00
陶笛公社(NO.7982店),39.991337,116.501472,酒仙桥路4号798艺术区D区,3aca23b2a25d16cfd3ff2331,(010)57626103,1,41572e00e3b2f8adb45f1e49
素一高级皮具定制(798旗舰店),39.992433,116.499609,北京市朝阳区酒仙桥路2号798艺术区797路,ef05cd6c62f35e71cc04ef4f,(010)59784926,1,ef05cd6c62f35e71cc04ef4f
北京798艺术区-E区,39.989622,116.501505,北京市朝阳区酒仙桥路2号北京798艺术区内,2e480cfb9ab8c7c590114cb3,,1,2e480cfb9ab8c7c590114cb3
百雅轩798艺术中心,39.991751,116.500648,北京市朝阳区酒仙桥路2号798艺术区,caff8c493ecc9cca35b06c1d,(010)57623018,1,caff8c493ecc9cca35b06c1d
798灌木艺术,39.991453,116.500226,北京市朝阳区酒仙桥路2号798艺术区D区西街,00c27f5f55e7cc09dbeced5e,,1,00c27f5f55e7cc09dbeced5e
北京望京798和颐酒店-会议厅,39.994328,116.497701,酒仙桥北路9号荧屏里4号楼,db6e12eb2c05d24fc41e5167,(010)52683333,1,db6e12eb2c05d24fc41e5167
北京798艺术区-北门,39.993872,116.499838,北京市朝阳区酒仙桥北路2号,ae7f67c9289a435749fd3f72,,1,ae7f67c9289a435749fd3f72
北京798艺术区-停车场,39.990193,116.504789,酒仙桥东路1号附近,e4dc815c68058d28f8dc8548,,1,e4dc815c68058d28f8dc8548
北京798艺术区-B区,39.993185,116.502737,北京市朝阳区酒仙桥路2号北京798艺术区内,3bdbb12239cadc157ec87692,,1,3bdbb12239cadc157ec87692
798路/陶瓷一街(路口),39.990362,116.500474,北京市朝阳区798西街,ee7f498bfc35bf4b3904b193,,1,ee7f498bfc35bf4b3904b193
北京798艺术区-西门,39.992192,116.496551,北京市朝阳区酒仙桥路2号,9401e1ed2e46e36511882464,,1,9401e1ed2e46e36511882464
北京798艺术电影小屋,39.995528,116.498033,北京市朝阳区酒仙桥北路9号荧屏里小区1号楼,d2b66a1652b7863b1b11d5b1,4006061230-87972,1,d2b66a1652b7863b1b11d5b1
凤凰艺都798艺术空间,39.992111,116.50273,北京市朝阳区酒仙桥路2号北京798艺术区D区内,fd13a3f28f417f87b1077d2c,,1,fd13a3f28f417f87b1077d2c
天禅古珠798私人会所,39.99204,116.50275,北京市朝阳区酒仙桥路2号北京798艺术区D区内,fd06b0f78a199a5d52e5c5be,,1,fd06b0f78a199a5d52e5c5be
798常春藤创意生活馆,39.990827,116.500591,北京市朝阳区酒仙桥798艺术区798西街纯粹创意空间二楼,ed032684766eba396f3e1b07,,1,ed032684766eba396f3e1b07
北京798艺术区-D区,39.99156,116.500401,北京市朝阳区酒仙桥路2号北京798艺术区内,aa194cabf0384e7a3617dc9d,,1,aa194cabf0384e7a3617dc9d
北京798艺术区-A区,39.992871,116.499016,北京市朝阳区酒仙桥路2号北京798艺术区内,e7abc8a98de5d763ad31e5c1,,1,e7abc8a98de5d763ad31e5c1
酒仙桥路/798路(路口),39.990312,116.49637,北京市朝阳区酒仙桥路,6fddd7fdda1f807e3517dcd7,,1,6fddd7fdda1f807e3517dcd7
七星东街/798路(路口),39.990406,116.502938,北京市朝阳区798东街,7812f25c120c92abfbdc8505,,1,7812f25c120c92abfbdc8505
北京798MyLoft青年旅舍,39.994357,116.506901,北京市朝阳区酒仙桥北路北京电机总厂内,a811a737a2dcf4659cf77984,(010)64365005,1,a811a737a2dcf4659cf77984
酒仙桥北路/798西街(路口),39.993941,116.499959,北京市朝阳区,cd9d05dde58488b785420ec4,,1,cd9d05dde58488b785420ec4
ALTIPS(北京798家居集合店),39.98927,116.502346,798艺术区陶瓷三街E07,,,1,ef26aea64cedcd3421f01796
全季酒店(798艺术区店),39.997464,116.504141,北京市朝阳区酒仙桥路1号,53349ee3790235772202623d,(010)64388058,1,53349ee3790235772202623d
798艺术区宏源公寓,39.990636,116.497217,北京市朝阳区酒仙桥路4号,1deeac648da36c3bb2077d02,,1,1deeac648da36c3bb2077d02
北京七星飞行电子有限公司-国营第七九八厂,39.990685,116.500491,北京市朝阳区酒仙桥路4号北京798艺术区D区内,45e6e9c3166ed3342bb97cd4,(010)64362286,1,45e6e9c3166ed3342bb97cd4
北京798艺术区-东3门,39.988747,116.503386,北京市朝阳区七星路,13d3218bed4dc4878c1a89bd,,1,13d3218bed4dc4878c1a89bd
朝阳区798艺术区01商务楼,39.992413,116.496777,北京市朝阳区酒仙桥路2号北京798艺术区A区内,373cf757dcea786d4254d79e,,1,373cf757dcea786d4254d79e
1点点(798艺术区店),39.991653,116.49576,大山子北里30号楼底商,,13466370058,1,581299d13da40d0e07026f63
798艺术区-798剧场售票处,39.989174,116.499843,北京市朝阳区酒仙桥路4号798艺术区七星西街1号,624e6c35feacc7ad774ff155,13911692297,1,624e6c35feacc7ad774ff155
FOR798,39.98877,116.501139,北京市朝阳区酒仙桥路2号798艺术区,5a48258a8ed73ad0c3364459,,1,5a48258a8ed73ad0c3364459
798桥艺术空间,39.990539,116.502154,北京市朝阳区酒仙桥路4号798艺术区,4cf8d24ea91456e79cf779e2,18810661798,1,4cf8d24ea91456e79cf779e2
芳草地Art画廊798,39.990678,116.502072,北京市朝阳区酒仙桥路四号798艺术区798中二街d09号,e173e65a8f19e1488e1a89b4,(010)59789282,1,e173e65a8f19e1488e1a89b4
798艺术区DIY陶艺工坊,39.989264,116.500091,北京市朝阳区酒仙桥路4号798艺术中心七星西街向南100米二楼DIY陶艺工坊(乔十光漆画馆/一格草坊主题餐厅),8ea3e1b3e5fbb7ee99005005,,1,8ea3e1b3e5fbb7ee99005005
798艺术区-A07号楼,39.993139,116.499846,北京市朝阳区707街,4c3bfa5665896f3c43ab9a5b,,1,4c3bfa5665896f3c43ab9a5b
汉庭酒店(大山子798艺术区店),39.993478,116.495668,北京市朝阳区酒仙桥1号,f7d37cc78f0c59e22b06cedb,(010)84306688,1,f7d37cc78f0c59e22b06cedb
北京798艺术区-停车场,39.9922,116.501098,北京市朝阳区酒仙桥路2号798艺术区,f3bc70b7dd10b7934d2fdfa1,,1,f3bc70b7dd10b7934d2fdfa1
北京798艺术区-西南门,39.990321,116.496507,北京市朝阳区酒仙桥路4号,d305db1f8fcf1840922ca380,,1,d305db1f8fcf1840922ca380
北京798艺术区-北3门,39.993952,116.502923,中二路与酒仙桥北路交叉口东南50米,985335e1b011c0141ef74d99,,1,985335e1b011c0141ef74d99
798艺术区E6楼,39.988763,116.500861,北京市朝阳区七星路,,,1,24807ccb39609f68f82d61b4
7天连锁酒店(798艺术区店),39.996698,116.505097,北京市朝阳区酒仙桥北路(彩虹路6号),550fd5f968b99460931fc901,(010)64374388,1,550fd5f968b99460931fc901
VoyageCoffee(798艺术区店),39.988818,116.50253,北京市朝阳区酒仙桥路2号798艺术区七星中街7号,a49f5a08d2b2dfa584154153,18501929206,1,a49f5a08d2b2dfa584154153
北京798艺术区-北2门,39.993788,116.498025,北京市朝阳区北京798艺术区格兰维森商务楼,03099f46e945cf8d43ab9aa9,,1,03099f46e945cf8d43ab9aa9
798艺术区-A3号,39.991893,116.505391,706北四街与797路交叉口南100米,8d53b876c17ea9c393114cf4,,1,8d53b876c17ea9c393114cf4
798艺术区-D10号,39.990469,116.50303,北京市朝阳区北京798艺术区尤伦斯当代艺术中心,,,1,a36cad2119cc48091ce9993e
北京798艺术区-公共厕所,39.992244,116.500175,707街与798西街交叉口东50米,fc681ba1a3a2dd20f32d8324,,1,fc681ba1a3a2dd20f32d8324
北京798艺术区-公共厕所,39.989331,116.500626,北京市朝阳区七星西街1号,336b47a91d187f3f26e0a0df,,1,336b47a91d187f3f26e0a0df
7天酒店(北京798艺术区二店),40.009636,116.512691,北京市朝阳区机场辅路草场地艺术区甲98号,fca4e16fee55818209a8d4f8,(010)64328677,1,fca4e16fee55818209a8d4f8
798艺术区-E2号,39.990191,116.502312,北京市朝阳区798路,4474585f48649ea7b45f1eb6,,1,4474585f48649ea7b45f1eb6
798艺术区-D9楼,39.990676,116.502038,北京市朝阳区798中二街,,,1,f48949d0b31a990fc51b7505
PYO Gallery 798,39.990248,116.502093,北京市朝阳区酒仙桥路4号北京798艺术区内,a9b6d6dc2ab2ec3e7bf7963a,,1,a9b6d6dc2ab2ec3e7bf7963a
798艺术区-C1号,39.992555,116.506072,北京市朝阳区酒仙桥东路与797路交叉口西50米,,,1,0c5f9cf2e2c88ce33fe231c6
极北咖啡(798艺术区店),39.992678,116.499823,酒仙桥路2号第2-9幢2层203室,f6d6d52fe65a46fbc4f50d4f,(010)69940217,1,f6d6d52fe65a46fbc4f50d4f
北京798艺术区-停车楼,39.988267,116.501486,北京市朝阳区酒仙桥路2号798艺术区陶瓷二街,fc60eac71f47c9259cec2b66,,1,b57473bd5af9c191cbfa5f47
娃娃仓(798艺术区店),39.988491,116.503009,北京市朝阳区798艺术区内七星中街F03,6a526e127292d48bb817e7d2,,1,6a526e127292d48bb817e7d2
798艺术区-B01号楼,39.992587,116.500363,朝阳区,,,1,2358216af68949683b221c3e
798艺术区-E3号楼,39.99027,116.502817,北京市朝阳区七星东街,,,1,d1cae0bba79992a39d95dec9
北京格瑞斯艺术酒店(798艺术店),39.993735,116.506994,北京市朝阳区酒仙桥路4号798艺术区706后街1号(近大山子桥),cc0849a039a0614994031922,(010)64361818,1,cc0849a039a0614994031922
北京798艺术区-东1门,39.992469,116.504769,北京市朝阳区797路,a935e7402e47b7f19ff7796f,,1,a935e7402e47b7f19ff7796f
798艺术区-B1号楼,39.992659,116.500618,朝阳区,5ffdc4ebba32185c8c55ec1a,,1,5ffdc4ebba32185c8c55ec1a
798艺术区-A01号楼,39.992587,116.500363,朝阳区,097d15cd21a12f0a9cec2bd9,,1,097d15cd21a12f0a9cec2bd9
798艺术区-A7号楼,39.993223,116.500356,北京市朝阳区707街,,,1,f2c1bd7ba88f5c72fe0eb071
法国威玛仕之家798,39.990262,116.501805,北京市朝阳区酒仙桥路2号798国际艺术区七星中街F03-6,450efe626737146600ec0103,,1,450efe626737146600ec0103
798艺术区D1-6号楼,39.99066,116.500262,北京市朝阳区798西街,36b6ba10136e4795213bf27b,,1,36b6ba10136e4795213bf27b
798艺术区-D3号楼,39.990507,116.50081,酒仙桥路4号798艺术区D3号楼,,,1,7601af8a0f6f47415b109301
街电(798艺术中心),39.991149,116.502312,酒仙桥4号798艺术区798中二街D09-8,,,1,32594ab06e8e32d5593ac84a
798艺术区-E03号楼,39.989838,116.503209,北京市朝阳区北京798艺术区尤伦斯当代艺术中心,fc07537f10dd5c09d4851f74,,1,fc07537f10dd5c09d4851f74
798艺术区D03-4号楼,39.990705,116.50168,北京市朝阳区北京798艺术区尚如艺术中心,4c28bda6f83fa97a593ac804,,1,4c28bda6f83fa97a593ac804
798桥艺术空间-南门,39.99047,116.502103,酒仙桥路4号798艺术区,00c66165bb1913a404026fc4,,1,00c66165bb1913a404026fc4
北京798艺术区-4号停车场,39.992683,116.499867,音响路与707街交叉口南50米,713c51f9eaa6b10943e1922e,,1,713c51f9eaa6b10943e1922e
北京798艺术区-7号停车场,39.991426,116.502755,北京市朝阳区酒仙桥路2号798艺术区,16ca276e22fb5a7116c9057a,,1,16ca276e22fb5a7116c9057a
3D艺术体验展(798艺术展店),39.990236,116.506828,北京市朝阳区酒仙桥路四号798内北京时尚设计广场E座(360°大罐头),8c78689a5e36ac6697ec844b,,1,8c78689a5e36ac6697ec844b
北京798艺术区-东2门,39.990424,116.503423,七星东街与798东街交叉口东50米,a2620c50a1f3b1a4d518b7a5,,1,a2620c50a1f3b1a4d518b7a5
798艺术区E02-1号楼,39.990234,116.501357,北京市朝阳区北京798艺术区尤伦斯当代艺术中心,4ebd26c5c4f0352d51e5c59d,,1,4ebd26c5c4f0352d51e5c59d
北京798艺术区-北1门,39.993781,116.496723,酒仙桥路2号,b37514c70b622b72d3ff2381,,1,b37514c70b622b72d3ff2381
学音悦(798艺术区店),39.990228,116.501468,酒仙桥路4号798艺术区内尤仑斯当代艺术中心2层,,,1,0bafb630bf7e9c5009a8d471
吉祥唐卡(798艺术区店),39.992771,116.500326,朝阳区798艺术区红石广场707街二层(靠近798北门),04998fc833d679d8c72ba1ad,(010)64926711,1,04998fc833d679d8c72ba1ad
798艺术区停车场-入口,39.988181,116.50156,酒仙桥路2号798艺术区陶瓷二街798艺术区南2门停车楼内,df229fa21559fe45b34c49b6,,1,df229fa21559fe45b34c49b6
北京798艺术区-6号停车场,39.990472,116.500441,北京市朝阳区酒仙桥路2号798艺术区,4121c836d3f46bd12b06ce71,,1,4121c836d3f46bd12b06ce71
麦淘实验室(朝阳望京798点),39.988781,116.501942,酒仙桥路2号北京798艺术区E区,,,1,333ee40aebe43e5b2cb17eaa
北京798艺术区-公共服务中心,39.990016,116.498169,北京市朝阳区酒仙桥路2号友谊大厦1层,9962f35f068e9504d12dd695,,1,9962f35f068e9504d12dd695
百雅轩798艺术中心-北门,39.991955,116.500528,北京市朝阳区797路与798中一街交叉口西南50米,,,1,6328ca211b6d831b2806ce57
北京798艺术区-1号停车场,39.992384,116.496574,北京市朝阳区酒仙桥路2号,fd441146d2752c65250bd06f,,1,fd441146d2752c65250bd06f
怡韵斋七九八第四分店,39.992953,116.505365,北京市朝阳区酒仙桥路2号798艺术区2号路b10东北60米,,,1,42e9f0ad596fb5d3b9df8f93
北京798艺术区-小卖部,39.990216,116.498699,北京市朝阳区酒仙桥路2号北京798艺术区内,35c4dd93dff74860210220c5,,1,35c4dd93dff74860210220c5
DJI大疆创新体验店(798艺术区店),39.989336,116.500321,北京市朝阳区798艺术区陶瓷一街10号,06339ce2d2b3c18f8f55ec9a,(010)59789393,1,06339ce2d2b3c18f8f55ec9a
北京798艺术区-10号停车场,39.993919,116.503317,北京市朝阳区酒仙桥路2号798艺术区内,9efe4de048483ae52bb97c4e,,1,9efe4de048483ae52bb97c4e
北京798艺术区-地下停车场,39.990584,116.505697,北京市朝阳区797路,406752aa6db7f35cbca82220,,1,406752aa6db7f35cbca82220
北京798艺术区-地下停车场,39.991752,116.505688,北京市朝阳区797路,fbdf9e6ad042a0cad3ff23b6,,1,fbdf9e6ad042a0cad3ff23b6
北京798艺术区停车场-出入口,39.990465,116.503414,北京市朝阳区北京798艺术区尤伦斯当代艺术中心,e4c8b899fdb5926b3010af9d,,1,e4c8b899fdb5926b3010af9d
北京798艺术区管理委员会(音响路),39.992784,116.498349,酒仙桥北路2号A04楼,8fdb873b40b5a031b21e36d6,,1,8fdb873b40b5a031b21e36d6
北京慕雅青年公寓(798艺术区店),39.990602,116.496864,北京市朝阳区酒仙桥北路798艺术区4号门宏源公寓,adbc626e2537d384fea77827,18301616311,1,adbc626e2537d384fea77827
Millennium Dance Complex红房子北京798总部,39.989353,116.501745,北京市朝阳区北京798艺术区陶瓷三街E02号,,,1,58715f3c1c03a032ab059d61
北京798艺术区-停车场(798路),39.9891,116.498336,北京市朝阳区酒仙桥路6号电子城·国际电子总部1号楼B座附近,,,1,59db3061d36d238e49fc8d22
北京市仁爱慈善基金会仁爱心栈798心栈,39.989311,116.50311,北京市朝阳区七星东街,,,1,516778b6dfcefb782b11d182
北京798艺术区停车场(音响南路),39.992873,116.497433,北京市朝阳区酒仙桥路2号01商务楼附近,1808317e76c3e6ec08f5ebfe,,1,1808317e76c3e6ec08f5ebfe
北京798艺术区-停车场(音响路),39.993067,116.499281,北京市朝阳区音响路和797东街的交叉口附近,41f4d01d958a5de30b69d9f7,,1,41f4d01d958a5de30b69d9f7
全季酒店北京798艺术区店-会议厅,39.997324,116.504119,北京市朝阳区大山子彩虹路6号,ed14d86dece8022046e274bb,(010)84562880,1,ed14d86dece8022046e274bb
北京798艺术区停车场(797中街),39.993305,116.498079,北京市朝阳区酒仙桥北路2号格兰维森商务楼(西门)附近,fe45f812a915a3bff7e73b01,,1,fe45f812a915a3bff7e73b01
KIDSIDOL摄影工作室(798艺术园区店),39.991942,116.502436,酒仙桥路2号北京798艺术区3818库(797路与798东街交界处),,17710030330,1,2c2b05ca21d23fa1e5e965e3
那家小馆(七九八店),39.993634,116.500343,北京市朝阳区酒仙桥北路2号,05dd7d5f2de84a18ad080fda,"(010)59789333,(010)59789999,13911967031",1,05dd7d5f2de84a18ad080fda
石榴花开影视(朝阳区酒仙桥798艺术区店),39.990405,116.497542,酒仙桥路4号宏源公寓B座1406室,86430ae7c6f95b9cc61b75f9,,1,86430ae7c6f95b9cc61b75f9
北京七星飞行电子有限公司(国营第七九八厂)-检测计量中心,39.989768,116.503092,北京市朝阳区酒仙桥路2号北京798艺术区E区内,ad64695f0464fd7d32870a62,,1,ad64695f0464fd7d32870a62
北京2022官方特许商品零售店(798艺术区店),39.990126,116.502329,北京市朝阳区酒仙桥路4号,,,1,7545fde2f9b42078c9fa5fd5
和颐至尊酒店(望京798店),39.994374,116.497681,北京市朝阳区酒仙桥北路9号荧屏里4号,38ed52f789d0c6d58d1a8952,(010)52683333,1,38ed52f789d0c6d58d1a8952
魔方公寓(798店),39.994692,116.506754,北京市朝阳区酒仙桥北路7号,,13811606141,1,4f236d1ef4eb58819d9d68f8
宽饭(798店),39.991081,116.502706,北京市朝阳区酒仙桥路4号798艺术区东街,62e73b47312a34bff8dc8524,(010)57626007,1,62e73b47312a34bff8dc8524
麦果果(798店),39.989992,116.495726,酒仙桥路7号,2b077bb7f86d972f46e2748c,15901003147,1,2b077bb7f86d972f46e2748c
Mee Park(798店),39.995756,116.501432,北京市酒仙桥北路9号恒通国际创新园C8栋,,13644937440,1,bd5631046b1e01bbbea82248
庆丰包子铺(798店),39.993513,116.495785,北京市朝阳区酒仙桥路1号,987166cbac9620f0a8f72999,(010)84300381,1,987166cbac9620f0a8f72999
普乐门公寓(798店),39.99431,116.505896,北京市朝阳区酒仙桥北路甲7号(798艺术区北门对面),b36b0d38f483215f6c3e1bbb,13811606141,1,b36b0d38f483215f6c3e1bbb
乐活新青年社区798店,39.992117,116.498288,北京朝阳区酒仙桥路2号院11所38号楼一层104,799748e57c1cadfc22f0170f,(010)64333642,1,02f3a5020d45a64cf7231026
门客鲜花(798店),39.991481,116.495888,北京市朝阳区酒仙桥路79号,,,1,4ec86988b54f6726d92f28e2
若水堂(798店),39.98924,116.501119,北京市朝阳区酒仙桥路2号北京798艺术区E区内陶瓷二街,2bf18069632318631b11d53a,(010)57626345,1,2bf18069632318631b11d53a
泊月湾(798店),39.992193,116.498205,北京市朝阳区797路西区2号门内200米,7bf502373553b851d2f49e2d,18810401288,1,7bf502373553b851d2f49e2d
798艺术区E1楼,39.990256,116.500632,北京市朝阳区陶瓷一街,,,1,9b58e3ad1a4ca9b3c27da2fb
述茶798店,39.988461,116.500204,北京市朝阳区七星路798艺术区内南门停车场七星街(七星街南门),54e20a62946eaf06c16c1478,18501317245,1,54e20a62946eaf06c16c1478
停车场(798路),39.989812,116.497919,北京市朝阳区酒仙桥路6号电子城·国际电子总部1号楼B座附近,980fc2a38b9ce1c7be4842cb,,1,980fc2a38b9ce1c7be4842cb
金桔餐厅(798店),39.993043,116.49587,酒仙桥路1号108,09db920a658d5f812cb90876,(010)64369866,1,c40c3fc1753bc7f31d5800ea
佳作书局(798店),39.988738,116.50067,北京市朝阳区七星路与陶瓷一街交叉口,,,1,ca4918d648417b9382288ac8
原色生活(798店),39.990631,116.5009,北京市朝阳区酒仙桥路2号北京798艺术区D区内,982a7376d7f1d33c79b55c9c,(010)57623071,1,982a7376d7f1d33c79b55c9c
衣乐仓(北京798店),39.992435,116.499499,北京市朝阳区797路,,"18515610968,(010)53327783",1,766d6af0de480ec743d63eca
书香门第(北京798店),39.989559,116.501106,北京市朝阳区酒仙桥路2号798艺术区陶瓷二街,95954a1bdf9be1f781288a74,17610345798,1,57fde2ee3f7a61e3abf0cdd7
巴拉音乐(798店),39.995321,116.509369,北京市朝阳区酒仙桥北路5号,,,1,00a8f15355035e36213bf29c
原色生活(798店),39.990318,116.503197,北京市朝阳区酒仙桥路4号798艺术区七星东街(近大山子桥),d6df91c120030473f7b91668,(010)57623071,1,d6df91c120030473f7b91668
798艺术区-E2-1号楼,39.990178,116.500884,北京市朝阳区酒仙桥路4号,c424f0db99480a8902294f06,,1,c424f0db99480a8902294f06
本宫PavoMea艺术甜品(798店),39.992676,116.504736,酒仙桥路798艺术区797路B11-A,08f687d4168540052cb96d9f,18501997790,1,08f687d4168540052cb96d9f
白盒子艺术馆(798店),39.992794,116.503055,北京市朝阳区酒仙桥路2号798艺术区2号院B07室(近大山子桥),09185c562407e420f11937ce,(010)59784802,1,09185c562407e420f11937ce
WITH CAFE(798店),39.99065,116.502807,北京市朝阳区酒仙桥路4号798艺术区798中街,c21db9e5e7dfa69a00ff2d51,(010)59789508,1,c21db9e5e7dfa69a00ff2d51
卡梅尔小镇(798店),39.992571,116.498275,北京市朝阳区音响南路798国际艺术交流中心南侧隔壁,e6ce2cc2aec47a5b43ab9a2d,,1,e6ce2cc2aec47a5b43ab9a2d
松伸日本料理(798店),39.988681,116.50589,北京市朝阳区酒仙桥路4号第11号798艺术区院内751地区B12,31f9101b6831e1a027e0a092,"(010)64339990,13910113853",1,31f9101b6831e1a027e0a092
718街/798路(路口),39.990275,116.497997,北京市朝阳区798路,a41b2ab8c25aa644b45f1e85,,1,a41b2ab8c25aa644b45f1e85
rebrew复煮(798店）,39.990478,116.501029,798艺术区798路D03楼,,,1,b5bfaca44dce573bfe0eb013
798艺术区-A9-2号,39.991482,116.505386,北京市朝阳区706北四街,81307ad3135cbb25940319c6,,1,81307ad3135cbb25940319c6
奥莱室内攀岩馆(798店),39.998109,116.510387,北京市朝阳区酒仙桥北路5号京物大厦院内8号库(德邦物流斜对面),69af79f389056eeea21de93f,(010)84791599,1,69af79f389056eeea21de93f
798路/陶瓷三街(路口),39.990381,116.502205,北京市朝阳区陶瓷三街,db4abf45abcef1e4b5147fd4,,1,db4abf45abcef1e4b5147fd4
北京798艺术区A区-篮球场,39.993332,116.498968,北京市朝阳区酒仙桥路2号北京798艺术区A区内,ce78aac3dcefb20416764376,,1,ce78aac3dcefb20416764376
798路/陶瓷二街(路口),39.990383,116.501258,北京市朝阳区798西街,e74487d8b177e43ed92f28ee,,1,e74487d8b177e43ed92f28ee
9号楼公寓北京798店,39.995023,116.506424,北京市朝阳区酒仙桥北路甲7号,,,1,c84780d5ab8e97dd21f0179c
798艺术区D01-6号楼,39.990684,116.500343,朝阳区,e896e8909a911c270d3dda0f,,1,e896e8909a911c270d3dda0f
那家小馆(798店)-停车场,39.993782,116.500748,酒仙桥北路2号,8502ae917650bb5f213bf26f,,1,8502ae917650bb5f213bf26f
798艺术区D9楼-1号楼,39.990551,116.502079,北京市朝阳区798中二街,ca18a6e79428041dc92915c9,,1,cc99361695dd3045e8e58220
spoiled剧透(798店),39.993268,116.502958,酒仙桥路2号院内,,(010)86393086,1,0dcdbb2893cb65da471a32f4
北京798艺术区A区-停车场,39.993239,116.496408,酒仙桥路2号北京798艺术区,f89a0e2e9ed1b451f703b807,,1,f89a0e2e9ed1b451f703b807
北京798艺术区南门-停车楼,39.988409,116.501197,北京市朝阳区酒仙桥路4号798艺术区南门,5fbd1ae16fd055c46340a9a0,,1,5fbd1ae16fd055c46340a9a0
北京798艺术区A区-05栋,39.992616,116.499308,北京市朝阳区797路,69c6230c691519dc1f1d1128,,1,69c6230c691519dc1f1d1128
北京798艺术区C区-停车场,39.992634,116.507377,北京市朝阳区酒仙桥路2号北京798艺术区C区内,720a93bc33449396c42ba1de,,1,720a93bc33449396c42ba1de
人大外贸工厂店(798店),39.992379,116.497891,北京市朝阳区797中街798号,7111b7887576a8222bd7abad,13801390655,1,7111b7887576a8222bd7abad
北京798艺术区E区-商店,39.988919,116.503492,北京市朝阳区酒仙桥路2号北京798艺术区E区内,b52f7ada9a336390a8f72971,,1,b52f7ada9a336390a8f72971
北京798艺术区D区-06栋,39.992142,116.501397,北京市朝阳区797路,855dd47d05f028c5c909f0c6,,1,855dd47d05f028c5c909f0c6
北京798艺术区A区-04栋,39.992714,116.498476,北京市朝阳区797中街,1046c44ec7615b7d49fd3f4b,,1,1046c44ec7615b7d49fd3f4b
北京798艺术区D区-6号停车场,39.990472,116.500441,北京市朝阳区酒仙桥路2号北京798艺术区内,6347b653007beba7471a3231,,1,6347b653007beba7471a3231
北京798艺术区B区-11栋,39.992769,116.504801,北京市朝阳区797路,dc0180d43337178e9868b4fd,,1,dc0180d43337178e9868b4fd
北京798艺术区B区-04栋,39.993192,116.501176,北京市朝阳区酒仙桥北路,9376a19a86d0871da1d230c7,,1,9376a19a86d0871da1d230c7
798艺术区D3号楼-4号楼,39.990635,116.501962,北京市朝阳区798中二街,,,1,14f7bcf94fa656215e17c37a
北京798艺术区D区-小卖部,39.990382,116.500091,北京市朝阳区酒仙桥路2号北京798艺术区D区内,56a956c5c69667c0fd0eb05b,,1,56a956c5c69667c0fd0eb05b
北京798艺术区E区-06栋,39.989062,116.50094,北京市朝阳区七星路,7078e0dfcd43d4c658f6be61,,1,7078e0dfcd43d4c658f6be61
北京798艺术区E区-04栋,39.988955,116.503008,北京市朝阳区七星东街,ece521ce907cace890114c8a,,1,ece521ce907cace890114c8a
北京798艺术区D区-07栋,39.99184,116.502273,北京市朝阳区797路,b9b192281c86d3f85fbe864c,,1,b9b192281c86d3f85fbe864c
北京798艺术区E区-01栋,39.989898,116.50037,北京市朝阳区陶瓷一街,90799ae5a60df9d56cc02cff,,1,90799ae5a60df9d56cc02cff
北京798艺术区E区-05栋,39.988896,116.501813,北京市朝阳区七星路,6b164cc3def5ad4ab8bd630c,,1,6b164cc3def5ad4ab8bd630c
北京798艺术区E区-商店,39.988551,116.500127,北京市朝阳区酒仙桥路2号北京798艺术区E区内,4d7c9586f3bd9b5949fd3f5e,,1,4d7c9586f3bd9b5949fd3f5e
北京798艺术区A区-08栋,39.99308,116.499313,北京市朝阳区音响路,26fd44bb99a0d207882fb5e5,,1,26fd44bb99a0d207882fb5e5
北京798艺术区B区-09栋,39.993031,116.503977,北京市朝阳区706北三街,251a9e0d6beac39614c8f6a6,,1,251a9e0d6beac39614c8f6a6
北京798艺术区D区-商店,39.991515,116.501681,北京市朝阳区酒仙桥路2号北京798艺术区D区内,5b4fc09f09a5ce41b1077d41,,1,5b4fc09f09a5ce41b1077d41
北京798艺术区E区-02栋,39.989809,116.501727,北京市朝阳区七星东街,950c764284e916666da3cc3f,,1,950c764284e916666da3cc3f
北京798艺术区F区-03栋,39.98839,116.503238,北京市朝阳区七星中街,e92daa1b7dd2f6184afd3f57,,1,e92daa1b7dd2f6184afd3f57
公羊精酿啤酒 RAM BREWPUB(798店),39.98907,116.499705,798艺术区七星西街1号,877c89a5cd12adf2ab0dd898,,1,877c89a5cd12adf2ab0dd898
北京798艺术区D区-7号停车场,39.991312,116.502837,北京市朝阳区酒仙桥路2号北京798艺术区D区内,a770fae5f807bf049e9d6836,,1,a770fae5f807bf049e9d6836
北京798艺术区E区-9号停车场,39.989001,116.503301,北京市朝阳区北京798艺术区尤伦斯当代艺术中心,f56c20cf28cd268ba2a934c3,,1,f56c20cf28cd268ba2a934c3
北京798艺术区B区-10号停车场,39.993906,116.503335,北京市朝阳区酒仙桥路2号798艺术区内,fc66a904bbf7e0584e554793,,1,fc66a904bbf7e0584e554793
北京798艺术区E区-8号停车场,39.989258,116.499846,北京市朝阳区酒仙桥路2号北京798艺术区E区内,48011a85df63d9eff7eafcc3,,1,48011a85df63d9eff7eafcc3
北京798艺术区D区-5号停车场,39.992228,116.50063,北京市朝阳区酒仙桥路2号北京798艺术区内,a355bcf38f8b1d333b221cf5,,1,a355bcf38f8b1d333b221cf5
北京798艺术区A区-2号停车场,39.993132,116.4979,北京市朝阳区酒仙桥路2号北京798艺术区A区内,ebb08b20b4f2d56f7bf79633,,1,ebb08b20b4f2d56f7bf79633
北京798艺术区9号停车场-出口,39.98915,116.503298,北京市朝阳区七星东街,c1db3bdd320aac6a213bf2b0,,1,c1db3bdd320aac6a213bf2b0
依诺维绅DK45丹麦生活馆(798店),39.989664,116.500137,北京市朝阳区酒仙桥路4号798艺术中心E区七星西街十字路口向南50米,c0bcea7b4f4154902efaa7a1,(010)85916619,1,c0bcea7b4f4154902efaa7a1
北京798艺术区停车场-出入口,39.99247,116.504761,北京市朝阳区797路,5334b612e56dfe233be4a693,,1,5334b612e56dfe233be4a693
北京798艺术区停车场-出入口,39.990172,116.496465,酒仙桥路甲4号宏源大厦24层,14907bed0a54330203ec01c1,,1,14907bed0a54330203ec01c1
北京798艺术区A区-3号停车场,39.993287,116.498725,北京市朝阳区酒仙桥路2号北京798艺术区A区内,d87ed6f637d500422efaa7d0,,1,d87ed6f637d500422efaa7d0
北京798艺术区6号停车场-出口,39.99042,116.500765,酒仙桥路2号,2396b7d3efb4c033210220cb,,1,2396b7d3efb4c033210220cb
北京798艺术区停车场-出入口,39.993836,116.499906,音响北路与797中街交叉口东北50米,ef53b39c5cff2892c2f1cfbc,,1,ef53b39c5cff2892c2f1cfbc
普乐门公寓(798店)-停车场,39.994252,116.506703,北京市朝阳区酒仙桥东路与酒仙桥北路交叉口西北50米,92fe159aa35dc87c9d95ded6,,1,92fe159aa35dc87c9d95ded6
北京798艺术区停车场-出入口,39.992127,116.496462,北京市朝阳区797路,2a9976911916dc199ff779dd,,1,2a9976911916dc199ff779dd
北京798艺术区停车场-出入口,39.988632,116.503385,北京市朝阳区七星路,f7ca2ea929e0a89c3f9a5e3d,,1,f7ca2ea929e0a89c3f9a5e3d
北京798艺术区9号停车场-入口,39.988763,116.50328,北京市朝阳区尤伦斯当代艺术中心东南110米,f63465770ddd9abbcf06a42a,,1,f63465770ddd9abbcf06a42a
北京798艺术区南门停车楼-入口,39.988163,116.501545,北京市朝阳区酒仙桥路2号798艺术区陶瓷二街798艺术区南2门停车楼内,13e5ed2def0cd7751288245e,,1,13e5ed2def0cd7751288245e
北京798艺术区D区6号停车场-入口,39.990396,116.500244,北京市朝阳区酒仙桥路2号北京798艺术区6号停车场内,9662568cd71ce71bdb13183f,,1,9662568cd71ce71bdb13183f
北京望京798和颐酒店停车场-出入口,39.994118,116.49806,酒仙桥北路9号荧屏里4号楼北京望京798和颐酒店附近,62c7a2be73b47377f4eafc65,,1,62c7a2be73b47377f4eafc65
北京798艺术区2号停车场-出入口,39.993139,116.497988,北京市朝阳区797中街,ed9f06c2e0354f7ecc06a486,,1,ed9f06c2e0354f7ecc06a486
北京798艺术区1号停车场-出入口,39.993782,116.496715,北京市朝阳区酒仙桥路2号北京798艺术区北1门停车场内,90e26126a8cbdc1af22d83ba,,1,90e26126a8cbdc1af22d83ba
北京798艺术区北1门停车场-出口,39.993802,116.498079,北京市朝阳区酒仙桥路2号北京798艺术区北1门停车场内,7b2e45ca2756e57196f08c19,,1,7b2e45ca2756e57196f08c19
北京798艺术区8号停车场-出入口,39.989156,116.499865,北京市朝阳区七星西街,689f5ce731758406276e985e,,1,689f5ce731758406276e985e
北京798艺术区D区6号停车场-出口,39.990431,116.500747,北京市朝阳区酒仙桥路2号北京798艺术区6号停车场内,8ab0dfc412835568d9ecedaa,,1,8ab0dfc412835568d9ecedaa
北京798艺术区1号停车场-出入口,39.993803,116.498129,北京市朝阳区酒仙桥路2号北京798艺术区北1门停车场内,bfd2da061869ebc6e0110365,,1,bfd2da061869ebc6e0110365
北京798艺术区南门停车场-出口,39.988205,116.50085,北京市朝阳区酒仙桥路2号798艺术区陶瓷二街798艺术区南2门停车楼内,e192eb2b7d4ee642fea7780f,,1,b3d27c83ae62ce1294ca079c
全季酒店(北京大山子桥798艺术区店)-西南门,39.997042,116.503629,大山子彩虹路6号,75ddcbed3623a810343a7196,,1,75ddcbed3623a810343a7196
汉庭酒店(大山子798艺术区店)-北门,39.993729,116.495565,北京市朝阳区酒仙桥路与S12机场高速出口交叉口西50米,5e8159ed2f561678b75f1e9d,,1,5e8159ed2f561678b75f1e9d
汉庭酒店北京大山子798艺术区店-东门,39.993634,116.495925,酒仙桥路与S12机场高速出口交叉口西南50米,,,1,b5bd7c2b75776255f703b879
加八六设计商店(加八六798艺术区店),39.989438,116.503203,北京市朝阳区798艺术区七星东街E03层一层,2d80f929b1d5a036e812e4e9,(010)57169986,1,2d80f929b1d5a036e812e4e9
草料廠(798旗舰店),39.993678,116.503168,北京市朝阳区酒仙桥路4号七九八艺术区七零六北一街,b0629615f605b64e4054d775,"(010)56014768,(010)56014782",1,b0629615f605b64e4054d775
万小馆川菜·江湖蛙(798店),39.990839,116.501864,北京市朝阳区798艺术区中二街b6号,c5abf174e23802daece4a590,(010)57626142,1,c5abf174e23802daece4a590
3818库(798中二街),39.992239,116.502422,北京市朝阳区酒仙桥路2号北京798艺术区D区内,d24e48ebe0a737b7afee7ae2,,1,d24e48ebe0a737b7afee7ae2
友谊大厦(798路),39.990065,116.498472,北京市朝阳区酒仙桥路2号,48eb0058fb53c9ac2fe67b44,,1,48eb0058fb53c9ac2fe67b44
白野画廊(798中二街),39.991455,116.502103,酒仙桥4号,4334edeed5164a63afee7a67,13811646685,1,4334edeed5164a63afee7a67
先声画廊(酒仙桥798店),39.992313,116.49701,北京市朝阳区酒仙桥路2号798艺术区院内,e85e2527b80d635394f08c92,"(010)59789888,13810922101,13811133120",1,e85e2527b80d635394f08c92
谆客福德(798大山子艺术区店),39.989913,116.505131,北京市朝阳区酒仙桥路4号北京798艺术区751D·Park北京时尚设计广场A12-1,,,1,1c69078a2373101edc1e5213
霞姐放心小馆(798店),39.991923,116.495286,北京市朝阳区酒仙桥路109号,24f18999eebad8f2276e984a,"15609860068,17301327587",1,24f18999eebad8f2276e984a
CUPPING咖啡厅(798艺术中心店),39.992633,116.504321,798艺术区706北三街B10内,,,1,35e05874876a6212c9c3dbde
白盒子艺术馆(798店)-咖啡厅,39.992631,116.503032,酒仙桥路4号798艺术区2号院B07室,4c92ac47da708677cd04ef68,(010)59784806,1,4c92ac47da708677cd04ef68
小鬼当佳高端孕童亲子(798旗舰店),39.989139,116.501808,北京市朝阳区酒仙桥路4号798艺术区陶瓷三街E05-8号,,"15313033107,(010)56259087",1,810d9bcc3342be4b1ee9997c
辛德勒啤酒德餐厅（望京798园区店）,39.991325,116.506673,北京朝阳区酒仙桥北路4号D.PARK时尚设计广场C5,3fc49c6d2e1a0fde4557261a,(010)84599581,1,3fc49c6d2e1a0fde4557261a
中国摄影家协会(798中一街),39.990821,116.501039,北京市朝阳区798中一街,,,1,7a8f4bc5cf21625f08ccdd7e
天下盐(798店),39.98968,116.502829,北京市朝阳区酒仙桥路2号798艺术区,6ee0102057826cf652e5c56f,(010)59789623,1,6ee0102057826cf652e5c56f
优梵艺术(798店),39.993359,116.497485,北京市朝阳区798艺术区01号商务楼北楼1-2楼,373a044f81e3768805fef5c6,15801222794,1,373a044f81e3768805fef5c6
星巴克(798店),39.992135,116.498199,北京市朝阳区酒仙桥2号院内11所39号楼,bc6438ba7c64f5e428d7abbf,(010)84303686,1,7b4a56c3e2be1041882fb5a2
YELLOWKORNER(798店),39.99119,116.503031,北京市朝阳区798东街d10,34aa3bb32aee020578b55c92,(010)57623098,1,34aa3bb32aee020578b55c92
小万食堂川菜·酸菜鱼(798店),39.992785,116.504433,酒仙桥路2号院内(国营第706厂北厂区)50幢一层3号,00f1c7fbbe27c606c056ac62,(010)59789228,1,00f1c7fbbe27c606c056ac62
上坐家居体验馆(798店),39.992573,116.50126,北京市朝阳区酒仙桥路2号B01-1普罗艺术1-2层,ebe4546821289490b11e368a,,1,ebe4546821289490b11e368a
CAFE FLATWHITE(798二店),39.990536,116.505344,朝阳区酒仙桥路4号798艺术区751D-Park时尚设计广场A9-1座,,(010)64322798,1,40ebabb26fdeb817ddee8be6
机遇空间,39.990957,116.500457,北京市朝阳区酒仙桥路2号北京798艺术区D区798西街,cce287c10fac9523c07da235,13701126109,1,cce287c10fac9523c07da235
井户端信日本料理,39.991959,116.497198,酒仙桥路2号酒仙公寓1楼(近798),95102113420fe574f11937e0,(010)64372312,1,95102113420fe574f11937e0
沈记菜馆,39.992037,116.50096,北京市朝阳区酒仙桥路4号798艺术区内(近大山子环岛),d0b8923fca844efbb5f42f74,(010)59789053,1,d0b8923fca844efbb5f42f74
小柯剧场,39.990619,116.504483,北京市朝阳区酒仙桥路4号798艺术区751时尚设计广场火车头广场对面,4d9b66024f9092c9cf06a418,(010)84599338,1,4d9b66024f9092c9cf06a418
七星公寓,39.993567,116.496765,北京市朝阳区酒仙桥路2号北京798艺术区A区内,67070906ecfe5c6d8bdb731c,,1,67070906ecfe5c6d8bdb731c
中央大厅-A座,39.992118,116.5062,北京市朝阳区酒仙桥路4号798艺术区751D·PARK北京时尚设计广场B5,571bbb833a35945781a12ec1,,1,571bbb833a35945781a12ec1
时尚回廊,39.989281,116.505393,酒仙桥路4号北京798艺术区751D·Park北京时尚设计广场A18,a031e8262c2282ec077ce889,,1,a031e8262c2282ec077ce889
文韵时光·咖啡吧,39.992667,116.500105,北京市朝阳区酒仙桥路2号798艺术区红石广场路东侧,d146b3880ab754c7750269ad,(010)59789203,1,d146b3880ab754c7750269ad
熊猫慢递,39.991717,116.502063,北京市朝阳区酒仙桥路4号798艺术区中二街熊猫慢递(近大山子桥),923ffd00625302aed82f28ef,(010)59789364,1,923ffd00625302aed82f28ef
包豪斯广场,39.990326,116.50258,北京市朝阳区酒仙桥北路2号798艺术区内,53ff9c009a81f96303ff2d00,,1,53ff9c009a81f96303ff2d00
时尚回廊,39.989281,116.505393,酒仙桥路4号北京798艺术区751D·Park北京时尚设计广场A18,a031e8262c2282ec077ce889,,1,a031e8262c2282ec077ce889
文韵时光·咖啡吧,39.992667,116.500105,北京市朝阳区酒仙桥路2号798艺术区红石广场路东侧,d146b3880ab754c7750269ad,(010)59789203,1,d146b3880ab754c7750269ad
熊猫慢递,39.991717,116.502063,北京市朝阳区酒仙桥路4号798艺术区中二街熊猫慢递(近大山子桥),923ffd00625302aed82f28ef,(010)59789364,1,923ffd00625302aed82f28ef
保古堂风湿骨病,39.991305,116.494468,酒仙桥路2号798附近,29f9c9b8a300f2c8f32d83a0,"(010)57222131,15801511606",1,29f9c9b8a300f2c8f32d83a0
方圆美术馆-东门,39.991882,116.501289,北京市朝阳区798中一街d05号附近,8e67764572abc08415764307,,1,8e67764572abc08415764307
睿奇公关,39.992593,116.505669,北京市朝阳区酒仙桥路2号798,84164eb1f8d14e263f9a5eff,,1,84164eb1f8d14e263f9a5eff
京九互联科技有限公司,39.990682,116.500431,陶瓷一街与798路交叉口北50米,,,1,73c9db640ca11478c6effbc8
明轩空间,39.993354,116.504045,北京市朝阳区酒仙桥路2号798艺术区,d269e5853a181e226fa3cca4,,1,d269e5853a181e226fa3cca4
GOETHE INSTITUT,39.99298,116.501179,北京市朝阳区酒仙桥路2号798艺术区,,,1,a20a6d663aeb128c4d776e73
dRoom,39.992216,116.502171,北京市朝阳区酒仙桥北路2号798中二街D07,,,1,1dedf6c66a8ae04252e5c5d6
中国新锐设计师品牌店,39.992407,116.499271,北京市朝阳区酒仙桥路2号北京798艺术区A区内,b395d7d7ca70403121f017ea,,1,b395d7d7ca70403121f017ea
盛世天空美术馆-南门,39.993181,116.500441,北京市朝阳区酒仙桥路2号798艺术区B03号盛世天空美术馆附近,0e94d966b972bb0995ca0719,,1,0e94d966b972bb0995ca0719
优人众合,39.993202,116.505401,北京市朝阳区酒仙桥路2号798艺术区2号路b10,6df513a0746526eb7bdbd297,,1,6df513a0746526eb7bdbd297
中国陈设艺术专业委员会,39.991135,116.503028,北京市朝阳区酒仙桥路2号北京798艺术区D区内,90c1f7c1fc5e24b4a6da39ed,,1,90c1f7c1fc5e24b4a6da39ed
上架,39.990873,116.502302,北京市朝阳区酒仙桥路4号酒仙桥798艺术区,d52831f987698cbe2efaa74a,,1,d52831f987698cbe2efaa74a
北京博思韦珥国际建筑设计顾问有限公司,39.993741,116.504416,北京市朝阳区798艺术区内706北3小街,,,1,f3f6af7b868ed567e856faf6
菩缘阁,39.991503,116.501755,北京市朝阳区酒仙桥路2号北京798艺术区D区内,04f0936d47a45eb1bd484223,,1,04f0936d47a45eb1bd484223
一静艺术空间,39.992558,116.504992,北京市朝阳区酒仙桥路2号北京798艺术区B区内,1389e40a9a3369b7601809ac,,1,1389e40a9a3369b7601809ac
艺酷空间,39.992203,116.502352,北京市朝阳区酒仙桥路2号北京798艺术区D区内,94a11bf4d357d9b071455bae,,1,94a11bf4d357d9b071455bae
北方世贸轻纺商城西广场,39.990782,116.500415,北京市酒仙桥798艺术区D1-6号楼,e3ff79eee85f9e49b54f5462,,1,6c1edfe6f3e6fe121b11d591
北京润亚集成装饰工程有限公司,39.993125,116.50367,北京市朝阳区酒仙桥路798艺术区2号院706北二街B08,ff51a0087203392b6f476094,,0,89900611086cf65057bfff1f
北京香美刻饼屋(航天桥店),39.991495,116.50266,北京市朝阳区酒仙桥路2号北京798艺术区D区内,4eb3b5335016746c4302455f,,1,eae320d10b20e6421c389404
北京多郎服装服饰有限公司,39.992589,116.50274,北京市朝阳区酒仙桥路2号北京798艺术区B区内,0040cb9b8c90846c86420e06,,1,8977bf26f567fd2c9de3219a
北京万达塑胶电器有限责任公司退休职工办公室,39.99084,116.50218,798东街798路附近,,,1,d65aa3b2288c08bf71455b7b
贝客新语培训中心(朝外SOHO),39.992807,116.499758,北京市朝阳区酒仙桥路4号798艺术区B03号(近大山子桥),49a02a7a34bf2c592a201aa5,(010)51305597,1,562c9a808d72d9c63f9a5ec8
老黄水族,39.992165,116.506161,北京市朝阳区酒仙桥路4号798艺术区,1b9d6ee53cee43d7ca29154d,,1,debd5e64bfe66be003ff2d3d
三丰里18号楼-一单元,39.991205,116.503208,北京市朝阳区798东街,,,0,fa8d8eb7a74d4f639d95de94
佳木斯拌面拌菜专门店,39.992128,116.500729,北京市朝阳区798西街,e3cd9f7012c8c13940e19251,,1,b94bc212728584e584154142
紫晶国际,39.992782,116.502683,北京市朝阳区酒仙桥路2号北京798艺术区B区内,e63df193d1d6c7be8f55ec54,,1,a0b56c6696b490895fbe8671
永安东街9号院1-6号,39.992017,116.50321,北京市朝阳区酒仙桥路2号北京798艺术区内,a770fae5f807bf049e9d6836,,1,df76bd3e3b9cc0b0220262fa
公厕,39.990677,116.505296,北京市朝阳区北京798艺术区751D·PARK北京时尚设计广场,bcaebff89a25bf2ac9e33c47,,1,dbb1fd4d43b713a01811d564
创新足专业修脚房,39.993108,116.503652,酒仙桥路4号798艺术区2号院B07室,4c92ac47da708677cd04ef68,(010)59784806,1,067b7f5506c65ea982288a0f
宇宙新星夜总会,39.990418,116.501715,北京市朝阳区酒仙桥路4号798艺术区中二街6号(近桥艺术空间),341c35defb4e83a7e6073851,(010)57626015,1,997ee0588db8976b970319e4
果多惠(潘家园店),39.993113,116.506523,酒仙桥路2号798艺术区时尚空间广场B座101,,,1,ad5cdba7010b2363c909f0c0
行宫男士SPA体验馆,39.991323,116.502493,北京市朝阳区798艺术区中二街b6号,,,0,c739455cd78870904002454b
正宗稻花香过桥米线(五爱屯店),39.992364,116.499499,北京市朝阳区酒仙桥路2号北京798艺术区B区内,9b10add40fd691065a3ac83d,,1,c98c4d214632df30f90cad63
明清家具,39.991831,116.502161,北京市朝阳区酒仙桥路4号798艺术区内,fc7ef9ce61d2a5fdadb22a83,,1,ee19304dfc02663fb2077d6d
s补救un,39.993008,116.5032,北京市朝阳区酒仙桥路2号798艺术区,,,1,2e215ce1ff6aadfb4557262d
世纪金去掉娃幼儿园,39.99075,116.505065,酒仙桥街道酒仙桥路4号798艺术区751DPARK北京时尚设计广场A9-1号极地国际创新中心221,,,1,b9a04e3e35945cd240ab9a2c
西南古绣坊,39.99135,116.50161,北京市朝阳区酒仙桥路4号798艺术区,d0ec10b96d43d9755cbe86d7,,1,d0ec10b96d43d9755cbe86d7
奥迪亚洲研发中心地下停车场-入口,39.990744,116.506487,北京市朝阳区酒仙桥路北京798艺术区2号奥迪亚洲研发中心地下停车场内,491c0f325024fe51d2f49e14,,1,491c0f325024fe51d2f49e14
前方艺术-北门,39.990327,116.502654,七星东街与798东街交叉口西50米,acff83ef4606a876a8175a97,,1,acff83ef4606a876a8175a97
正仁美术馆,39.992974,116.500186,798艺术区北门鱼酷餐厅对面,feeada783428ce756268588b,,1,feeada783428ce756268588b
极成光电有限公司,39.991523,116.502409,北京市朝阳区798中二街,,17778138814,1,609ad9e2e9813c6332f71d21
当代源创,39.993617,116.504251,酒仙桥路2号北京798艺术区B区,ab84d65b876250ab4f6d4696,,1,ab84d65b876250ab4f6d4696
尚如艺术中心-东门,39.990549,116.501866,798中二街与798路交叉口北50米,316c6b7fce0d90e294f08cf6,,1,316c6b7fce0d90e294f08cf6
M画廊-东门,39.990806,116.501849,798中二街6号,59307185db6a0b40c9e33c81,,1,59307185db6a0b40c9e33c81
竹墨展,39.990729,116.503162,七星东街与798东街交叉口东北50米,,,1,cd6de86eaf1f55c1e856fa69
M画廊,39.990822,116.501755,北京市朝阳区酒仙桥路4号798艺术区798中二街06号,e23dcda9f21edb8e14948e55,,1,e23dcda9f21edb8e14948e55
751D·PARK北京时尚设计广场-C3栋,39.992366,116.506987,酒仙桥路4号798艺术区751D·PARK北京时尚设计广场C3,c9fb5b8f9eddedb10f0e6b7b,,1,c9fb5b8f9eddedb10f0e6b7b
释和雕塑,39.992918,116.500155,北京市朝阳区酒仙桥路2号798艺术区,7f1b3ca6d8e3864b9cf779b5,,1,7f1b3ca6d8e3864b9cf779b5
海森林,39.990766,116.507303,北京市朝阳区酒仙桥路4号798艺术区751D·PARK北京时尚设计广场,ebcd1915093fdea7da2f284b,,1,ebcd1915093fdea7da2f284b
以色列商会,39.990956,116.502751,北京市朝阳区798东街,55e5c421b6d26c7b79b55ce7,,1,55e5c421b6d26c7b79b55ce7
宽品空间,39.993043,116.505151,北京市朝阳区酒仙桥路2号798艺术区2号路b10北70米,0bca0056c279258162685824,,1,0bca0056c279258162685824
北京鸿美公司-西门,39.991142,116.501318,北京市朝阳区798中一街d60-a号附近,742520793795eb5ccae33cf7,,1,742520793795eb5ccae33cf7
北京御桦瓷砖美缝公司,39.990671,116.500271,北京市酒仙桥798艺术区D1-6号楼,e3ff79eee85f9e49b54f5462,,1,e3ff79eee85f9e49b54f5462
印象·闳约狼来了,39.993265,116.504778,北京市朝阳区酒仙桥路2号北京798艺术区B区内,302ada16df3ae38d8505bf3b,,1,302ada16df3ae38d8505bf3b
Beloved Cafe,39.99155,116.500147,大山子798艺术区798西街86设计众创空间内,5a21041c56f8f3b79a00503e,,1,5a21041c56f8f3b79a00503e
铜人,39.992574,116.506173,北京市朝阳区酒仙桥路4号北京798DPARK北京时尚设计广场C区,799610f0400588e71f389413,,1,799610f0400588e71f389413
狼穴影棚,39.993914,116.505952,北京市朝阳区酒仙桥北路4号798艺术区706北四街,cb66a5f632072e6176e5b69f,,1,cb66a5f632072e6176e5b69f
迎面来,39.992587,116.50435,北京市朝阳区798艺术园区D10号院,,(010)64382635,1,2c26c98e6aa86c5b0869d941
溏水,39.990927,116.501837,798中二街6号万小馆旁边,,13521205433,1,797ea7e47d3b0a4a336212e9
李氏版画,39.992852,116.500106,北京市朝阳区酒仙桥路2号北京798艺术区B区内,f3d21db970d65ac55abbbccd,,1,f3d21db970d65ac55abbbccd
n3 gallery,39.993568,116.503712,北京市朝阳区酒仙桥路2号798艺术区,ae496707d77f68e304fef501,,1,ae496707d77f68e304fef501
706北一街B02号楼,39.993221,116.500575,北京市朝阳区北京798艺术区,,,1,44d76011848a34e8ef74f854
金博瑞通-西门,39.990888,116.501312,798东街47号附近,a3f97b49253505a00bccdd80,,1,a3f97b49253505a00bccdd80
D05,39.991605,116.501156,北京市朝阳区北京798艺术区朗辰青铜雕塑展示厅旁,4d3fe9998b0eaf9bb817e76b,,1,4d3fe9998b0eaf9bb817e76b
干仓之味茶道馆(北京总店),39.99257,116.505077,北京市朝阳区酒仙桥路2号798艺术区2号路b10,7e7a9c02732afc8a5c17c352,(010)57623084,1,7e7a9c02732afc8a5c17c352
北京银枫戴斯商务酒店-洗手间,39.997265,116.504067,北京市朝阳区大山子彩虹路6号(798艺术区北门处),2fd886ce6b8888b5441a32f2,,1,2fd886ce6b8888b5441a32f2
翘艺空间Ciao Coffee,39.992193,116.502966,北京市朝阳区798东街,,18611096230,1,d36c3f052644cd1028201abd
悦·美术馆-东门,39.992535,116.502711,706北一街与798东街交叉口西北50米,d12acafd5a7249f75abbbc8f,,1,d12acafd5a7249f75abbbc8f
鼎峰空间艺术馆,39.993141,116.50406,北京市朝阳区酒仙桥路2号798艺术区706北三街,,(010)59789405,1,6d7ffb9463f98557c9c3db46
材艺工房,39.990342,116.506807,北京市朝阳区酒仙桥路4号798艺术区751时尚设计广场E座(近大山子桥),010dcb479d738dd88e772766,(010)84599201,1,010dcb479d738dd88e772766
泛空间,39.992842,116.500106,北京市朝阳区酒仙桥路2号北京798艺术区B区内,3bedb69a6c5538018f55ecd3,(010)59789201,1,3bedb69a6c5538018f55ecd3
I.T展馆,39.990871,116.501746,北京市朝阳区酒仙桥路4号798艺术区706北一街B07号(近大山子桥),2ec056ec36fb8a19441a325b,,1,2ec056ec36fb8a19441a325b
漂亮杂货便利店,39.991283,116.50105,北京市朝阳区酒仙桥路2号北京798艺术区D区内,761018de876d375b7402692a,,1,761018de876d375b7402692a
LAS COFFEE,39.990465,116.502594,北京市朝阳区酒仙桥路4号北京798艺术区D-09-2号(近中心广场),4a6c632870b47595095cb381,(010)57626339,1,4a6c632870b47595095cb381
设计师大楼-停车场,39.990811,116.506829,酒仙桥路北京798艺术区2号,6ba31415cb13c685f9f0cb4a,(010)64320480,1,6ba31415cb13c685f9f0cb4a
北京未来有趣互动科技有限公司,39.99271,116.500056,北京市朝阳区酒仙桥路2号798艺术区红石广场3层,72962201b9f638ecb35c6a9f,(010)57626027,1,72962201b9f638ecb35c6a9f
玫瑰之名艺术中心-正门,39.992945,116.502412,北京市朝阳区酒仙桥路2号北京市798艺术区玫瑰之名内,66dcd13cbda9692cd8d8917a,,1,66dcd13cbda9692cd8d8917a
有时间有艺术,39.991559,116.502642,北京市朝阳区酒仙桥路2号798艺术区3818库停车场(近酒仙桥路),030c25a73a7d73efca213d05,(010)84599265,1,030c25a73a7d73efca213d05
联合艺术画框工坊,39.992422,116.49952,北京市朝阳区酒仙桥路2号北京798艺术区A区内,a9ee26cad7fdb73c714b8769,"(010)59784887,18901179036",1,a9ee26cad7fdb73c714b8769
奥特维科技-停车场,39.993668,116.505397,北京市朝阳区酒仙桥北路798大罐附近,15c2c63fa2181af3ca1b953b,,1,15c2c63fa2181af3ca1b953b
文质工房,39.991108,116.500954,北京市朝阳区798中一街,811cc873b71f5c18f50e77c2,,1,811cc873b71f5c18f50e77c2
北京市欧博音响技术公司,39.990262,116.501805,北京市朝阳区酒仙桥路2号798院,4f0eec183cf4ac12774ff178,,1,4f0eec183cf4ac12774ff178
奥迪亚洲研发中心停车场-入口,39.990733,116.506488,北京市朝阳区酒仙桥路北京798艺术区2号,87bdc77b5480652738221cfb,,1,87bdc77b5480652738221cfb
朝阳美术馆,39.990273,116.50251,北京市朝阳区酒仙桥北路2号798艺术区内,02cbd4a458b8b03dd518b7f4,,1,02cbd4a458b8b03dd518b7f4
马亚诺空间,39.992325,116.503293,酒仙桥路2号北京798艺术区D-8,6ce22b096151db6cf7c59c30,(010)59789826,1,4c9d6ee63cd4dab441d63e7f
巴渝味道精品菜美食城,39.994425,116.5089,酒仙桥东路798北门,d344ddadebb853b9223bf27a,13269573943,1,d344ddadebb853b9223bf27a
三匚创意汇-停车场,39.993775,116.502768,北京市朝阳区酒仙桥路2号北京798艺术区B区内,a45662162a57259314b54b46,,1,a45662162a57259314b54b46
灿艺术,39.991869,116.503119,北京市朝阳区酒仙桥路4号798艺术区B区11号高台阶厂库(大山子桥附近),eb36750381cab51800ec01e2,(010)59789760,1,eb36750381cab51800ec01e2
北京上荷室内设计顾问有限公司,39.992432,116.499581,酒仙桥路2号798红石广场画框工坊3层,a9b5cbd3ea8eb42b94ec84e3,,1,a9b5cbd3ea8eb42b94ec84e3
绿影室,39.992875,116.504197,北京市朝阳区酒仙桥路2号798艺术园区797路B10号楼,1d0ed63082717ea92102620f,(010)59789513,1,1d0ed63082717ea92102620f
太阳艺术空间,39.991453,116.50187,北京市朝阳区798艺术区中二街D5号,ce609eb08110eb751776432b,13910514834,1,ce609eb08110eb751776432b
北京大鹏刺青工作室,39.990645,116.501375,北京市朝阳区酒仙桥路2号北京798艺术区D区内,cef30c165a220f35f4b916c5,"18310247880,15810219512",1,cef30c165a220f35f4b916c5
捌道面NOODLEBAR,39.990505,116.501471,北京市朝阳区酒仙桥北路4号院798艺术区四号路D06尤伦斯艺术商店对面,a6e8d6f3a3c5dfcb9fec2b01,18514028798,1,a6e8d6f3a3c5dfcb9fec2b01
NUOART,39.993215,116.502992,北京市朝阳区酒仙桥路2号798创意产业园706北一街B07号,c1d98a3ab191b1f59f82eaa1,,1,c1d98a3ab191b1f59f82eaa1
斑马谷凹空间,39.990623,116.505275,北京市朝阳区酒仙桥路4号798艺术区751D·PARK北京时尚设计广场A9-1,88a512bb8f0bb16adbeced4f,,1,88a512bb8f0bb16adbeced4f
文韵便利店,39.992945,116.500253,北京市朝阳区酒仙桥路2号北京798艺术区B区内,9b10add40fd691065a3ac83d,,1,9b10add40fd691065a3ac83d
古格空间,39.992504,116.500173,北京市朝阳区酒仙桥路2号院798艺术区B01,e0caeb58bf2710663617dc0b,"(010)84200590,13041129509",1,e0caeb58bf2710663617dc0b
武学伟&武学凯工作室,39.992606,116.50604,北京市朝阳区酒仙桥路2号798艺术区时尚空间广场B座105号,e7fbdbc850716ad1e3110399,,1,e7fbdbc850716ad1e3110399
威士忌商学院,39.991757,116.501808,北京市朝阳区798中二街,29b4fa4d46e94c9c17b54be6,,1,29b4fa4d46e94c9c17b54be6
鹅城小馆,40.005106,116.512071,草场地国际艺术村菜市场斜街(798大山子电影博物馆三影堂751),fa949f851772f3b5a6da39e8,15001138612,1,fa949f851772f3b5a6da39e8
盛地艺术,39.992062,116.503005,北京市朝阳区酒仙桥路2号北京798艺术区D区内,f8b017952019a81349fc8d6b,,1,f8b017952019a81349fc8d6b
恒通国际创新园-C7栋,39.994877,116.500795,北京市朝阳区北京明德医院(北京798艺术区北),c0e6075e123b37fcb23c818f,,1,c0e6075e123b37fcb23c818f
作者画廊,39.993225,116.502583,酒仙桥2号798艺术区706北一街,1f3af8667d064c63cf06a4a3,13501110454,1,1f3af8667d064c63cf06a4a3
可野全球自驾主题空间,39.991474,116.501179,北京市朝阳区798艺术区中一街D05-2-2号,a94ff24438a9be4deb12e4d3,(010)59789398,1,a94ff24438a9be4deb12e4d3
猫主吉祥,39.993266,116.505335,北京市朝阳区酒仙桥路2号798艺术区706北四街,dfbe7a93d94ed38f9d82ea47,(010)84564869,1,dfbe7a93d94ed38f9d82ea47
站台中国当代艺术机构,39.992142,116.502145,北京市朝阳区酒仙桥路2号798艺术区中二街D07号,a7c56ee0ae4fc0b3a3acc471,(010)57626068,1,a7c56ee0ae4fc0b3a3acc471
艺·凯旋艺术空间,39.992416,116.499221,北京市朝阳区北京朝阳区酒仙桥路2号798艺术区2号院A-05,107fdeaed7d21d81abf729c6,(010)57623012,1,107fdeaed7d21d81abf729c6
尤伦斯艺术商店,39.99026,116.501673,北京市朝阳区酒仙桥路2号798艺术区(尤伦斯艺术中心一层),a05a47c2ebed42b536b06cbe,"(010)57800224,(010)57800200",1,a05a47c2ebed42b536b06cbe
以色列商务与文化中心,39.991039,116.502556,酒仙桥街道七九八东街3号,dca721db711a78f93913fd87,,1,dca721db711a78f93913fd87
安润耳机体验店,39.992757,116.504672,北京市朝阳区酒仙桥路2号798艺术区2号路b10,,(010)57626040,1,fd8a327ff72d7b1a14c8f65f
圣之空间,39.990731,116.502739,北京市朝阳区酒仙桥路4号798东街,7d5f3a0a6d2d63522cb90868,(010)59789213,1,7d5f3a0a6d2d63522cb90868
TongGallery,39.991758,116.501344,北京市朝阳区798中一街,1dd758a936fe4417882fb59b,(010)57626202,1,1dd758a936fe4417882fb59b
山雀餐厅,39.991085,116.500273,酒仙桥路798艺术区西街02号拾萬空间(798艺术区内),,18515884798,1,b93b45a54d4dec94a5da3972
常青画廊,39.992205,116.501457,北京市朝阳区酒仙桥路2号北京798艺术区D区内,4b18a011f78cc8ab00ec015a,(010)59789505,1,4b18a011f78cc8ab00ec015a
闳约艺术中心,39.9933,116.505058,北京市朝阳区酒仙桥路2号798艺术区706北三街,28c2d59c5cee271c17948e0d,(010)59789601,1,28c2d59c5cee271c17948e0d
亚洲艺术中心,39.991599,116.503029,北京市朝阳区酒仙桥路2号大山子798艺术区,37572d54e7271d6eddee8b58,(010)59789709,1,37572d54e7271d6eddee8b58
中国服装设计师协会,39.992276,116.506041,北京市朝阳区酒仙桥路4号北京798艺术区内,662bcfc54888cc7789fc06a9,(010)84562288,1,662bcfc54888cc7789fc06a9
舜石刺青,39.992591,116.505086,北京市朝阳区酒仙桥路2号798艺术区2号路b10,,13811307217,1,8b2eff40de591d84ae31e59b
真乐道文化,39.993312,116.504332,北京市朝阳区798艺术区706号北二街,,,1,fe2cec9ab4d8bcda095cb39f
空间站,39.991261,116.500693,北京市朝阳区酒仙桥路4号798艺术区798艺术区中一街,5e47d77949681c8f4207c140,,1,5e47d77949681c8f4207c140
海宁河马影业有限公司,39.992918,116.5034,北京市朝阳区酒仙桥路798艺术区2号院706北二街B08,ff51a0087203392b6f476094,(010)57626302,1,ff51a0087203392b6f476094
丹麦文化中心,39.992826,116.503027,北京市朝阳区酒仙桥路2号798艺术区706北一街,3f57f0d88e710fc09868b40f,(010)57626100,1,3f57f0d88e710fc09868b40f
博而励画廊,39.992172,116.501013,酒仙桥路2号院798艺术区D06,7157dd83bfa88110c3f1cf6f,(010)64322620,1,7157dd83bfa88110c3f1cf6f
北京云通动力信息技术有限公司,39.993415,116.497675,北京市朝阳区酒仙桥路2号北京798艺术区A区01商务楼北楼内,899a46e525f37dae50e5c564,,1,899a46e525f37dae50e5c564
源莱艺术空间,39.992407,116.498178,北京市朝阳区酒仙桥路2号798艺术区工美楼2层200,8b8103d75dfc81302a02e184,,1,8b8103d75dfc81302a02e184
北京莱运餐饮管理有限公司,39.993415,116.497666,北京市朝阳区酒仙桥路2号北京798艺术区A区01商务楼北楼内,443529401b7ad6c4b817e768,,1,443529401b7ad6c4b817e768
思拓软件(上海)有限公司,39.993422,116.497675,北京市朝阳区酒仙桥路2号北京798艺术区A区01商务楼北楼内,9860a3cb1c6b2e0190114c06,,1,9860a3cb1c6b2e0190114c06
中创国基(北京)文化发展有限公司,39.99231,116.496741,北京市朝阳区酒仙桥路2号798艺术区01商务楼三层302,3d68e6f31859c205f21937d7,,1,3d68e6f31859c205f21937d7
北京御安行安全防范技术咨询有限公司,39.993429,116.497675,北京市朝阳区酒仙桥路2号北京798艺术区A区01商务楼北楼内,1e45f3e9a55cbd63d92f2892,,1,1e45f3e9a55cbd63d92f2892
北京纯度视觉文化传播有限公司,39.993415,116.497675,北京市朝阳区酒仙桥路2号北京798艺术区A区01商务楼北楼内,9d0ce94e0b9e0fe53ce23197,,1,9d0ce94e0b9e0fe53ce23197
匠人私塾ArtisanCradle,39.992409,116.496782,朝阳区酒仙桥路798艺术区西2号门01商务楼3层B220室,7ef6b82d68cdee6a45572647,,1,7ef6b82d68cdee6a45572647
北京金凤翔货运代理有限公司,39.99231,116.49675,北京市朝阳区酒仙桥路2号798艺术区01商务楼二层N29,6b9cc3946cc500ed2e473348,,1,6b9cc3946cc500ed2e473348
北京纳景堂文化传媒有限公司,39.993415,116.497675,北京市朝阳区酒仙桥路2号北京798艺术区A区01商务楼北楼内,e0505505178e048003ff2d79,,1,e0505505178e048003ff2d79
北京矢量文化艺术有限公司,39.993415,116.497675,酒仙桥路2号-798艺术园区01商务楼308,fa6f2f19b09b482888fc0608,,1,fa6f2f19b09b482888fc0608
北京星瑞环保工程有限公司,39.992317,116.49675,北京市朝阳区酒仙桥路2号798艺术区01商务楼二层B230,d58c531618bef18033169b10,,1,d58c531618bef18033169b10
北京兴业恒丰贸易有限公司,39.993422,116.497666,北京市朝阳区酒仙桥路2号北京798艺术区A区01商务楼北楼内,d9d1491356343a42d1f49e87,,1,d9d1491356343a42d1f49e87
