name,lat,lng,adderss,street_id,telephone,detail,uid
良乡影剧院,39.744383,116.147796,北京市房山区良乡拱辰大街31号,aa40108b9da6210cc4effbac,"(010)69352415,(010)69353905",1,aa40108b9da6210cc4effbac
良乡影剧院-停车场,39.744297,116.148152,北京市房山区拱辰大街,3f8bb8634ec479f6cf06a418,,1,3f8bb8634ec479f6cf06a418
良乡影剧院-南门,39.744457,116.148246,北京市房山区拱辰大街31附近,274daf9c59b96cc5eb12e4bc,,1,274daf9c59b96cc5eb12e4bc
良乡影剧院-售票处,39.744401,116.147926,北京房山区良乡拱辰大街31号,330c033bae1b986b12882482,(010)69352415,1,330c033bae1b986b12882482
良乡影剧院停车场-出入口,39.744366,116.148296,北京市房山区拱辰大街,cdc29239e271d20a30169b29,,1,cdc29239e271d20a30169b29
良乡影剧院站自行车租赁点,39.744779,116.148775,拱辰大街良乡影剧院对面,145dd9f1603ea22b5d17c366,,1,145dd9f1603ea22b5d17c366
滋牛韩式烤肉私人影院,39.728768,116.177142,书院南街12号院2号楼2层213,,15001008345,1,958eea16c79d8c075a3ac804
北京理工大学音乐厅,39.738317,116.178543,北京市房山区良乡东区十六号路与良乡东路交叉口西北角,fd01b786703c86d19e95de92,(010)81382088,1,fd01b786703c86d19e95de92
万像国际微影院(旭辉店),39.728653,116.177108,北京市房山区书院南街12号院旭辉E天地2号楼214,,17718365065,1,72bee2675b148cc11f389454
北京理工大学良乡校区北校区演艺厅,39.739515,116.178516,北京市房山区良乡高教园区良乡东路北京理工大学良乡校区,b5d310e47cb272de95ca07ca,,1,b5d310e47cb272de95ca07ca
聚影咖主题影院,39.73706,116.34544,北京市大兴区兴丰大街兴城商厦北边李先生四楼,,(010)69266883,1,6e00c9fe71f1d505601c674d
大兴影剧院,39.737429,116.343592,840路;947路;x105路;凤河营通勤班车;兴13路;兴14路;兴20路;兴22路;兴28路;兴37路;兴45路;兴46路;兴52路;兴54路;兴57路;兴59路,,,0,24eafa86a799f3519ee3218c
文化馆小剧场,39.738107,116.344478,北京市大兴区黄村西大街11号,92046d65b39b79669a0050ef,,1,92046d65b39b79669a0050ef
北京大兴剧院-南门,39.737596,116.344577,北京市大兴区黄村西大街15号,397925e9bb58a1fb1e1d1180,,1,397925e9bb58a1fb1e1d1180
北京大兴影剧院-地上停车场,39.737604,116.344523,北京市大兴区黄村西大街北京大兴剧院南门,b75bd6c9bda4d7d8932ca3a2,,1,b75bd6c9bda4d7d8932ca3a2
北京大兴剧院-北门,39.738745,116.344137,三中巷与育才北巷交叉口东100米,a7ff12cd38564ea9afee7ada,,1,a7ff12cd38564ea9afee7ada
聚影咖主题影院-停车场,39.737058,116.345438,兴丰大街3段157号,,,1,7ce7ecc7e3d0a8db44e2744e
停车场(北京大兴剧院南),39.736924,116.343912,黄村西大街15号,c0e58f72b280f749deee8ba3,,1,c0e58f72b280f749deee8ba3
大兴影剧院-地下停车场,39.73766,116.344496,大兴区黄村西大街15号(帝园商场西侧，少年宫东侧，公安局东侧),a6be7a156099b5c27bf79636,,1,a6be7a156099b5c27bf79636
北京大兴剧院-南1门,39.737657,116.34468,北京市大兴区黄村西大街15号,92166db1634b7d74a21de978,,1,92166db1634b7d74a21de978
大兴影剧院-自行车租赁点,39.737527,116.34399,黄村西大街5-2号附近,9414d5d37df8c09f0bccddc1,,1,9414d5d37df8c09f0bccddc1
梦想剧场,39.765142,116.168608,北京市房山区昊天大街,0486d21073d86de300ec01ab,,1,0486d21073d86de300ec01ab
悉尼歌剧院,39.815213,116.296875,北京市丰台区花乡丰葆路158号世界公园非洲景区内,20141a496626d5c49ff77903,,1,20141a496626d5c49ff77903
露天剧场,39.81668,116.295424,世界公园内,403b9e3d7a1349d8fb221310,,1,403b9e3d7a1349d8fb221310
贝酷5D影院(鸿坤广场),39.797857,116.346308,北京市大兴区宏福路鸿坤广场3层,b8e52b93be4419c73517dc1e,,1,b8e52b93be4419c73517dc1e
RBITER 7D动感影院,39.795254,116.333724,北京市大兴区西红门荟聚购物中心2层,1aee3c04c9337811336212ca,,1,1aee3c04c9337811336212ca
数字影院,39.794753,116.341587,北京市大兴区宏旭路,b36c3183aa6375d2adcb66fd,,1,b36c3183aa6375d2adcb66fd
北宫森林音乐厅,39.864727,116.127366,长辛店镇大灰厂东路55号北宫国家森林公园内,,,1,109a45374df4469dd618b75e
丰台青少年剧场,39.857948,116.290946,北京市丰台区丰台路86号,d219bb1d5444458bf50e7700,(010)63810206,1,d219bb1d5444458bf50e7700
艺术剧场,39.818962,116.294371,北京市丰台区花乡丰葆路158号世界公园欧洲景区内,e9c0c7678548f0e9d32dd6d9,,1,e9c0c7678548f0e9d32dd6d9
5D动感影院,39.818386,116.292618,北京市丰台区丰葆路158号世界公园游艺区内,b7b2e90405cbe5bc0d3dda4d,(010)83613344,1,b7b2e90405cbe5bc0d3dda4d
莱纳恒泰影院,39.872463,116.31259,北京市丰台区丰台北路18号恒泰广场6楼,59ac85e110f4b65a11882434,,1,59ac85e110f4b65a11882434
中国戏曲学院-小剧场,39.868718,116.338667,万泉寺400号院3,c484decad29af462bea2400b,(010)63339858,1,c484decad29af462bea2400b
乐创7d动感体验馆,39.847203,116.333563,纪家庙路168号秋实公寓1楼(花乡法院南侧),5ba45b295d4079413a04b1a2,13810479798,1,5ba45b295d4079413a04b1a2
五一剧场,39.923777,116.159341,石景山路以东,8fa14fc3eed9ca6ef7eafcdd,,1,8fa14fc3eed9ca6ef7eafcdd
五一剧场,39.927098,116.162652,专108路,,,0,0a5c2edbcd6e54eaaaf0cd3c
五一剧场路,39.923896,116.161745,北京市石景山区,,,0,091bed3a2e18d696f8f0cb9e
五一剧场南路,39.922308,116.158983,北京市石景山区,,,0,a516a3c8210ef240744ff198
首钢古城影剧院,39.919318,116.196513,北京市石景山区古城路小区46号院,f6d67d1444a9c9bad8eced3a,,1,f6d67d1444a9c9bad8eced3a
田老师（古城影院店）,39.916729,116.19891,石景山古城南路托儿所浴室1号楼第一号商铺,d52831f98d6982be2efaa74a,(010)68866047,1,d52831f98d6982be2efaa74a
古城剧场,39.921952,116.193131,399路内环;399路外环;597路;958路;快速直达专线111路;专108路,,,0,70bedf770e2e67054c554742
金鹏剧场,39.90721,116.229952,北京市石景山区鲁谷南路11号,3dc9befdddbe2217bfa240b7,(010)68654402,1,3dc9befdddbe2217bfa240b7
百姓大舞台,39.921843,116.201764,北京市石景山区八角北路19号楼附近,,,1,e504a79d59ea2439c42ba1e1
首钢古城影剧院-西门,39.919395,116.195674,北京市石景山区古城小街21号首钢艺术团附近,d84ca1b94511a1f73b221cc9,,1,d84ca1b94511a1f73b221cc9
首钢古城影剧院停车场-出入口,39.919234,116.195717,北京市石景山区古城小街,5e26cf2ee0407fcc364aae0c,,1,5e26cf2ee0407fcc364aae0c
首钢古城影剧院-停车场,39.919144,116.195853,古城小街17号附近,0e04e5ef20343ca204026f03,,1,0e04e5ef20343ca204026f03
CRD剧场-南门,39.919843,116.216962,北京市石景山区石景山路25号北京石景山游乐园西园内,84579592abbc113e02294fa5,,1,84579592abbc113e02294fa5
CRD剧场-北门,39.920127,116.216962,北京市石景山区石景山路25号北京石景山游乐园西园内,68f668dd60d51fc5715e80b4,,1,68f668dd60d51fc5715e80b4
M空间,39.916649,116.287127,北京市海淀区复兴路69号,6139b31ee5334d34c829157d,13810069797,1,6139b31ee5334d34c829157d
MAO Livehouse北京五棵松,39.916375,116.28377,海淀区复兴路69号院2号136-G23,ba848557b4b3e35e2a02e16c,,1,ba848557b4b3e35e2a02e16c
嘻哈包袱铺相声剧场,39.914912,116.2851,北京市海淀区复兴路69号五棵松华熙HI-UP071号,aebb25a5bd5e7d025e17c3d4,(010)59411068,1,aebb25a5bd5e7d025e17c3d4
蓝天剧院(北太平路),39.909475,116.264301,北太平路18,5ffb1816081a5b5f6e4760b6,,1,5ffb1816081a5b5f6e4760b6
耀莱成龙国际影城5F-5号厅(卓展购物中心),39.92011,116.28599,五棵松桥北复兴路69号5层,f1f176ab11a917ff22026210,,1,f1f176ab11a917ff22026210
蓝天剧院-北门,39.909786,116.263808,北京市海淀区北太平路甲18号附近,,,1,7cdb675377335f1246e27451
中国歌剧舞剧院艺术培训中心(石景山基地),39.909346,116.253616,北京市石景山区鲁谷街道鲁谷路6号,,,1,51b35cce03a1b1ae2fb96dcb
愉腾日戴大戏院,39.92472,116.289349,北京市海淀区西翠路与金沟河东路交叉口西北100米,,,1,c1b739f0c258ae61a80dd85b
国话小剧场,39.896286,116.342693,北京市西城区广安门外大街277号(地铁7号线达官营站B出口),1297a5a6bdc8eb80276e984f,(010)83069696,1,1297a5a6bdc8eb80276e984f
龙人居酒楼(二七剧场路店),39.913915,116.352625,二七剧场路19号楼,5e53af1aab04c7464151c049,(010)68023476,1,5e53af1aab04c7464151c049
庆丰包子铺(二七剧场店),39.914914,116.353201,北京市西城区二七剧场路乙6楼-2号,2d398f86294b1052ca1b9567,(010)68012447,1,2d398f86294b1052ca1b9567
护国寺小吃(二七剧场路店),39.914798,116.353065,二七剧场路乙6-1号,8aa6a1cbc8a0a22dd02dd64b,(010)68030580,1,8aa6a1cbc8a0a22dd02dd64b
二七剧场,39.915344,116.352585,西城区二七剧场路15号,ddb1f87c620bcd13c7effbd8,,1,ddb1f87c620bcd13c7effbd8
红塔礼堂,39.923635,116.347251,西城区月坛北街12号,35debf29f45f2f5da6da395f,(010)68526040,1,35debf29f45f2f5da6da395f
财政部-礼堂,39.918039,116.345738,北京市西城区三里河南四巷4号,7fd72311978dc19f5cbe8606,(010)68551114,1,7fd72311978dc19f5cbe8606
罗森便利店(二七剧场路店),39.914431,116.353106,二七剧场路6号沙龙宴酒店1层,7773fbedde9d4b030f0a7048,4008206390,1,23aa1f8fd10dda55a1a934c8
未来剧院,39.91769,116.322698,北京市海淀区玉渊潭南路11号,,(010)52801112,1,01a045a9e940f4619d82ea5f
华联生活超市(二七剧场路店),39.919194,116.353174,北京市西城区月坛南街甲12号,d1a26ba9c06b4aba4f3a594b,,1,d1a26ba9c06b4aba4f3a594b
大地影院(西城区晟嘉国际影城万方店),39.919328,116.347943,北京市西城区月坛南街30号万方西单商场东侧主楼2-3层,,"(010)68575080,(010)68579580",1,581db910eb1414c197ec84b9
湘水明珠茶艺(二七剧场路店),39.91947,116.354144,二七剧场路东里新22-12号,1473a725ece75856c17da25e,(010)68056666,1,1473a725ece75856c17da25e
中国国家话剧院国话剧场,39.896241,116.343137,北京市西城区广安门外大街277号(地铁7号线达官营站B出口),b7c110d477aee01a88b988fb,(010)83069696,1,b7c110d477aee01a88b988fb
中央人民广播电台-广播剧场,39.910637,116.360988,北京市西城区复兴门外大街2号,75fae573e2550beb246e988a,,1,75fae573e2550beb246e988a
茶语花香(二七剧场路店),39.917724,116.353145,北京市西城区二七剧场路东里新11-1号,8524a9bd3812594448cc4abc,13801267728,1,8524a9bd3812594448cc4abc
京龙苑商务酒店（二七剧场店）,39.917447,116.354527,北京市西城区二七剧场路东里15号,43b7e8897bad9f1458f6bef6,(010)51891155,1,43b7e8897bad9f1458f6bef6
二七剧场路东里,39.915734,116.354105,"二七剧场路东,南礼士路头条(月坛中学西侧)",c24f95c301fd29d32b11d16c,,1,c24f95c301fd29d32b11d16c
二七剧场路北口,39.919648,116.354121,13路;21路;68路,,,0,1828b11e6219d2b192114cdb
二七剧场路,39.917591,116.352903,北京市西城区,,,0,50eac5bece4c4917b03c812a
二七剧场路东里新-11号楼,39.917394,116.35324,北京市西城区铁二区西区二七剧场路东里新11号楼,f9fe3a10310bb185eb56fa48,,1,f9fe3a10310bb185eb56fa48
中国国家话剧院剧场-南门,39.895927,116.342878,广安门外大街277号,d8083b6c5dd1ff7eeb1e9765,,1,d8083b6c5dd1ff7eeb1e9765
国家话剧院剧场-地下停车场,39.896688,116.342141,北京市西城区广安门外大街277号国家话剧院,87d388f05de74575704b87c2,,1,87d388f05de74575704b87c2
中国国家话剧院剧场-北门,39.896611,116.343255,广安门外大街277号北门,0e596d14ee09b3df79dbd224,,1,0e596d14ee09b3df79dbd224
二七剧场路3号楼,39.918376,116.352705,西城区,e379cc83a668325ef32d8382,,1,e379cc83a668325ef32d8382
二七剧场路东里新-10号楼,39.91662,116.353288,北京市西城区二七剧场路东里,b8646c0116231301c52ba182,,1,b8646c0116231301c52ba182
二七剧场路东里甲-82号楼,39.917501,116.35568,北京市西城区二七剧场路东里甲82号楼,c4251a8d72053e56f8dc8529,,1,c4251a8d72053e56f8dc8529
二七剧场路19号楼,39.914016,116.352432,西城三里河东路东侧二七剧场路19号,bd79475698ffb3957ec87651,,1,bd79475698ffb3957ec87651
二七剧场路东里铁道部第二住宅区,39.916755,116.353898,北京市西城区二七剧场路东里,fc767524add015fa4e776e01,,1,fc767524add015fa4e776e01
二七剧场路东里新-21号楼,39.918841,116.354055,月坛南街二七剧场路东里新21号楼,b8020193d0ec27a0d8eced33,,1,b8020193d0ec27a0d8eced33
二七剧场-13号院,39.915673,116.352137,二七剧场路13,5e920c6ceb6bdb3f2fe67b62,,1,5e920c6ceb6bdb3f2fe67b62
二七剧场路东里新-20号楼,39.918792,116.353446,北京市西城区中国铁路总公司第二住宅区北区西院,f0a6ee9c23b68ae0d72ce2ae,,1,f0a6ee9c23b68ae0d72ce2ae
二七剧场路13号院-1号楼,39.915936,116.352549,北京市西城区二七剧场路13号,8eaab86a0b539496704b8721,,1,8eaab86a0b539496704b8721
克丽缇娜美容院(二七剧场路店),39.91606,116.353129,西城区二七剧场路甲2号,,,1,69fd3c64f8d93bd631f71da7
二七剧场路13号院1-6门,39.915847,116.352728,北京市西城区二七剧场路13号,879185e13e79ec30d618b75b,,1,879185e13e79ec30d618b75b
二七剧场路东里新18号楼,39.917838,116.354888,北京市西城区二七剧场路东里新18,479dec367880a48b5b10937d,,1,479dec367880a48b5b10937d
二七剧场路东里新-2号楼,39.914533,116.353817,北京市西城区二七剧场路东里(长安商场东北),6a04fb9834b9c203f2193760,,1,6a04fb9834b9c203f2193760
二七剧场路-6号楼,39.914544,116.353313,北京市西城区二七剧场路东里新6,4f8822a3a4b43be14107c15f,,1,4f8822a3a4b43be14107c15f
二七剧场路东里新-22号楼,39.919386,116.354618,北京市西城区二七剧场路东里,2089d87633330b47b54f54f6,,1,2089d87633330b47b54f54f6
二七剧场-路南商业楼,39.91487,116.353089,北京市西城区二七剧场路乙6-2号,bb9c0f76215ac89808f5eba6,,1,bb9c0f76215ac89808f5eba6
二七剧场路-1号楼,39.919402,116.352118,北京市西城区三里河东路小区二七剧场路1号楼,8f7e6e8e75eac1bd2b11d12a,,1,8f7e6e8e75eac1bd2b11d12a
二七剧场路东里新-1号楼,39.914108,116.353773,北京市西城区二七剧场路东里(长安商场东90米),fcf93189cdd931cac61e5177,,1,fcf93189cdd931cac61e5177
二七剧场路东里新-3号楼,39.915018,116.353804,三里河二七剧场路东里新3号楼,52d9fe453bdaf6ec430245ca,,1,52d9fe453bdaf6ec430245ca
二七剧场路小区,39.914003,116.352308,北京市西城区月坛二七剧场路19号,36a6aea7fce3418ba3acc4ae,,1,36a6aea7fce3418ba3acc4ae
二七剧场路东里新17号楼,39.917402,116.355123,二七剧场路东里新16号,49c941eba26267e394031969,,1,49c941eba26267e394031969
二七剧场路与月坛南街交叉口,39.919694,116.352985,北京市西城区二七剧场路,f1ea77a1965d8fafe812e42f,,1,f1ea77a1965d8fafe812e42f
北京市规划国土委二七剧场路办公区,39.918287,116.352743,北京市西城区二七剧场路3,bc5c1849ca5525fdd23ce342,,1,bc5c1849ca5525fdd23ce342
二七剧场路东里新-8号楼,39.915845,116.353391,二七剧场路甲2号附近,5987e6091ab60726b23c812b,,1,5987e6091ab60726b23c812b
二七剧场路东里新-16号楼,39.917049,116.354996,北京市西城区二七剧场路东里(南礼士路二条北),d17163efdf09350136b06c0e,,1,d17163efdf09350136b06c0e
二七剧场路东里新-6号楼,39.91561,116.354091,北京市西城区二七剧场路东里(二七剧场东里西),f6ff2df9b06879647402699b,,1,f6ff2df9b06879647402699b
二七剧场路东里新-4号楼,39.913859,116.353129,北京市西城区二七剧场路东里新4号楼,93211cc89be906565abbbc80,,1,93211cc89be906565abbbc80
二七剧场路东里新-7号楼,39.916522,116.354036,二七剧场路东里新7,911eab3911dd92fc0a69d9c0,,1,911eab3911dd92fc0a69d9c0
二七剧场路5号楼,39.918074,116.352764,北京市西城区月坛街道三里河南巷中驿大厦,11acb6a0a8db2fab2fb17ec3,,1,11acb6a0a8db2fab2fb17ec3
二七剧场路小区-西2门,39.919186,116.352051,北京市西城区三里河东路小区二七剧场路小区西二门,069f6ff6f248edf596f08c5e,,1,069f6ff6f248edf596f08c5e
二七剧场路东里新-9号楼,39.916208,116.353413,北京市西城区月坛街道复兴门外大街铁二区西区,e7d7fb224f870f312fe67b3a,,1,e7d7fb224f870f312fe67b3a
小桔充电站(二七剧场),39.915199,116.351633,北京市西城区二七剧场路15号,,,1,e0b7756b8320bab8ab0dd837
二七剧场路东里新16号楼,39.917056,116.354966,二七剧场路东里新16,9d13acb4b36331a9afee7ac7,,1,9d13acb4b36331a9afee7ac7
二七剧场路东里新-14号楼,39.917446,116.353937,北京市西城区月坛街道铁二区西区二七剧场路东里,88249d8e1c1ed2be9222e0f2,,1,88249d8e1c1ed2be9222e0f2
二七剧场东里新-6号楼,39.91705,116.354994,北京市西城区,,,1,b6ae6b416b96bf6f6f3e1bc1
二七剧场路东里新-5号楼,39.915349,116.35409,北京市西城区铁二区西区二七剧场路东里新5号楼,39fb04438ca1828a2cb908d5,,1,39fb04438ca1828a2cb908d5
二七剧场路2号,39.918187,116.353125,二七剧场路与南礼士路三条交叉口东北50米,59ea31d09ab067562fb90863,,1,59ea31d09ab067562fb90863
二七剧场路东里新-12号楼,39.916778,116.353971,北京市西城区二七剧场路东里新12号楼,f60f90a9999ef62f704b8758,,1,f60f90a9999ef62f704b8758
西城区二七剧场路东里中国铁路总公司第二住宅区-南门,39.91526,116.353721,二七剧场路甲6号附近,a1d4b416eaa603c72cb17e63,,1,a1d4b416eaa603c72cb17e63
二七剧场路东里新-24号楼,39.918819,116.355574,月坛南街,2aa4afdecf53e38558109388,,1,2aa4afdecf53e38558109388
乐汀点播影院,39.877557,116.354414,菜户营58号财富西环大厦2层229,,,1,2c25082ea744d46182a00c01
二七剧场路/南礼士路头条(路口),39.915165,116.353018,北京市西城区南礼士路头条,d91ec833052321d292114c11,,1,d91ec833052321d292114c11
二七剧场路-路边停车场(三),39.915367,116.352781,北京市西城区月坛街道南礼士路头条铁二区(南区),dda3996db8097064b4f42fed,,1,dda3996db8097064b4f42fed
二七剧场路东里新-15号楼,39.91766,116.354514,北京市西城区月坛街道二七剧场东里铁二区东区,0f5d1475407b8548374aae19,,1,0f5d1475407b8548374aae19
二七剧场路东里新-13号楼,39.917114,116.354003,北京市西城区二七剧场路东里,f0bb7f4d4555c2c217948e3e,,1,f0bb7f4d4555c2c217948e3e
糖人街影院-北侧停车场,39.888305,116.323777,北京市丰台区华源一里,a52f7556600e346d77026916,,1,a52f7556600e346d77026916
二七剧场路13号-2号楼,39.915875,116.352033,北京市西城区二七剧场路13号院(三里河二区东100米),c9d119b499f5e7705cbe86bb,,1,c9d119b499f5e7705cbe86bb
西城区二七剧场路东里中国铁路总公司第二住宅区-西门,39.916357,116.353027,二七剧场路甲2号附近,53720ae911ca5bb7932ca39c,,1,53720ae911ca5bb7932ca39c
二七剧场路-路边停车场(四),39.913448,116.351762,北京市西城区复兴门外大街15号长安商场F3,,,1,e981594997d3b9593be4a61c
二七剧场路东里新-23号楼,39.919038,116.35553,南礼士路三条与地藏庵北巷交叉口西北100米,40544389857075295e17c3e1,,1,40544389857075295e17c3e1
停车场(二七剧场路东里南),39.916828,116.35462,北京市西城区二七剧场东里7号,fb18074fad48c0d133169bc2,,1,fb18074fad48c0d133169bc2
二七剧场路东里新-27号楼,39.918377,116.355624,北京市西城区铁二北区东院住宅(月坛公园西南),27168535ce7894f2cf06a4ea,,1,27168535ce7894f2cf06a4ea
二七剧场路东里新-28号楼,39.918177,116.355609,北京市西城区铁二北区东院住宅(地藏庵北巷西),d8a477612bf9bc0eb21e36be,,1,d8a477612bf9bc0eb21e36be
二七剧场路路侧停车场,39.917863,116.353614,北京市西城区南礼士路三条甲38号附近,03ff2e333eb7a831e81e97ca,,1,03ff2e333eb7a831e81e97ca
二七剧场路小区-东1门,39.914176,116.352722,二七剧场路19,fe958c24b5228bddb2077d99,,1,fe958c24b5228bddb2077d99
二七剧场路东里新-26号楼,39.918692,116.354942,北京市西城区,436e4b961a9562e08bf15df7,,1,436e4b961a9562e08bf15df7
二七剧场东里,39.917866,116.354309,北京市西城区,,,0,3fda61dce1b94802705e802a
国家话剧院剧场地下停车场-入口,39.896681,116.342132,北京市西城区广安门外大街335号东北50米,db772a4ceca55bcf9fec2b15,,1,db772a4ceca55bcf9fec2b15
二七剧场路-路边停车场(一),39.918931,116.352947,北京市西城区铁道部第二住宅区北区(二七剧场路),,,1,e766737c8b01c8a928201a4d
二七剧场路小区-西1门,39.914231,116.352105,二七剧场路17号附近,76e3145d15119bab8e772761,,1,76e3145d15119bab8e772761
二七剧场路东里新11-3号,39.917388,116.353245,西城区,,,1,bc96341b8a091fc32dfaa7d6
二七剧场东里/南礼士路三条(路口),39.917974,116.354306,北京市西城区南礼士路三条,2b106c7d4a55649014c8f6b9,,1,2b106c7d4a55649014c8f6b9
西城区二七剧场路东里铁道部第二住宅区-北门,39.917855,116.353507,北京市西城区月坛街道铁二区西区,27756a3765362030c6effb3a,,1,27756a3765362030c6effb3a
月坛街道无围墙敬老院二七剧场路服务站,39.916002,116.353149,二七剧场路甲2,862f38e93c296e9243d63e88,13911816998,1,862f38e93c296e9243d63e88
二七剧场路5-1号西门,39.918087,116.352029,三里河东路乙10号,dbbd8521ebaf7a61581093b9,,1,dbbd8521ebaf7a61581093b9
中国国家话剧院剧场地上停车场-出入口,39.895927,116.342878,北京市西城区莲花池广安门外大街中国国家话剧院,2d0bfd8dae4a86962e473305,,1,2d0bfd8dae4a86962e473305
二七剧场北路,39.915366,116.351416,北京市西城区,,,0,670940ea8714679d55bfffd4
二七剧场东里/南礼士路二条(路口),39.916869,116.354328,北京市西城区二七剧场东里,abe996c369280049ca09f06c,,1,abe996c369280049ca09f06c
北京市政家属宿舍(二七剧场路东里中国铁路总公司第二住宅区东北),39.915877,116.354619,地藏庵11号楼,6cdfa9a073b0dedcb5147faf,,1,6cdfa9a073b0dedcb5147faf
中国国家话剧院剧场地上停车场-出入口,39.896722,116.342375,广安门外大街与马连道东街交叉口西北50米,8bbe4dafb88cdaff4107c174,,1,8bbe4dafb88cdaff4107c174
二七剧场路东里新-25号楼,39.919017,116.355039,北京市西城区南礼士路三条与地藏庵北巷交叉口西北100米,c8f12ae88d7904f31b94c690,,1,c8f12ae88d7904f31b94c690
二七剧场路1-8号,39.919229,116.352055,北京市西城区三里河东路小区(三里河二区东北100米),10d752e6be3a55fb58f6be26,,1,10d752e6be3a55fb58f6be26
二七剧场路东里铁道部第二住宅区-东7门,39.915424,116.354156,南礼士路头条,,,1,83f4bca104aa3cc6a8059de4
二七剧场路13号院-西北门,39.915649,116.351476,三里河东路57号附近,402c507a3426bd85fa42b274,,1,402c507a3426bd85fa42b274
二七剧场东里/南礼士路头条(路口),39.915162,116.354281,北京市西城区,d6a93803a4203105a8f0cd23,,1,d6a93803a4203105a8f0cd23
二七剧场站自行车租赁点,39.919506,116.35313,北京市西城区月坛南街万丰怡和商务会馆,4e799ee8318421c5ed74f8f8,,1,4e799ee8318421c5ed74f8f8
二七剧场路东里铁道部第二住宅区(东6门),39.915773,116.354162,北京市西城区南礼士路头条,4757da2d635304af08ccdddc,,1,4757da2d635304af08ccdddc
二七剧场路东里铁道部第二住宅区-东3门,39.916674,116.354187,北京市西城区二七剧场路新7楼附近,2f2fa85a4d56f4ac8bf15dc2,,1,2f2fa85a4d56f4ac8bf15dc2
二七剧场路东里铁道部第二住宅区(东二门),39.916885,116.35419,二七剧场东里与南礼士路二条交叉口西50米,b23cd56d825c76c50482c248,,1,b23cd56d825c76c50482c248
二七剧场路/复兴门外大街(路口),39.912976,116.352959,北京市西城区复兴门外大街,8ab0dfc41ddf5268d8eced76,,1,8ab0dfc41ddf5268d8eced76
二七剧场路小区-东3门,39.91894,116.352814,月坛二七剧场路19号,ec84ffd341e74dc8aecb6619,,1,ec84ffd341e74dc8aecb6619
二七剧场路小区-东2门,39.91941,116.352721,二七剧场路1,a54e8215609e3b58b5f42f98,,1,a54e8215609e3b58b5f42f98
国家话剧院剧场地下停车场-出口,39.896709,116.343731,北京市西城区甘石桥北巷3号北80米,c6c03bdc30128a345bf6be58,,1,c6c03bdc30128a345bf6be58
二七剧场路东里新22-2号,39.919285,116.354489,北京市西城区铁道部第二住宅区北区(月坛公园西南),f457812aead33c784e2fdf14,,1,f457812aead33c784e2fdf14
二七剧场路/南礼士路三条(路口),39.917964,116.353007,北京市西城区二七剧场路,,,1,006f6869e4dbd9b16ec02ca3
中国新说唱国内海选场地,39.744761,116.427784,北京市大兴区金盛大街2号院18栋,,,1,0ddbc822b245164716c905e0
中国歌剧舞剧院舞台美术工作部-东门,39.755049,116.563097,马桥路229号,7ec14dc2105736682fb908ad,,1,7ec14dc2105736682fb908ad
中国歌剧舞剧院,39.755052,116.563043,北京市通州区马桥路229号,f24cadcce96a0ae0db1318e7,,1,f24cadcce96a0ae0db1318e7
星光影院园,39.779296,116.369656,北京市大兴区西红门镇北兴路东段2号,ff671e0b5a99c48eb34c49d2,(010)60295656,1,ff671e0b5a99c48eb34c49d2
7D互动影院,39.816448,116.414963,北京市丰台区南苑路88号宝苑国际购物中心2层,df01185d2baf73da7dc8761b,,1,df01185d2baf73da7dc8761b
大地影院(通州米拉家园店),39.766089,116.551999,北京市通州区新海东路1号米拉广场7层,40b680748150bd2897ec841e,(010)80897925,1,40b680748150bd2897ec841e
荣华天地云剧场,39.796622,116.516253,北京市大兴区荣华南路辅路1号荣华天地2楼地下1层荣京东街地铁A口,870c93e782e59d12b020a85a,15910783585,1,870c93e782e59d12b020a85a
大地影院采购中心,39.788612,116.506513,经济技术开发区北京市经济技术开发区地盛西路1号数码庄园c座,21b5a86cfe69554ad1f49ea7,,1,21b5a86cfe69554ad1f49ea7
北京城乡世纪广场-文化艺术剧院,39.808148,116.540038,北京市大兴区科创五街38号北京城乡世纪广场内,ac57f6c002a93aef3fe231e9,,1,ac57f6c002a93aef3fe231e9
北京京剧院,39.858763,116.394215,海户西里30号,72aa2513976bf647077ce802,(010)67265534,1,72aa2513976bf647077ce802
中国评剧大剧院,39.86755,116.397394,北京市丰台区西罗园四区十九号,5e2001d0586da6c615c90572,(010)87266331,1,83fd02e24ddf644915a1909d
大地影院(北京大红门合生广场店),39.862067,116.404018,北京市丰台区果园小区8号楼合生广场6层,a8a3694666631863c42ba1a4,(010)87882365,1,c72895104ba5ca7d5fd4fe6b
少儿戏剧场,39.862154,116.383768,马家堡东里8号,6dc91022c64b46e1eb56fa4c,(010)67561657,1,6dc91022c64b46e1eb56fa4c
中国评剧大剧院-售票处,39.867274,116.397444,北京市丰台区西罗园四区19号,46f0fa0666938f5b9122e000,(010)87266331,1,46f0fa0666938f5b9122e000
马家堡街道戏曲文化中心,39.846735,116.373472,嘉园南街附近,e41c74cd787d325e3913fdec,13901086265,1,e41c74cd787d325e3913fdec
中国评剧大剧院-停车场,39.867261,116.397769,丰台区西罗园四区19号,b533ea4abe3cc13d4f6d46eb,,1,b533ea4abe3cc13d4f6d46eb
北京京剧院-西1门,39.858303,116.393603,海户西里甲30号,55992956cbddce00276e98b6,,1,55992956cbddce00276e98b6
中国评剧大剧院(南1门),39.867258,116.397811,西罗园四区19号,0f6945f863c1bcfd5bf6be5d,,1,0f6945f863c1bcfd5bf6be5d
北京京剧院-停车场,39.85871,116.393488,海户西里甲30号,78f2d59c2a52101efa42b2b0,,1,78f2d59c2a52101efa42b2b0
马家堡街道戏曲文化中心-小剧场,39.846971,116.373574,北京市丰台区角门路南(星空高尔夫球会西),28218fa3efb9013ed02dd61f,,1,28218fa3efb9013ed02dd61f
北方昆曲剧院(新天地写字楼东北)-南门,39.84893,116.395389,马家堡东路附近,917c56225cc8432ab21e3652,,1,917c56225cc8432ab21e3652
北方昆曲剧院,39.848816,116.395475,马家堡东路106号北京恭圣健身中心,,,1,e0c78bca339bf1946240a929
中国评剧大剧院停车场-出入口,39.86717,116.397764,西罗园四区19号,76beeebe3e08b20815a190e3,,1,76beeebe3e08b20815a190e3
北京京剧院-宿舍楼,39.858435,116.394285,北京市丰台区海户西里甲30楼6门901,312c5f15968654c09ee32170,,1,312c5f15968654c09ee32170
笑动百华相声剧场,39.867341,116.397381,中国评剧院二楼小剧场(丰台区西罗园四区19号)；,56add6564425d83178dbd270,(010)87266330,1,56add6564425d83178dbd270
北京京剧院停车场-出入口,39.85871,116.393488,马家堡东路东50米,babc03604683696a9fec2b47,,1,babc03604683696a9fec2b47
街电(大地影院北京大红门合生广场),39.862087,116.403944,北京市丰台区木樨园桥果园小区8号楼合生广场6层,,,1,0b70f945ff3844c76cc02c4f
北京京剧院-京剧艺术体验中心,39.858911,116.393714,北京市丰台区海户西里30号,769e853a317bca90ce04ef26,,1,769e853a317bca90ce04ef26
中国评剧大剧院地上停车场-出入口,39.867204,116.397742,丰台区西罗园四区19号,25e320dba1c244434e554790,,1,25e320dba1c244434e554790
马家堡街道戏曲文化中心小剧场-停车场,39.846468,116.373824,嘉园南街北50米,2f00d33504c3c5f6081cc7b1,,1,2f00d33504c3c5f6081cc7b1
马家堡街道戏曲文化中心小剧场-东南门,39.846434,116.373796,嘉园南街北50米,999b68b74ec918282dfaa75a,,1,999b68b74ec918282dfaa75a
北京京剧院宿舍楼-地下停车场,39.858303,116.39379,丰台区洋桥海户里30号,c6b4d2fc60be3c58badf8f1d,,1,c6b4d2fc60be3c58badf8f1d
北京京剧院宿舍楼地下停车场-出口,39.85835,116.394845,北京市丰台区洋桥海户路海户西里北京京剧院宿舍楼,da4f96d40da4740b89fc06ba,,1,da4f96d40da4740b89fc06ba
北京京剧院宿舍楼地下停车场-入口,39.858295,116.393785,北京市丰台区洋桥海户里30号,174548146bcc7e441676430f,,1,174548146bcc7e441676430f
中国儿童艺术剧院艺术教育实验学校-西门,39.870193,116.404307,管村5号,394f2e36a78aa7bd0f0e6bc0,,1,394f2e36a78aa7bd0f0e6bc0
北京京剧院宿舍楼地下停车场-出入口,39.858228,116.393459,丰台区洋桥海户里30号,4910b0c5a135d4b026d2bbdc,,1,4910b0c5a135d4b026d2bbdc
北京京剧院-西侧占道停车场,39.853843,116.393444,北京市丰台区马家堡东路70号附近,cf7e710548134fc354bffff8,,1,cf7e710548134fc354bffff8
大地影院(十里河铭泽店),39.870258,116.483389,北京市朝阳区周庄嘉园东里32号楼铭泽生活广场A座5层,70bb2394e673a2b3d7851fc9,(010)87156732,1,70bb2394e673a2b3d7851fc9
北京星博正华影院,39.851418,116.438416,丰台区石榴庄路政馨园三区1楼,dbf4d6eedf46b9336fa3cc5a,(010)87688666,1,dbf4d6eedf46b9336fa3cc5a
网尚点播影院·云乐迪(宋家庄扑满山店),39.851579,116.432762,北京市丰台区宋庄路71号院1扑满山大厦3号楼2层,70f61f39ac7da2c130169b81,(010)87640188,1,70f61f39ac7da2c130169b81
全时便利店(中国歌剧舞剧院店),39.864814,116.434213,北京市丰台区南三环东路23号中国歌剧院舞剧院一层东段商业街,e91cc0d38e42cc897ab55c6c,(010)53609712,1,e91cc0d38e42cc897ab55c6c
中国歌剧舞剧院-停车场,39.864604,116.43342,北京市丰台区南三环东路辅路23号院天创盛芳中心,cddd17da893a57740bccdde2,"(010)59752015,(010)63528473",1,cddd17da893a57740bccdde2
JBL私人影院智能家居体验馆,39.865635,116.47377,北京市朝阳区大羊坊路106号居然之家F1,639ab724c3f4af8e3a04b146,,1,639ab724c3f4af8e3a04b146
北京星博正华影院发展有限公司,39.851482,116.438281,政馨园三区5~6号楼-1层,4005d05a458d5a04e7e96533,,1,4005d05a458d5a04e7e96533
北京嘉华美映影院有限公司,39.819172,116.461338,北京市大兴区旧宫大兴区旧宫镇小红门路39号,,,1,0982d0be8645427dcb213d11
中国歌剧舞剧院停车场-入口,39.864583,116.433359,北京市丰台区南三环东路天创盛方中心南门(芳群园南),a9f761d311bb766f01897281,,1,a9f761d311bb766f01897281
中国歌剧舞剧院停车场-出口,39.865052,116.434505,北京市丰台区芳群路,626210f21ce9e72433621240,,1,626210f21ce9e72433621240
星博剧场,39.851417,116.438417,政馨园三区正华影城负一层,897bcfd11e49d59df90cad51,,1,897bcfd11e49d59df90cad51
大地影院(北京垡头永辉店),39.863118,116.511714,北京市朝阳区垡头翠成馨园甲401号永辉超市B1层,d9694e9a89daa6bd88db73ae,(010)56350596,1,d9694e9a89daa6bd88db73ae
华侨城大剧院,39.873434,116.504863,北京市朝阳区金蝉西路欢乐谷门口北侧,cc0849a0bb70e3509503199a,(010)67389558,1,cc0849a0bb70e3509503199a
华侨城·大剧院-金面王朝,39.873137,116.504501,北京市朝阳区东四环厚俸桥-华侨城大剧院内(近欢乐谷),a6925ce5d5fdd87cc17da2a9,(010)67389558,1,a6925ce5d5fdd87cc17da2a9
燕子李三特技实景剧场,39.874535,116.498572,东四环小武基北路欢乐谷内,da52edb2fc72d99574026988,,1,da52edb2fc72d99574026988
北京六零三厂-演播厅,39.868469,116.529117,化工路甲5号(北京六零三厂内),5247a8f71ec272af3904b15a,,1,5247a8f71ec272af3904b15a
欢乐谷华侨城大剧院,39.867999,116.495099,东四环小武基北路北京欢乐谷门口北侧,,(010)51663175,1,1818037b5ba1a1541d58007b
周末轰趴馆(五方桥梦剧场旗舰店),39.864789,116.556856,黄厂路35附近,,,1,37b28de0d5b0930f130daa6b
华侨城·大剧院-入口,39.873137,116.504501,北京市朝阳区东四环小武基北路北京欢乐谷华侨城·大剧院金面王朝内,,,1,d342895f675cc259c42ba160
北京欢乐谷欢乐舞台,39.872087,116.501985,东四环四方桥东南角欢乐谷内,eaff7aec8c743b36a9175a07,,1,eaff7aec8c743b36a9175a07
魔幻剧场,39.874113,116.501699,北京市朝阳区东四环四方桥东南角欢乐谷内,,(010)67383333,1,a920482182b461b6c2f1cf62
魔幻剧场餐厅,39.874063,116.501349,北京市朝阳区欢乐谷,,,1,b6698158dba295eb48cc4af7
街电(大地数字影院垡头永辉店),39.863174,116.511643,垡头翠城馨园401号永辉超市B1层,,,1,795fb8237fb914a1f7e73be0
华侨城·大剧院-贵宾入口,39.873304,116.504394,东四环小武基北路北京欢乐谷华侨城·大剧院金面王朝内,a4590831bb36218438e4a66e,,1,a4590831bb36218438e4a66e
北京天桥艺术中心,39.888693,116.40428,西城区天桥南大街9号楼,785c10b86e32578286420e41,,1,785c10b86e32578286420e41
北京德云社剧场,39.890319,116.404399,北京市西城区北纬路甲1号,5e53af1a5e9b305f4151c0f0,(010)66552122,1,5e53af1a5e9b305f4151c0f0
天桥剧场,39.889537,116.402683,北京市西城区北纬路30号,979a209632811fd5f7eafc6f,,1,979a209632811fd5f7eafc6f
北京地质礼堂剧场,39.928618,116.377759,北京市西城区西四羊肉胡同三十号,04bdf4a38bfb3356344aaeaa,(010)66178928,1,04bdf4a38bfb3356344aaeaa
繁星剧场,39.90721,116.379995,北京西城宣武门内大街抄手胡同64号,07f3c8b578a97c7a6340a9b6,(010)66035486,1,07f3c8b578a97c7a6340a9b6
中国儿童艺术剧院,39.921287,116.414927,北京市东城区东安门大街64号,ee4d3afdf52e84deb42655fc,"(010)65134120,(010)65282515",1,ee4d3afdf52e84deb42655fc
广安门影院,39.889851,116.366039,北京市西城区白广路8号,2a7a25ec48a5e27a6d3e1ba3,(010)63531507,1,2a7a25ec48a5e27a6d3e1ba3
德云社广德楼戏园(前门店),39.902301,116.401415,北京市西城区大栅栏街39号,5e499983f88d153442ab9a9a,,1,5e499983f88d153442ab9a9a
民族文化宫-大剧院,39.914184,116.375357,北京市西城区复兴门内大街49号(民族文化宫东侧),dffd631cd9c9eabc38221c06,(010)83195319,1,dffd631cd9c9eabc38221c06
北京音乐厅,39.912366,116.388987,北京市西城区北新华街1号(西长安街六部口西南角),e6ee2fd275341f482b11d101,"(010)66057006,(010)66055812",1,e6ee2fd275341f482b11d101
德云社(湖广会馆店),39.895014,116.390836,虎坊路3号,,,1,624cffa5b2005b5315a190da
首都剧场,39.927887,116.418334,北京市东城区王府井大街22号,e85e2527b6cf615395f08cd0,(010)85116622,1,e85e2527b6cf615395f08cd0
中山公园音乐堂,39.917238,116.402027,北京市东城区中华路4号中山公园内,,"(010)65598285,(010)65598306",1,8affc02e33b9aebe0b69d99a
西部马华牛肉面(先锋剧场店),39.916698,116.42299,北京市东城区东单三条8-16号东方广场东配楼B1层,53414131c91d2d77ab0dd896,(010)65285640,1,53414131c91d2d77ab0dd896
北京人民艺术剧院,39.927886,116.418494,北京市东城区王府井大街22号(首都剧场3层),3a4f1aadf907fc238f1a89fd,(010)65121598,1,3a4f1aadf907fc238f1a89fd
中国国家话剧院先锋剧场,39.91656,116.423591,北京市东城区东单三条8-2号,1a6dfc0631eed8960b69d933,(010)65276911,1,1a6dfc0631eed8960b69d933
超剧场,39.911572,116.421294,台基厂二条5号,eb9c459f1f6dc007f33cba3e,(010)84922237,1,eb9c459f1f6dc007f33cba3e
德云社北京相声大会,39.902204,116.401421,北京市西城区前门大栅栏街39号(大栅栏西口内50米路北)广德楼戏园,f91fcdf460740b2508f5eb17,(010)63032278,1,f91fcdf460740b2508f5eb17
呷哺呷哺(东单先锋剧场店),39.916603,116.423094,北京市东城区东单三条8-2号国华大厦内地下一层,1d4892f8a4047abbc27da286,(010)65287121,1,1d4892f8a4047abbc27da286
blue note,39.907684,116.407472,北京市东城区前门东大街23号,481ea29486b15d63c16c1431,17000000288,1,481ea29486b15d63c16c1431
北京梨园剧场,39.892919,116.392254,北京市西城区永安路175号前门建国饭店1楼(虎坊桥南侧),435d7aea8be3dc2c5bbbbca4,(010)83157297,1,435d7aea8be3dc2c5bbbbca4
开心麻花剧场,39.928774,116.377986,北京市西城区羊肉胡同30号地质礼堂,c50a5063bae5a464e215f99e,(010)66167994,1,c50a5063bae5a464e215f99e
北京人民艺术剧院菊隐剧场,39.924233,116.423949,北京市东城区东四南大街143号,ddcc7d4fba1a36ab9de321c8,,1,ddcc7d4fba1a36ab9de321c8
天乐园大戏楼,39.902334,116.407324,北京市东城区前门东路鲜鱼口胡同68号,4b582cf3ba4249466318090a,,1,4b582cf3ba4249466318090a
新东安影院(北京apm店),39.921235,116.418505,王府井大街138号北京apm6层640,,(010)85114393,1,e1d4f339f97a5c3ec51b75d1
中央音乐学院-音乐厅,39.909241,116.366579,西城区鲍家街43号中央音乐学院内,fa18761b28eae24fe01103fc,(010)66425746,1,fa18761b28eae24fe01103fc
泰山皮影体验馆,39.904575,116.40461,北京市东城区前门大街2号大北照相馆东侧,fd5bcd9039976a844151c0aa,,1,fd5bcd9039976a844151c0aa
湖广会馆-大戏楼,39.895052,116.390834,西城区虎坊路3号,1020060fe3a36aa61894c6f0,(010)63518284,1,1020060fe3a36aa61894c6f0
假日经典小剧场,39.921075,116.414228,东城区东安门大街64号儿童剧场4楼,3ec52cd60bad3a5fb320a807,(010)65211425,1,3ec52cd60bad3a5fb320a807
国家大剧院-咖啡厅,39.911245,116.3962,国家大剧院1层公共空间东西两侧,a5097bfaca96a77af03cba52,(010)66550502,1,a5097bfaca96a77af03cba52
天桥剧场-售票处,39.889658,116.403008,北京市西城区北纬路30号,b543a23e43f7bbf6d1ff2341,(010)83156170,1,b543a23e43f7bbf6d1ff2341
国家大剧院西餐厅,39.911207,116.396221,西城区西长安街2号国家大剧院4楼(近人民大会堂西门),dfc496b605bc16b68836eee6,(010)66550111,1,dfc496b605bc16b68836eee6
北京人民艺术剧院戏剧博物馆,39.927751,116.418417,北京市东城区王府井大街22号,06fe4e7eba78c114c9213dfe,(010)85120003,1,06fe4e7eba78c114c9213dfe
团城,39.929267,116.395606,北京市西城区文津街1号北海南门团城,79cceb3609a1ac891e580002,,1,79cceb3609a1ac891e580002
北方昆曲剧院,39.88439,116.382587,陶然亭路14号,af1ae56b4f1379124207c1f0,,1,af1ae56b4f1379124207c1f0
国家大剧院-戏剧场,39.91123,116.396272,西长安街2号国家大剧院,ee13abad13ff1100fa0cada3,,1,ee13abad13ff1100fa0cada3
金沙剧场,39.894506,116.390741,北京市西城区虎坊路7号(虎坊桥湖广会馆南侧),7c71500cd5d68374fbf0cb89,(010)59421679,1,7c71500cd5d68374fbf0cb89
魁德社,39.904379,116.395433,北京市西城区延寿街甲7,bee1a3920f9fc54d88fc06e9,(010)63179884,1,bee1a3920f9fc54d88fc06e9
鑫融剧院,39.882908,116.364413,北京市西城区白纸坊街23号,72e57fd7ddffacaff8dc85f6,,1,72e57fd7ddffacaff8dc85f6
印象北京相声剧场,39.895047,116.420056,天坛路西院子四巷16号,ef5f3725f368f87ae60738a5,,1,ef5f3725f368f87ae60738a5
中央音乐学院-歌剧音乐厅,39.908945,116.367651,北京市西城区鲍家街2号,,,1,4cc4aacd5032a510d7851f9d
中国儿童剧场-售票处,39.921204,116.415058,北京市东城区东安门大街64号(东华门路口东南),e5b17883f4133859cafa5f45,"(010)65211425,(010)65280891",1,e5b17883f4133859cafa5f45
国家大剧院-北门,39.913144,116.396126,西长安街2号,eb6bff76c044ef0e33169b1c,,1,eb6bff76c044ef0e33169b1c
国家大剧院停车场-入口,39.912727,116.394783,北京市西城区石碑胡同4号,f790f14c1a3b66ceb23c819d,,1,f790f14c1a3b66ceb23c819d
正乙祠戏楼,39.905024,116.392531,北京市西城区前门西河沿街220号,c38f778adf01bc93b04c49ec,,1,c38f778adf01bc93b04c49ec
天乐园大剧场,39.90255,116.407238,鲜鱼口街68,b71b251503f3942e2fb96d26,,1,b71b251503f3942e2fb96d26
丑小鸭亲子剧场(天桥店),39.890141,116.403798,"北京市西城区北纬路天桥市场95号(天桥杂技剧场内,近德云社)",1fe31adcb9bd05cc3b221ccb,13331078283,1,2e2d9a85950a536a15a19084
国家大剧院-停车场,39.912726,116.394741,北京市西城区西长安街2号,15f1b2f4723c6230afee7a21,(010)66550000,1,15f1b2f4723c6230afee7a21
国家大剧院-售票处,39.912941,116.396067,西长安街2号北门大厅,1976d158a894fd20715e8017,,1,1976d158a894fd20715e8017
国家大剧院停车场,39.912767,116.397748,北京市西城区人大会堂西路与西长安街交叉口南150米,71a99f96342deefd283a9fa9,,1,71a99f96342deefd283a9fa9
国家大剧院-音乐厅,39.911043,116.396157,西长安街2号,50391ef7935fa3df4207c1b3,"(010)51662182,(010)51664621,(010)66550111",1,50391ef7935fa3df4207c1b3
国家大剧院-南门,39.90962,116.396234,西长安街2南门,86e2a79f8fa9819f40afe696,,1,86e2a79f8fa9819f40afe696
国家大剧院-地下专用停车场,39.909384,116.397487,北京市西城区西长安街2,3980f4ad1c40fdcb2902e157,,1,3980f4ad1c40fdcb2902e157
天桥剧场-停车场,39.88983,116.403316,北纬路30号,cdef4edffeaa6a3329d7ab8b,,1,cdef4edffeaa6a3329d7ab8b
国家大剧院-小剧场,39.910755,116.396328,北京市西城区羊毛胡同14号大剧院里面,0e5d09a54f8587c9932ca3ed,(010)66550000,1,0e5d09a54f8587c9932ca3ed
京演民族文化宫大剧院售票处,39.914152,116.376465,北京市西城区复兴门内大街49-5号南50米,,,1,e488841fa67d64e8b75f1edd
天桥剧场-西门,39.889378,116.401984,北京市西城区北纬路30号,f1cda0d29d319c25bca8229b,,1,f1cda0d29d319c25bca8229b
中国歌剧舞剧院家属区,39.888441,116.392314,北京市西城区南华东街2号,4edf9fbff1031094cc06a4f0,,1,4edf9fbff1031094cc06a4f0
天桥剧场-东门,39.889322,116.40343,北纬路与天桥市场斜街交叉口南100米,ba084cbe247049d571455b77,,1,ba084cbe247049d571455b77
宣南书馆,39.891706,116.404557,北京市西城区天桥南大街1号地下一层,,,1,53b6fc1f3f1512d6283a9f0a
中国儿童剧场-正门,39.921315,116.414897,北京市东城区东安门大街64号(王府井步行街北口往西200米路南),9bd1c008ac0acadcf33cba99,,1,9bd1c008ac0acadcf33cba99
天桥剧场地下停车场-入口,39.889388,116.403436,西城区北纬路30号,8e10f12fbf8fa0dfe311032a,,1,8e10f12fbf8fa0dfe311032a
国家大剧院地下B2停车场-西出入口,39.912718,116.394769,北京市西城区国家大剧院,9402c8dc0bc56525047ce83e,,1,9402c8dc0bc56525047ce83e
中国歌剧舞剧院,39.888602,116.392097,南华东街2号,,,1,a48d38a99620cbe9da2f28e0
万胜剧场,39.890108,116.40382,天桥市场街95号,,,1,9986d99041b373c21b11d5da
首都剧场-地上停车场,39.927957,116.417933,东城区王府井大街22号,05239b798a1c473514c8f6d0,,1,05239b798a1c473514c8f6d0
首都剧场-北门,39.92817,116.418378,北京市东城区王府井大街6号附近,af95a5fd52e547194afc8deb,,1,af95a5fd52e547194afc8deb
国家大剧院-停车场,39.911019,116.396133,北京市西城区西长安街2号,2adff4083864345675e5b6e7,,1,2adff4083864345675e5b6e7
刘老根大舞台北京剧场-停车场,39.899634,116.407072,小江胡同34号,108b1cea48026faf3586f437,(010)67055518,1,108b1cea48026faf3586f437
天桥剧场-北门,39.889722,116.402735,北纬路30号,280f60d294659672c9c3dbfe,,1,280f60d294659672c9c3dbfe
4D影院,39.889581,116.406443,天桥南大街126号北京自然博物馆内,9254454db8ec025640afe656,,1,9254454db8ec025640afe656
首都剧场戏剧书店,39.927875,116.418121,北京市东城区王府井大街22号首都剧场内,,(010)65246789,1,a8cb087d2a871a0c60180960
阳平会馆戏楼,39.899741,116.406547,北京城内崇文区小江胡同36号,bee1342d03b972297c29bd19,,1,bee1342d03b972297c29bd19
龙在天皮影小剧场,39.902393,116.403119,北京市西城区前门西大街大栅栏步行街7号京华聚宝城内二楼,61a765a20410a055bda2400d,,1,61a765a20410a055bda2400d
国家大剧院停车场-出入口,39.912793,116.397787,北京市西城区西长安街2号,725ec431f3242f6c8505bff9,,1,725ec431f3242f6c8505bff9
中国国家大剧院地下停车场-出入口,39.912955,116.397884,西城区西长安街2号,33183a389beaf1ea1b94c644,,1,33183a389beaf1ea1b94c644
崇文剧场,39.901954,116.423879,北京市东城区崇外大街7-1号附近,,,1,f1f4c630b1f1c23cc6effb7c
德云书场,39.893093,116.407266,北京市东城区天坛路36号附近,,(010)63040912,1,d3f84fba1271b176b726557f
国家大剧院地下B2停车场-东出入口,39.912831,116.397846,北京市西城区人民大会堂西北,0bc7051a4b2eaafd7ab55c86,,1,0bc7051a4b2eaafd7ab55c86
鑫融剧院-地面停车场,39.882811,116.36404,北京市西城区白纸坊街16号鑫融剧院,2aded82df25a11731894c6c9,,1,2aded82df25a11731894c6c9
开心麻花剧场-停车场,39.928877,116.377993,北京市西城区羊肉胡同,3f174a0e78e688d94afc8d7c,,1,3f174a0e78e688d94afc8d7c
国家大剧院-女公共厕所,39.912598,116.396243,北京市西城区西长安街2号国家大剧院1楼,a78d5c35687253d522f01777,,1,a78d5c35687253d522f01777
民族文化宫大剧院-停车场,39.913595,116.375241,西城区复内大街49号,14076dee6603ac8903294f90,(010)66017338,1,14076dee6603ac8903294f90
西城公安分局国家大剧院派出所,39.908302,116.38935,新壁街3号,b3aa435d8150410915764324,,1,b3aa435d8150410915764324
鑫融剧院-西门,39.882814,116.363865,白纸坊街16号,0c2a2e7ee953fd73d6b74e20,,1,0c2a2e7ee953fd73d6b74e20
中国歌剧舞剧院-考级委员会,39.889084,116.392306,北京市西城区南华东街2号(中国歌剧舞剧院家属区内),35c15e664b52dca2e9f85396,(010)63552594,1,35c15e664b52dca2e9f85396
国家大剧院内部停车场(西南坡道出入口),39.90914,116.395011,北京市西城区兵部洼胡同49号,9130c9e09077644209b93aaf,,1,0ed20a155b5bbce957bfff24
中国儿童剧场-北门,39.921555,116.414838,东安门大街64号(王府井步行街北口往西200米路南),,,1,2b1d2dbf3e9776f621f017a7
皮影范剧场,39.904703,116.404891,北京市东城区前门大街2号(大北照相馆东侧1层),,(010)67015775,1,ad27428c038b751081288ae7
国家大剧院-男洗手间,39.912955,116.396085,西长安街2号国家大剧院1楼,f4f22bd079206481bea24015,,1,f4f22bd079206481bea24015
国家大剧院停车场-东出入口,39.912855,116.397803,人大会堂西路与西长安街交叉口西南150米,841b964cba8bb379a2a93421,,1,841b964cba8bb379a2a93421
民族文化宫大剧院停车场-出入口,39.913575,116.374391,北京市西城区西单复兴门内大街民族文化宫,81f7a2627f10ea514c3a5980,,1,81f7a2627f10ea514c3a5980
中国国家大剧院地下停车场-出入口,39.912774,116.394714,西城区西长安街2号,,,1,2da539959ea905565f17c3a2
国家大剧院停车场(西北坡道出入口),39.912734,116.394746,北京市西城区石碑胡同11号旁门附近,637df60acb72977240afe601,,1,637df60acb72977240afe601
中和戏院,39.902244,116.404395,粮食店街5号,,,1,39f174451c2aeba9ede4a504
民族文化宫大剧院停车场-出入口,39.913582,116.376421,北京市西城区复兴门内大街49号,90a17c44d32aa93281a12ed5,,1,90a17c44d32aa93281a12ed5
中国歌剧舞剧院家属区-北门,39.888774,116.392089,南华东街2号,39d90d9c7a5e8eb342d63e94,,1,39d90d9c7a5e8eb342d63e94
开心麻花剧场停车场-出入口,39.928912,116.3781,北京市西城区羊肉胡同,34e461724e4f98330482c293,,1,34e461724e4f98330482c293
国家大剧院-内部停车场,39.909232,116.394595,北京市西城区国家大剧院,6139e7ce2e2b4131d92f28d9,,1,6139e7ce2e2b4131d92f28d9
国家电网充电站(国家大剧院),39.912692,116.397835,北京市西城区西长安街2号人民大会堂西侧,401f659e799bd0b2f4231032,,1,401f659e799bd0b2f4231032
国家大剧院停车场-出口,39.912541,116.395394,北京市西城区石碑胡同4号,47f56fc29f43d0ef4d776e42,,1,47f56fc29f43d0ef4d776e42
国家大剧院-西侧住房和环境改善项目二标段办公室,39.91248,116.392892,北京市西城区铜井大院12号,0d24a96175198ea71fe99906,,1,0d24a96175198ea71fe99906
首都电影院VIP厅(西单大悦城),39.917368,116.379878,北京市西城区西单北大街甲131号F10层,76667169dd0b1c0c167643c3,,1,76667169dd0b1c0c167643c3
北方昆曲剧院-北门,39.884641,116.382376,陶然亭路14号,e360fcec37af4f1f80a00c9d,,1,e360fcec37af4f1f80a00c9d
国家大剧院-停车场(西长安街街道联合执法小分队北),39.909311,116.394512,兵部洼胡同,e3c010e67ee4da7e2dfaa736,,1,e3c010e67ee4da7e2dfaa736
国家大剧院停车场-出入口,39.909141,116.397402,人大会堂西路与红井胡同交叉口西50米,d0930114b20d5629b72655fe,,1,d0930114b20d5629b72655fe
北京人民艺术剧院北京国际戏剧中心工程项目管理部,39.928087,116.418409,北京市东城区报房胡同128号附近,,,1,c7234ed4a1718b1f51e5c5de
北京市公安局西城分局国家大剧院派出所-停车场,39.908437,116.389455,新壁街45-53号附近,52de9d3a7b8698477adbd2e4,,1,52de9d3a7b8698477adbd2e4
开心麻花剧场-售票处,39.928714,116.377985,北京市西城区羊肉胡同30号,3dc4dc4e28b665bbcae33c1d,,1,3dc4dc4e28b665bbcae33c1d
北京市公安局西城分局国家大剧院派出所停车场-入口,39.908319,116.389922,新壁街与西交民巷交叉口西100米,4089cf1f04271ad1b320a883,,1,4089cf1f04271ad1b320a883
街电(人艺实验剧场),39.92786,116.418212,北京市东城区王府井大街22号,,,1,1da379df4dc8b1ec72210bef
民族文化宫大剧院-南门,39.91342,116.376532,北京市西城区复兴门内大街49号,,,1,f526a71a8abf77fc1df74dd3
天桥剧场停车场-出口,39.889716,116.403355,北京市西城区北纬路30号,c9ee995bb9608a8828b97cd7,,1,c9ee995bb9608a8828b97cd7
国家大剧院派出所-南门,39.908277,116.38978,北京市西城区新壁街3号,6462726e800e865814948e06,,1,6462726e800e865814948e06
街电(民族文化宫大剧院),39.913877,116.376234,北京市西城区复兴门内大街49民族文化宫,,,1,31ebb40ae9ff8ea82cb17e55
中国歌剧舞剧院艺术培训中心,39.888602,116.392097,北京市西城区南华东街2号,8add8c3066a843a1c4f50d3d,,1,8add8c3066a843a1c4f50d3d
北京人民艺术剧院演出中心,39.927888,116.417963,北京市东城区东华门街道王府井大街22号北京人民艺术剧院演出中心,,,1,7165dd03ceebdd755e17c312
天桥剧场贵宾通道,39.889378,116.401984,福长街50号,22c5d33bd0ca4fc91811d5bf,,1,22c5d33bd0ca4fc91811d5bf
首都电影院13号厅(西单大悦城),39.917056,116.379772,西单北大街甲131号西单大悦城10F层,4848912a2e27e86cc42ba147,,1,4848912a2e27e86cc42ba147
首都剧场地上停车场-出入口,39.928106,116.417441,王府井大街22号,6c635dec031c977543e19253,,1,6c635dec031c977543e19253
天桥剧场地下停车场-出口,39.889705,116.403442,西城区北纬路30号,06dc0c45be97fbc80b1cc744,,1,06dc0c45be97fbc80b1cc744
首都电影院12号厅(西单大悦城),39.916961,116.379791,西单北大街甲131号西单大悦城10F层,f84604ea7922ce2094ca07aa,,1,f84604ea7922ce2094ca07aa
儿童艺术剧院宿舍-2号楼,39.916179,116.426048,东单北大街北极阁三条32号,8366249b241ebbc32902e1d4,,1,8366249b241ebbc32902e1d4
儿童艺术剧院宿舍-1号楼,39.916077,116.425752,北京市东城区东单儿童艺术剧院宿舍1号楼,6ce66a60c41c04448733047a,,1,6ce66a60c41c04448733047a
北京人民艺术剧院停车场-出入口,39.92763,116.417501,北京市东城区小鹁鸽胡同,ae7d40cf9c5fae7242d63e45,,1,ae7d40cf9c5fae7242d63e45
北京市公安局西城分局国家大剧院派出所停车场-出口,39.908255,116.388948,新壁街43号附近,c8e93ce2650e0352f7231008,,1,c8e93ce2650e0352f7231008
首都电影院11号厅(西单大悦城),39.916816,116.379793,西单北大街甲131号西单大悦城10F层,,,1,ef21eb6acc8c7119fea778f3
元明清幻影院,39.906304,116.407871,北京市东城区前门东大街20号北京规划展览馆3楼,,(010)67024559,1,1c70d3b3888b8680f03cbac4
歌舞剧院住宅区,39.881425,116.394502,西城区太平街18号,dbabc2df33fb2b4328b97cd2,,1,dbabc2df33fb2b4328b97cd2
金沙剧场-入口,39.894278,116.390763,虎坊路7号附近,1514ec305bf50367a5da3927,,1,1514ec305bf50367a5da3927
金沙剧场杂技团,39.894364,116.390968,北京市西城区虎坊路7号,a0b32b0a31a2d23cc9291564,,1,a0b32b0a31a2d23cc9291564
朝阳剧场,39.927998,116.46874,北京市朝阳区东三环北路36号,81d6a509b8933c596e20b953,(010)65060838,1,81d6a509b8933c596e20b953
红剧场,39.891766,116.438217,北京市东城区幸福大街44号,5211d219d6e2fd587dc876e1,(010)52865388,1,5211d219d6e2fd587dc876e1
长安大剧院,39.915411,116.436813,北京市东城区建国门内大街7号光华长安大厦,85e14b68d90abc5ca8175a75,(010)65101309,1,85e14b68d90abc5ca8175a75
m剧场,39.918428,116.479819,北京市朝阳区光华路4号东方梅地亚中心B座3层,aa30d9f6ad17eb1b7f29bd44,(010)85570234,1,aa30d9f6ad17eb1b7f29bd44
9剧场,39.922696,116.477073,北京市朝阳区金台路17号,f205e4af7dd647e771210bf0,(010)85991188,1,f205e4af7dd647e771210bf0
大隐剧院(北京旗舰店),39.922645,116.459959,北京市朝阳区光华路9号世贸天阶C座时尚大厦5楼(近东大桥路),24d05508607855b613882487,(010)65895559,1,24d05508607855b613882487
北京歌舞剧院,39.898018,116.46896,北京市朝阳区东三环南路双井地铁站附近,d9cc35b8fa4b410833621298,(010)67761508,1,d9cc35b8fa4b410833621298
雷动天下剧场,39.908006,116.481596,西大望路下甸厂坡村16号,ac9507e5b10497e578f796cf,(010)64054842,1,ac9507e5b10497e578f796cf
国都大剧院,39.877602,116.465055,北京市朝阳区华威南路华威里27号,a031cc253be616d608f5eb7d,,1,0baee659b472da7d43afe624
千禧汇影院足道SPA,39.898743,116.478991,广渠路38号联拓大厦四层,c64f635a526ff92109a8d408,(010)58496835,1,c64f635a526ff92109a8d408
BTV大剧院,39.911864,116.474777,朝阳区建国路98号北京电视台内,bd93aa84acaba555d1f49ef7,,1,bd93aa84acaba555d1f49ef7
零距离水吧(朝阳剧场店),39.928096,116.469094,东三环北路36号,081cacc7c6681938f2193770,13811635787,1,081cacc7c6681938f2193770
华彬剧院,39.912451,116.45828,朝阳区建国门外大街永安东里8号(近双子座大厦),480b24d05aea06f29cec2bfc,(010)85288528,1,480b24d05aea06f29cec2bfc
朝阳剧场-售票处,39.927855,116.468951,东三环北路36号朝阳剧场写字楼,d4a4b8ef56b4d6cac1f1cf8e,"(010)65060837,(010)65068116,(010)65072421",1,d4a4b8ef56b4d6cac1f1cf8e
朝阳剧场食品店,39.928222,116.469176,北京市朝阳区东三环北路36号朝阳剧场旁,61b350ad1384532ed12dd6ca,13681270009,1,61b350ad1384532ed12dd6ca
长安大戏院-正门,39.91541,116.436805,北京市东城区建国门内大街7号光华长安大厦,4edf9fbfd5cd7ce9cc06a45d,,1,4edf9fbfd5cd7ce9cc06a45d
朝阳剧场-停车场,39.928355,116.468865,北京市朝阳区东三环北路36号,564046ed13f5ce735e17c35e,,1,564046ed13f5ce735e17c35e
潘家园百姓大舞台,39.879844,116.472168,北京市朝阳区松榆西里甲26,9405d1b5a01d0cd8734b87ce,,1,9405d1b5a01d0cd8734b87ce
国家大剧院艺术创作中心,39.91845,116.429482,西总布胡同27号,19187cf6fa6ddecfc61b7563,,1,19187cf6fa6ddecfc61b7563
朝阳区文化馆9剧场-售票处,39.922712,116.477115,北京市朝阳区金台里17号,f140a2bf1a5946967dc876f2,,1,f140a2bf1a5946967dc876f2
中国国家歌剧院,39.884087,116.463186,北京市朝阳区松榆北路3号楼一层东北90米,2019a081aa10b09a77026912,,1,2019a081aa10b09a77026912
J CINEMA极光点播影院(合生汇店),39.899724,116.487169,合生汇商场B1-21街区,,13621224131,1,2d33a33049e941d3df1e527d
桥艺术中心,39.913251,116.490923,北京市朝阳区建国路78号(近大望桥)桥艺术中心,1664bd9971a92de440afe646,(010)85800260,1,1664bd9971a92de440afe646
朝阳剧场-杂技大世界,39.928178,116.469051,北京市朝阳区东三环北路36号朝阳剧场,3b61a2199189dd55f5c59c83,"(010)65011555,(010)65060838",1,3b61a2199189dd55f5c59c83
惬意私人影院公寓,39.900559,116.471566,北京市朝阳区双井街道时代国际嘉园,,13723230209,1,de10e0547d15e564c6effba0
北京歌剧舞剧院-西门,39.897907,116.468428,双井1号,a137e1055a7f647f27d2bb79,,1,a137e1055a7f647f27d2bb79
华彬歌剧院-正门,39.91245,116.458322,北京市朝阳区永安东里8号,5f6a64785b880dcfad080f8e,,1,5f6a64785b880dcfad080f8e
北京歌剧舞剧院停车场,39.898058,116.468806,北京市朝阳区双井1号,,,1,e520e169ebe9929b4bcc4a66
瑞迪影音私人影院,39.93021,116.449088,北京市朝阳区吉祥里209号b201,4b9304c1928469df5fbe86f5,,1,4b9304c1928469df5fbe86f5
影院足道养生SPA,39.88162,116.454025,北京市朝阳区潘家园路,,,1,efdb85adfb37938ebca822ab
朝阳剧场自助取票区,39.928012,116.468795,东三环北路36-1号楼附近,dd27c9e56a82ad9071455b0b,,1,dd27c9e56a82ad9071455b0b
朝阳剧场写字楼-北门,39.928239,116.46935,东三环北路36,207dfbc56fc27aa5233bf295,,1,207dfbc56fc27aa5233bf295
北京朝外小庄朝阳区文化馆话剧,39.922586,116.477131,北京朝外小庄朝阳区文化馆(朝阳9剧场),becd162074a847a6d22dd62e,(010)85993958,1,becd162074a847a6d22dd62e
朝阳剧场地上停车场-出入口,39.927874,116.468552,东三环北路36号,73edf96a049477c64e2fdf59,,1,73edf96a049477c64e2fdf59
朝阳剧场-写字楼,39.928085,116.469144,朝阳区东三环北路36号,edd64ce1a5f39a913ee2318f,(010)65089631,1,edd64ce1a5f39a913ee2318f
光华路5号国际会展中心三楼湖西岛音乐厅,39.919818,116.462689,北京市朝阳区光华路5号世纪财富中心北座3层,04e90c02406b337e9a005050,,1,04e90c02406b337e9a005050
朝阳剧场雨夜文玩,39.928268,116.4691,东三环北路36临甲3号附近,,,1,95c51be50f837558abf729cc
3D高清数字影院,39.918568,116.479862,光华路4号东方梅地亚中心B座,8232b30f93a8bde39122e0f8,,1,8232b30f93a8bde39122e0f8
朝阳剧场写字楼-西门,39.927874,116.468759,东三环北路36号朝阳剧场写字楼,33b3f53c95a915cbab0dd817,,1,33b3f53c95a915cbab0dd817
中国国家歌剧院架松宿舍-停车场,39.88375,116.463358,北京市朝阳区华威北里46号附近,ee8e013ef7ea810f0869d914,,1,ee8e013ef7ea810f0869d914
中国国家歌剧院架松宿舍(北门),39.883997,116.464703,东架松1号,5acba25b1be6876cab0dd889,,1,5acba25b1be6876cab0dd889
朝阳剧场艺术培训中心(呼家楼北街),39.928084,116.468864,北京市朝阳区呼家楼北街36号,971465486384cf7eeaf853f1,(010)58346767,1,094d9ff8b150bd7f09a8d45e
国家大剧院艺术创作中心-南门,39.918322,116.429363,春雨胡同与西总布胡同交叉口西150米,,,1,2f11ffd1c9bf8de371210b2c
中国国家歌剧院架松宿舍,39.883837,116.463816,北京市朝阳区华威北里社区文化站附近,567a2e09f255f769d0ff2332,,1,567a2e09f255f769d0ff2332
北京歌舞剧院有限责任公司,39.89803,116.468659,双井1号,373cf7572dc0e96e4254d7b6,(010)51290300,1,373cf7572dc0e96e4254d7b6
朝阳剧场-物业办公室,39.928256,116.469349,东三环北路36号朝阳剧场写字楼210,d66acd138d757726c356ac8c,,1,d66acd138d757726c356ac8c
中国国家歌剧院架松宿舍-西2门,39.883834,116.46287,北京市朝阳区华威北里社区文化站附近,abd5a226055a779e14c8f62b,,1,abd5a226055a779e14c8f62b
中国国家歌剧院架松宿舍-北1门,39.884121,116.463565,北京市朝阳区华威北里社区文化站附近,cfd33c20c78d4b33e50738f9,,1,cfd33c20c78d4b33e50738f9
幸福小剧场-西门,39.891486,116.438088,幸福大街137号附近,,,1,28134c60d67787258e1a898a
北京工业大学-剧场设计与舞台技术研究所,39.877972,116.487315,北京市朝阳区平乐园100号北京工业大学,ab78603b9e29e721eee4a537,,1,ab78603b9e29e721eee4a537
喵果儿主题私享影院(百子湾店),39.904856,116.499777,北京市朝阳区百子湾东四环辅路大成国际公寓3号楼B座底商110号,,18500442235,1,606ae892e67a76c8631809f1
东亿天弘TV演播大厅,39.918488,116.544799,北京市朝阳区朝阳路高井文化园路8号,083a55fa9d11f107256e9881,(010)85769090,1,083a55fa9d11f107256e9881
哈根达斯(朝北影院店),39.930015,116.525252,北京市朝阳区朝阳北路101号朝阳大悦城F1,8da4191162b1b7fc9e82eaf4,(010)85517258,1,680fb703686203858ab988f3
圣宠宠物(百子湾宠物剧场店),39.901595,116.511696,北京市朝阳区百子湾东里320号楼1层320-9-2号,422107e9c0813960b8bd635b,"18511564521,17666228731",1,422107e9c0813960b8bd635b
星巴克(北京远洋未来汇影院店),39.922066,116.498881,朝阳区慈云寺北里209号209号楼远洋未来汇购物中心2楼,,(010)85772884,1,835ee5700f45f4546ca3cc31
艺术影院(百子湾厅),39.903144,116.518397,北京市朝阳区百子湾南二路2号,934ab35946513be81fe9994c,,1,934ab35946513be81fe9994c
华声天桥民俗大舞台,39.905327,116.548804,北京市朝阳区文化新大街南北90米,,(010)87739850,1,ce567c7b88f977ad9e82eab4
者尼私人影院,39.924697,116.53222,朝阳区朝阳路85号院电影文化产业园11号楼A座,8cb629f20ad996226f3e1b50,,1,8cb629f20ad996226f3e1b50
smar home智能家居体验馆专业家庭影院,39.910865,116.544257,高碑店东区D21-6,,,1,450b177f14a63fbcd12dd60c
国家京剧院舞美中心,39.908467,116.526606,朝阳区西店村502号,4e43abd5ea0e15812fb17ef2,,1,4e43abd5ea0e15812fb17ef2
尚8剧场,39.918184,116.516396,八里庄陈家林甲2号尚8里文创园附近,68f420b6eae281dc79b55c32,13126959162,1,68f420b6eae281dc79b55c32
7D多人互动影院,39.917378,116.539788,北京市朝阳区建国路,aa6eb773f5b4efec2afc486e,(010)85751243,1,aa6eb773f5b4efec2afc486e
哈根达斯（朝北影院店）,39.930311,116.52487,北京市朝阳区朝阳北路101号朝阳大悦城F8,,(010)85843001,1,34cbb12303854076203bf251
超级剧场,39.925107,116.531973,北京市朝阳区朝阳路85号铜牛电影产业园四号楼3层,,,1,17b90a3d785752960f0a701b
影院足浴养生会所,39.905929,116.505365,北京市朝阳区百子湾南一路与石门中路交叉口北100米,ccfb510c62b12513cbe33c4f,,1,ccfb510c62b12513cbe33c4f
华声戏楼,39.905158,116.548253,朝阳区文化新大街1368号01,2697644400a5433a6fc02c8a,,1,2697644400a5433a6fc02c8a
艺术影院百子湾厅-东北门,39.903234,116.518376,北京市朝阳区百子湾南二路2号附近,,,1,e5ba54ef76ce1b0225d2bb7b
中国歌剧舞剧院艺术培训中心(朝阳路基地),39.921241,116.511047,北京市朝阳区朝阳路乙2号新城市广场2F(麦当劳旁),,(010)85738082,1,6a33bfa40b36be3e2cb17e19
国家京剧院舞美中心-南门,39.908167,116.526309,北京市朝阳区西店村502,049ad5209b888b3cd92f2889,,1,049ad5209b888b3cd92f2889
北京近CBD百子湾-彩色空间家庭影院LOFT复式,39.900623,116.511005,北京市朝阳区百子湾地铁沿海赛洛城,d719466965817567ad31e578,4006061230-79146,1,d719466965817567ad31e578
紫檀宫-开放式影视厅,39.916633,116.53252,北京市朝阳区建国路23号中国紫檀博物馆紫檀宫2楼,e7b2b9cbad51b3fff8dc85fc,,1,e7b2b9cbad51b3fff8dc85fc
TFS剧场CLUB(定福庄店),39.925502,116.567159,北京市朝阳区定福北里一号院22号楼北侧,,,1,7d279ec9ddc6d82b42ab9a91
朝阳1919小剧场,39.91867,116.578214,建国路28号,460b7481483ba3be2806ce3c,,1,460b7481483ba3be2806ce3c
喵果儿主题影院(定福庄店),39.924516,116.569472,北京市朝阳区定福庄路定福庄北里一号院17号楼底商101号,75200a6a759b2d9371455ba0,15101112235,1,75200a6a759b2d9371455ba0
门头沟区影剧院,39.948318,116.107459,北京市门头沟区新桥大街12号,16bc00d706ebead775e5b6a0,(010)69842686,1,16bc00d706ebead775e5b6a0
龙泉会堂,39.967437,116.111343,水闸北路21号,317cdc0f3c52d027081cc739,,1,317cdc0f3c52d027081cc739
大峪街道剧场东街社区,39.949088,116.108467,剧场东街1号楼前平房,c0c73cb10e132937c0364438,(010)69824034,1,c0c73cb10e132937c0364438
剧场东街,39.948321,116.108748,北京市门头沟区,,,0,314bc040ae0a139ece06a41f
影剧院小卖部,39.948156,116.107153,新桥大街14,8e4c5cddfc8b7ea6471a3216,,1,8e4c5cddfc8b7ea6471a3216
大峪街道剧场东街社区-3号楼,39.949012,116.108641,北京市门头沟区剧东社区3号楼(北京市门头沟区医院南),256834b7c349cf3090114c93,,1,256834b7c349cf3090114c93
大峪街道剧场东街社区-12号楼,39.949108,116.107864,北京市门头沟区剧东社区12号楼(北京市门头沟区医院南),7726f5dda5a50b6f931fc9fe,,1,7726f5dda5a50b6f931fc9fe
大峪街道剧场东街社区-8号楼,39.948836,116.109201,北京市门头沟区绿岛家园(北京市门头沟区医院南),12ba88882bdd5c1e78b55c87,,1,12ba88882bdd5c1e78b55c87
北京市门头沟影剧院-停车场,39.948087,116.106965,新桥大街14,45854dd5703ebcc1b21e364d,,1,45854dd5703ebcc1b21e364d
大峪街道剧场东街社区-5号楼,39.949531,116.108493,北京市门头沟区桥西街剧场东街社区剧场东街5号楼,a2a20d50b2dca94c0bccddfb,,1,a2a20d50b2dca94c0bccddfb
门头沟影剧院停车场-出口,39.948322,116.106831,剧场东街与新桥大街交叉口北100米,f844d76e766df9de9e95dee5,,1,f844d76e766df9de9e95dee5
国家电网充电站(门头沟区剧场东街),39.947192,116.108809,北京市门头沟区新桥大街路36号区政府大院北侧,,,1,06aa9a8adca64c96fbf0cbad
门头沟区大峪街道剧场东街社区-西北门,39.949485,116.107998,北京市门头沟区贸易大楼(北京市门头沟区医院南),,,1,7f5b1e173cc702d2316212df
大峪街道剧场东街社区-4号楼,39.949267,116.108566,北京市门头沟区剧东社区4号楼(北京市门头沟区医院南),10f0b6b189dbaf59ee74f816,,1,10f0b6b189dbaf59ee74f816
大峪街道剧场东街社区-2号楼,39.948738,116.108677,北京市门头沟区剧东社区2号楼(北京市门头沟区医院南),3eeac6fe317737c5260bd0bc,,1,3eeac6fe317737c5260bd0bc
大峪街道剧场东街社区-7号楼,39.949393,116.109064,北京市门头沟区龙泉滨河公园北门(北京市门头沟区医院南),0fb8ff076c7d4e4ece04efec,,1,0fb8ff076c7d4e4ece04efec
剧场东街甲-10号楼,39.948421,116.108156,北京市门头沟区龙泉门头沟影剧院东100米(剧场东街),0eedb83f7569f64ce81e9793,,1,0eedb83f7569f64ce81e9793
大峪街道剧场东街社区-9号楼,39.94849,116.108989,北京市门头沟区剧东社区9号楼(门头沟区委北),a5d9709dfe706013b35c6aee,,1,a5d9709dfe706013b35c6aee
国家电网充电站(门头沟区影剧院),39.948173,116.106948,北京市门头沟区新桥大街12号区影剧院停车场,,,1,d6fd5293f118c2c05b109355
剧场东街社区劳动和社会保障工作站,39.948585,116.108476,剧场东街1号附近,1418d6095f033cab7cc876da,,1,1418d6095f033cab7cc876da
盛嘉优时影院,39.941125,116.119641,北京市门头沟区双峪路35号熙旺中心六层盛嘉优时影,,,1,5ded05a8df25788899005002
剧场东街社区-南门,39.948407,116.108252,北京市门头沟区新桥大街14-2号,d8e32e4525fa57b803ff2d34,,1,d8e32e4525fa57b803ff2d34
大峪街道剧场东街社区-10号楼,39.94876,116.10774,北京市门头沟区新桥大街门头沟影剧院附近,7ae5f9c86f3659f96ea3cce7,,1,7ae5f9c86f3659f96ea3cce7
大峪街道剧场东街社区综治中心,39.948657,116.108462,北京市门头沟区剧场东街院1号楼前平房,,,1,33523941a7db1c6ec8213dd1
大峪街道剧场东街社区-1号楼,39.948431,116.108592,北京市门头沟区,888134a3bc4c43614251c06b,,1,888134a3bc4c43614251c06b
剧场东街社区妇女儿童维权工作站,39.948585,116.108476,剧场东街1号附近,e93ee450f8bcc20af82213ee,,1,e93ee450f8bcc20af82213ee
剧场东街顺德粮店,39.948439,116.109043,剧场东街9号楼,,,1,8362870d7b00cb9be3110322
剧场东街社区来京人员和出租房屋服务站,39.948575,116.108422,新桥社区16号楼前平房(警务站),7665298b8e9bc150a4c75629,,1,7665298b8e9bc150a4c75629
剧场东街社区消费者维权工作站,39.948574,116.108467,剧场东街1号附近,19e28e6fba339aa62102623f,,1,19e28e6fba339aa62102623f
剧场东街-11号楼,39.948802,116.107852,北京市门头沟区龙泉新桥大街剧场东街11号楼,0f0502fbefef2f358f55ecb0,,1,0f0502fbefef2f358f55ecb0
剧场东街社区居委会,39.948565,116.108386,剧场东街1号楼前,6d58df3fea2470b5bd484264,,1,6d58df3fea2470b5bd484264
剧场东街/新桥大街(路口),39.947699,116.106695,北京市门头沟区剧场东街,b884a4aef370d6db9900504b,,1,b884a4aef370d6db9900504b
晓磊烟酒超市(剧场东街),39.948385,116.108637,剧场东街1号楼1单元,,"13811621179,(010)69863940",1,99084ee5a12a2446921fc991
影剧院售票处,39.94815,116.107146,北京市门头沟区新桥大街14号附近,,,1,690296740ab7a8de9e82ea91
77时尚主题私人影院,39.939054,116.212748,北京市石景山区西黄村雍景四季北门往东100米底商,,(010)88801822,1,3b5fa8269cc1c68343024585
柳流山房文化剧场,39.963703,116.190732,北京市石景山区八大处路3号八大处公园内,,,1,deca0d1dbadc44f2b320a885
和77点播院线主题影院,39.939209,116.212957,田村路与西黄村路交叉口东南50米,,,1,482bf37e88f07a3190114ce1
中间剧场多功能厅,39.959722,116.238666,杏石口路50号,5128b1f9eac047c02afc480a,(010)62730902,1,5128b1f9eac047c02afc480a
中间剧院剧场-入口,39.959563,116.23846,杏石口路50号附近,df0184f15b5568559868b467,,1,df0184f15b5568559868b467
北展剧场,39.947313,116.350543,北京市西城区西直门外大街135号北京展览馆内,c1653405cd377579ab175a00,(010)68354455,1,c1653405cd377579ab175a00
大地影院(橙天嘉禾影城北京万柳店),39.97921,116.301694,北京市海淀区巴沟路2号华联万柳购物中心5层,baf215493042a1eac9e33c12,(010)82589426,1,baf215493042a1eac9e33c12
解放军军乐厅,39.949576,116.308717,海淀区紫竹院路100号东侧长智路,a66b9e098d550ea51ce99904,,1,a66b9e098d550ea51ce99904
必胜客(海淀剧院店),39.98313,116.324358,北京市海淀区海淀路甲82号,c85cfc41edd6631cc5effb84,(010)82628578,1,c85cfc41edd6631cc5effb84
味多美(海淀剧院店),39.983135,116.32453,北京市海淀区中关村大街26号海淀剧院北侧,2848ffd600937c1648cc4a6b,(010)62560814,1,2848ffd600937c1648cc4a6b
A33剧场,39.936613,116.356619,"北京市西城区车公庄大街4号新华1949园区20栋A33剧场(地铁2号线或6号线车公庄站H口出,官园批发市场西侧)",ecc82dfc75ea7ca175e5b696,(010)68104066,1,ecc82dfc75ea7ca175e5b696
民族剧院,39.958707,116.329212,北京市海淀区中关村南大街19号,0503e25f2568b2849cec2b9f,(010)57052577,1,0503e25f2568b2849cec2b9f
李先生(海淀剧场店),39.981544,116.323651,海淀南路甲2号二层,8b1519dd5889b879ca09f0ca,(010)62566979,1,8b1519dd5889b879ca09f0ca
武圣羊杂割(海淀剧院店),39.983044,116.324477,中关村大街26号BI层,862c3132c8d0f29e08f5ebc2,18801494311,1,862c3132c8d0f29e08f5ebc2
和合谷(海淀剧院店),39.983048,116.324667,中关村大街26号,691305232f10bc11735e80ab,(010)62566251,1,691305232f10bc11735e80ab
八一剧场,39.953774,116.317234,北京市海淀区万寿寺甲27号,0523a141f25ecc04b23c81d2,,1,0523a141f25ecc04b23c81d2
北京航空航天大学(学院路校区)-晨兴音乐厅,39.98759,116.358118,北京市海淀区学院路37号北京航空航天大学内(近新主楼),cc0849a02c357449950319a9,(010)82316825,1,cc0849a02c357449950319a9
海淀区文化馆小剧场,39.982442,116.325575,北京市海淀区中关村大街28-1号(近海淀博物馆),8cc0ae7831f976637ec876c2,,1,8cc0ae7831f976637ec876c2
北京展览馆剧场售票处,39.945084,116.352111,北京市西城区西直门外大街135号,154204b422ae24dab426553e,15001155550,1,154204b422ae24dab426553e
海淀剧院-开心麻花售票处,39.982527,116.324912,中关村大街28号进门左转,1cd2767df950277072210b7c,(010)62532466,1,1cd2767df950277072210b7c
DO RE MI剧场,39.972073,116.301852,万柳星标家园甲6,c21db9e57689578301ff2db3,,1,c21db9e57689578301ff2db3
卓美剧场,39.950643,116.353106,长河湾小区5号楼底商,,,1,6e438bcd874262d3ce04ef94
大道喜剧院,39.977916,116.301557,北京市海淀区万柳华府北街2号,7c023721695c455d2cb96df7,,1,7c023721695c455d2cb96df7
北京天文馆数字影院,39.942784,116.344046,北京市西城区西直门外大街138号,6835e3a705f2e657e31103da,(010)68352453,1,6835e3a705f2e657e31103da
中国人民大学艺术学院-音乐厅,39.976127,116.319389,北京市海淀区中关村大街59号中国人民大学,f3172f03046b7b9440afe609,(010)62513859,1,f3172f03046b7b9440afe609
海淀剧院-停车场,39.982817,116.324423,中关村大街28,8cf628619ea0d9334d776e77,,1,101bc61b6b22fcddc52ba1b4
北展剧场-停车场,39.94785,116.352496,北京市西城区西直门北展北街皇帝船码头东南,beabdbf4d867f8e47069d314,,1,beabdbf4d867f8e47069d314
海淀剧院停车场-入口,39.982859,116.324194,中关村大街与大泥湾路交叉口东50米,89a0d0cd7ab7c5fa03ec0119,,1,89a0d0cd7ab7c5fa03ec0119
海淀剧院-正门,39.982519,116.324805,北京市海淀区中关村大街28号,37689e3bbc80f77bcd04efeb,,1,37689e3bbc80f77bcd04efeb
威聚星汇私人影院,39.966584,116.352002,北京市海淀区北下关四道口2号京果商厦A座,,17611080729,1,b79524d116a3613e4054d737
京门达人秀剧场-地面停车场,39.944045,116.341858,北京市西城区西直门外大街141号,,,1,fac46e8250abde7cf8dc85fd
民族剧院(东门),39.958322,116.330091,中关村南大街27号魏公村街19号院中央民族歌舞团附近,8dcfbf04df76c00e4afc8dc0,,1,8dcfbf04df76c00e4afc8dc0
民族剧院-地面停车场,39.958195,116.330037,北京市海淀区中关村南大街19号中央民族歌舞团东门,,,1,bf09a977ccd320ef3a04b1c4
民族剧院停车场-出入口,39.958154,116.33015,中关村南大街与大慧寺路交叉口西北150米,6cc50fae79f579d10189723a,,1,6cc50fae79f579d10189723a
北京歌剧舞剧院奇异树教育中心,39.942559,116.311165,北京市海淀区北洼路28号院2楼3层,a08675afeceec09a57bfff9f,(010)57288771,1,a08675afeceec09a57bfff9f
北京舞蹈学院-剧院,39.953063,116.325865,北京市海淀区万寿路街道万寿寺路1号,ddb1666302df6622ae080f40,,1,ddb1666302df6622ae080f40
国家京剧院宿舍,39.944309,116.354267,西直门西直门外大街104号,30b2c65c7ffa2a23a5da39e8,,1,30b2c65c7ffa2a23a5da39e8
海淀剧院地上停车场-出入口,39.982718,116.324518,海淀区中关村大街28号,d08ca67663ffe76775e5b697,,1,517e99728521ffc9f8f0cb8e
麻花即兴光源空间,39.936886,116.356952,北京市西城区车公庄大街4号-a1402室附近,dbde815bc670d90ffe0eb075,,1,dbde815bc670d90ffe0eb075
海淀剧院-北侧地上停车场,39.98319,116.323982,海淀区中关村大街28号,5ac3825d6597469ca20464be,,1,3b5ed184183f89ccad31e550
八一剧场-西门,39.953734,116.316841,万寿寺路33号附近,d7b329e211652dc4e9f85352,,1,d7b329e211652dc4e9f85352
八一剧场-停车场,39.953729,116.316963,北京市海淀区西三环北路辅路,38f26fc1516d0b7aeb56fa8c,,1,38f26fc1516d0b7aeb56fa8c
舞蹈剧场,39.952273,116.324146,万寿寺路13号附近,5165e96d60a43a8a3913fd6e,,1,5165e96d60a43a8a3913fd6e
中央民族大学-音乐厅,39.955222,116.329581,北京市海淀区中关村南大街27号中央民族大学内,339b2960b96de6085d17c30c,(010)68932442,1,339b2960b96de6085d17c30c
民族剧院停车场,39.958182,116.330014,北京市海淀区中关村南大街19号中央民族歌舞团东门,891bb2c67de279f4a3a93405,,1,891bb2c67de279f4a3a93405
八一剧场停车场-出入口,39.95366,116.316746,北京市海淀区西三环北路辅路,27b4088a9440c33e4f3a59c4,,1,27b4088a9440c33e4f3a59c4
民族剧院-地下停车场,39.958093,116.329617,中关村南大街19号中央民族歌舞团附近,b0c560c3eb98dcaea11de92c,,1,b0c560c3eb98dcaea11de92c
嘉言堂,39.949911,116.330692,中关村南大街33号,d23ce177ae38c118f50e77c6,(010)68485462,1,d23ce177ae38c118f50e77c6
中国剧院-售票处,39.953397,116.316963,万寿寺路35号附近,cd24fde3c61d44d7b8bd6340,,1,cd24fde3c61d44d7b8bd6340
海淀剧院北侧地上停车场-出入口,39.983052,116.323907,海淀区中关村大街28号,,,1,27bcc32ae44304684657269b
中国军乐馆,39.9495,116.307761,紫竹院路100号院甲6号,986be7ab35f64a8f3fe231e7,,1,986be7ab35f64a8f3fe231e7
中国剧院-西1门,39.954876,116.316731,北京市海淀区西三环北路与西三环北路出口交叉口东50米,,,1,44ea22f1b68343530782c230
广茗阁西直门剧场(动物园店),39.944565,116.342,西直门外大街141号,4cf777c087359ad29868b47d,,1,4cf777c087359ad29868b47d
京门达人秀剧场,39.944215,116.341864,北京市西城区西直门外大街141号,,,1,ba964be836b323c03417dc99
中国人民大学-莫扎特音乐厅,39.976229,116.319599,中关村大街59号中国人民大学校内,4e023d41bc3485a876e5b617,,1,4e023d41bc3485a876e5b617
海淀剧院停车场(入口),39.9828,116.325218,北京市海淀区中关村大街甲28号海淀文化艺术大厦,95294cc66598425f130daab0,,1,d1fcbf722993d2c4774ff187
民族剧院停车场-出入口,39.959184,116.329458,北京市海淀区魏公街,a993a2c2019e58049e9d682c,,1,a993a2c2019e58049e9d682c
一点租车(海淀剧院店),39.982527,116.324915,北京市海淀区中海园电子市场海淀剧院(中发电子市场中发电子大厦泛亚大厦),,,1,1bc8e75414f293cd220220e1
国家京剧院宿舍-东门,39.94413,116.354862,西直门外大街102号,2aa888534187dc56d42ce2e4,,1,2aa888534187dc56d42ce2e4
广茗阁西直门剧场(动物园店)-售票处,39.944267,116.342011,北京市西城区西直门外大街141号,6b0303a5beab4da0f32d8382,,1,6b0303a5beab4da0f32d8382
民族剧院停车场,39.959288,116.329639,北京市海淀区中关村南大街17号院1号楼,89734607ba5e466c2cb908e4,,1,89734607ba5e466c2cb908e4
中国剧院-西2门,39.955345,116.316752,北京市海淀区西三环北路26附近,,,1,6f9f9ce25cf6d50cfaf0cba6
DO RE MI剧场-正门,39.971961,116.302135,万柳星标家园甲6号,ba5b190e1b264c6abfa82296,,1,ba5b190e1b264c6abfa82296
剧场入口,39.944487,116.342001,西直门外大街乙141-1附近,2e9f7a259888bb843586f4c4,,1,2e9f7a259888bb843586f4c4
民族剧院地下停车场-出入口,39.957995,116.329503,北京市海淀区中关村南大街188号附近,,,1,bbc9cf5d628c2b251e58004d
民族剧院停车场-出口,39.9593,116.329661,中关村南大街与魏公街交叉口西50米,,,1,9d6de28750292222c356ac73
DoReMi剧场-西门,39.972165,116.301515,北京市海淀区万柳星标家园甲6,e7fdd7f5f1c968a72fb9083a,,1,e7fdd7f5f1c968a72fb9083a
侏罗纪5D动感体验影院,40.021835,116.277357,龙背村99号北京华联龙背村购物中心F2层F2-02号,817d05e61534d32a8e7727e3,,1,817d05e61534d32a8e7727e3
安缦影院,40.005692,116.288608,北京市海淀区颐和园宫门前街1号颐和安缦B2层,f41c3cd32b8cbd1976e5b69e,(010)59879999,1,f41c3cd32b8cbd1976e5b69e
大地影院(橙天嘉禾影城北京上地店),40.034259,116.317889,北京市海淀区农大南路1号北京华联F4,53349ee341ab4d77230262e4,(010)62667799,1,53349ee341ab4d77230262e4
蒙民伟音乐厅,40.0076,116.335125,北京市海淀区双清路30号清华大学,be4a7ea32c3a729d09a8d4d5,,1,be4a7ea32c3a729d09a8d4d5
中华皮影文化城,40.006342,116.320887,北京市海淀区清华西路28号圆明园遗址公园绮春园内,06b47381378eb37c7bf79676,(010)62618506,1,06b47381378eb37c7bf79676
北京航空航天大学-晨兴剧场,39.988212,116.354039,北京市海淀区学院路37北京航空航天大学内,38d97f1d98bc167a1e58000d,(010)82317114,1,38d97f1d98bc167a1e58000d
红点剧场,40.07096,116.166808,北京市海淀区高里掌路1号院23号楼3层,afdc285ceef6ad7b75e5b6c3,(010)56263611,1,afdc285ceef6ad7b75e5b6c3
云剧场,40.070844,116.167096,北京市海淀区高里掌路1号院23号楼,0e8d7abeadd565c40aa8d4ea,,1,0e8d7abeadd565c40aa8d4ea
华联影院(回龙观店),40.081777,116.326013,北京市昌平区回龙观西大街111号华联商场3层,,(010)50954999,1,8691e89c789cdf8afea7782d
大地影院(北京西三旗物美店),40.052957,116.344519,悦秀路99号2层,9bd133231b733d670c3dda7f,(010)60603728,1,bf14ffeab9443cc8d92f28ae
羽翼天成儿童剧场,40.051491,116.333559,安宁庄安宁华庭1区15号楼F02,78869cf63d78fdc4bf484298,,1,78869cf63d78fdc4bf484298
街电(大地影院西三旗物美店),40.052992,116.344504,悦秀路99号通厦公元2层,,,1,b95b0b0ca5c5d1efbadf8f5c
中国木偶剧院,39.974563,116.407787,北京市朝阳区北三环安贞桥西安华西里甲1号,5b031f234029b3f2601c678c,(010)64243697,1,5b031f234029b3f2601c678c
北太平桥西中央新影院,39.975596,116.374096,北京市海淀区北太平桥西侧北三环中路67号,47d440bf4d6fba708bb988b0,(010)58092222,1,47d440bf4d6fba708bb988b0
鼓楼西剧场,39.952157,116.394154,北京市西城区小八道湾胡同6号,f7b625563eba69174e2fdf66,(010)64457019,1,f7b625563eba69174e2fdf66
德云社新街口剧场,39.950393,116.379766,北京市西城区新街口北大街74号,044270fc6dedddac233bf2ea,,1,044270fc6dedddac233bf2ea
剧空间剧场,39.95031,116.379411,北京市西城区新街口北大街74号,263afaa308ce34d0f503b8b8,(010)63194411,1,263afaa308ce34d0f503b8b8
嘻哈包袱铺相声剧场（交道口店）,39.946492,116.414537,北京市东城区交道口南大街15号新华文化大厦一层,2997a45e0d6759152811d1e9,(010)56246263,1,2997a45e0d6759152811d1e9
蓬蒿剧场,39.942405,116.412537,北京市东城区东棉花胡同35号(中央戏剧学院正门向东100米),4ea3f2f1af822ab3aecb6642,(010)64006472,1,4ea3f2f1af822ab3aecb6642
隆福剧场,39.93157,116.422241,隆福寺街47号东四工人文化宫,685135f5ce8c3c60c056acf9,,1,685135f5ce8c3c60c056acf9
肯德基(木偶剧院餐厅),39.974512,116.407988,安华西里甲一号,69130523daf6cb11725e8001,(010)64247079,1,69130523daf6cb11725e8001
国家京剧院,39.937969,116.371786,北京市西城区平安里西大街22号,d3a0cf6a94d04f262b201a75,"(010)58519609,(010)58519688",1,d3a0cf6a94d04f262b201a75
华夏影院,39.983666,116.413037,北京市朝阳区安定路5号院环宇荟购物中心五层,,(010)87726788,1,c0811286dbc84d84f7eafcd3
西区剧场,39.941487,116.381915,护国寺街85号护国新天地4层(平安里),e9775b65b0ebd35fa11de9a0,(010)83289980,1,e9775b65b0ebd35fa11de9a0
人民剧场,39.940641,116.381164,北京市西城区护国寺大街74号,0a15c7ec257e9ee5ec74f8a7,,1,0a15c7ec257e9ee5ec74f8a7
单立人club,39.94832,116.410365,北京市东城区北锣鼓巷大经厂西巷3号,,15800313049,1,a2234ca1c34c8528f4e73b0f
解放军歌剧院,39.954133,116.379417,北京西城区德胜门西大街60号,083a55fab2c7ec60246e982c,,1,083a55fab2c7ec60246e982c
中国木偶剧院-木偶影城,39.974367,116.407962,北京市朝阳区安华西里甲一号,f60a15ed3e8c89f5ba17e7ba,(010)64243697,1,f60a15ed3e8c89f5ba17e7ba
东图影剧院,39.947491,116.419159,东城区交道口东大街85号区文化馆1楼,a3f21eeed37a785d2eb17ebc,(010)64042764,1,a3f21eeed37a785d2eb17ebc
中央戏剧学院-实验剧场,39.942357,116.410141,北京市东城区东棉花胡同39号中央戏剧学院内(近南锣鼓巷),f4a33da966f440753110af9a,(010)64017894,1,f4a33da966f440753110af9a
东宫影剧院-售票处,39.931669,116.421812,隆福寺大街47号,3431b6417f3870b5f5c59cb9,,1,3431b6417f3870b5f5c59cb9
东城区文化馆周末相声俱乐部,39.94742,116.416747,北京市东城区东大街111-2号附近,,(010)64015552-102,1,2f85e6fb3172451ee8e58299
EMPTYCUP小空咖啡(鼓楼西剧场),39.952145,116.394009,北京市西城区鼓楼西大街小八道湾胡同6号(鼓楼西剧场一楼),16933a8365a57c988bfc063c,13811385324,1,16933a8365a57c988bfc063c
中影星美院线(国安剧院),39.987301,116.37679,花园东路甲16号,,,1,1048f4850f905a345e17c3d4
北京师范大学(海淀校区)-北国剧场,39.968425,116.369058,新街口外大街19号北京师范大学艺术与传媒学院楼1楼,48df3565f6005c89631c67fc,,1,48df3565f6005c89631c67fc
什刹海剧场,39.941513,116.396253,北京市西城区地安门西大街57号,95b647b18dd35218c8213d07,"(010)83222231,(010)83227232",1,95b647b18dd35218c8213d07
嘻哈包袱铺剧场(安定路),39.982731,116.414644,北京市朝阳区安定路甲24号,eb360d823405b0243804b16b,,1,eb360d823405b0243804b16b
大逗相声社,39.948434,116.397805,北京市西城区鼓楼西大街61号,7216164244459c2f2cb17e31,,1,7216164244459c2f2cb17e31
中国儿童中心剧院,39.939653,116.368672,北京西城区平安里西大街43号院内,8b1aeb1a79854fbb873304e0,(010)66176321,1,8b1aeb1a79854fbb873304e0
风尚剧院,39.947573,116.416752,交道口东大街111号东城区文化馆3楼,7aea43b75f81e3e17d29bdf0,(010)84802979,1,7aea43b75f81e3e17d29bdf0
中美喜剧中心 北京市东城区,39.947666,116.411294,北京市东城区小经厂胡同65号,fe83d2222ca3ecd031f71d98,,1,fe83d2222ca3ecd031f71d98
北京金帆音乐厅,39.94485,116.376808,北京市西城区赵登禹路北京三十五中内,4302e987945fae42fbf0cb2c,,1,4302e987945fae42fbf0cb2c
77文创园剧场,39.933959,116.41474,美术馆后街77号,d1b82df52bec405a3010afd8,,1,d1b82df52bec405a3010afd8
国安剧院-售票处,39.987155,116.376593,北京市海淀区花园东路甲16号,82060ff72f28a9fda204645a,,1,82060ff72f28a9fda204645a
缤纷剧场,39.947061,116.373637,北京市西城区西直门内大街147号,4c824b1d116ea97446e27481,(010)62267527,1,4c824b1d116ea97446e27481
东宫影剧院,39.931733,116.421982,隆福寺街47号东四工人文化宫,,,1,cbfb5728b5f8d6a23686f46a
中国木偶剧院-停车场,39.974339,116.408088,安华西里甲1号中国木偶剧院,5c56edd6cdfce35ba0d23086,,1,5c56edd6cdfce35ba0d23086
梅兰芳大剧院-停车场,39.937888,116.363593,北京市西城区平安里西大街32号附近,f9ac0e5be845b24f43024543,,1,f9ac0e5be845b24f43024543
西城区文化馆小剧场,39.947011,116.373637,西城区西直门内大街147号,d6d3c85103cace74acee7a3b,,1,d6d3c85103cace74acee7a3b
北京儿童艺术剧院,39.945024,116.410555,北京市东城区后圆恩寺胡同17号,fa7e1deb89a6512eafee7a08,"(010)84016486,(010)64009360",1,fa7e1deb89a6512eafee7a08
枫蓝熙剧场,39.959091,116.362528,北京市海淀区西直门北大街枫蓝国际购物中心4层,,,1,c760d5ee0c5f7524f21937dd
中国儿童中心-影剧厅,39.939609,116.368633,北京市西城区平安里西大街43号,b05615d05b08de5d6268589c,(010)66176321,1,b05615d05b08de5d6268589c
北兵马司,39.942366,116.41477,北京市东城区府学胡同40-2号平安大道宽街交道口南大街,f5579b86f8cee33eb34c49de,,1,f5579b86f8cee33eb34c49de
中国木偶剧院-东门,39.974365,116.408306,安华西里一区1号,,,1,3aa9503ae65b49976fa3ccee
梅兰芳大剧院停车场-出入口,39.937879,116.363993,北京市西城区官园平安里西大街中海国际中心,9d5de568d29ced10a8f0cd0b,,1,9d5de568d29ced10a8f0cd0b
梅兰芳大剧院-南门,39.937002,116.363755,北京市西城区北顺城街,9e2b0dd5790694739868b458,,1,9e2b0dd5790694739868b458
我爱我家(木偶剧院店),39.972748,116.408997,安外安华里二区甲3号楼1层,e38ad3a93da96e610782c291,(010)64252965,1,c81fc515ac076f4930f71dbf
国家京剧院-停车场,39.937741,116.371393,平安里西大街22号国家京剧院,cdef4edffe986a3329d7abb5,,1,cdef4edffe986a3329d7abb5
中国木偶剧院-小铃铛精品剧场,39.974396,116.407868,安华西里一区1,87ffdd463492cd51e81e973b,(010)64254849,1,87ffdd463492cd51e81e973b
中国木偶剧院-西门,39.974588,116.407548,北三环中路与北三环中路入口交叉口东南100米,af3267ee224e461043ab9a16,,1,af3267ee224e461043ab9a16
北京剧目排练中心,39.93403,116.414799,美术馆后街77文创园内,,,1,dccbb89bcdd6673b9de32140
梅兰芳大剧院-1号门,39.937652,116.363675,北京市西城区平安里西大街32,8804108f050c11d6ed74f86e,,1,8804108f050c11d6ed74f86e
人民剧场-停车场,39.940919,116.381143,北京市西城区护国寺大街74号人民剧场内,5f37b008110e3388e6e965b7,,1,59bcb4190c6d70860b1cc73e
鼓楼西剧场-停车场,39.952104,116.394045,北京市西城区小八道湾胡同,ed630ba7d815fdd7d7851f2e,,1,ed630ba7d815fdd7d7851f2e
牡丹CPOP爱乐实验剧场,39.98452,116.375416,北京市海淀区花园路2号国家工程实验室对面,c16f5f2cb2ed2998c356ac5f,,1,c16f5f2cb2ed2998c356ac5f
中国木偶艺术剧院股份有限公司,39.974298,116.407306,安华西里甲1号,a8e402f4d06175fa44e27450,(010)64248998,1,a8e402f4d06175fa44e27450
东宫影剧院-南1门,39.931544,116.422136,隆福寺街47号,b6bb7299966036c521f017e3,,1,b6bb7299966036c521f017e3
中国木偶剧院停车场-出入口,39.974507,116.408308,北三环中路与北三环中路入口交叉口东南150米,,,1,8af54879c1500fdb07fef58e
西区剧场-停车场,39.941757,116.381708,护国寺东巷与护国寺东街交叉口西50米,53f28aa6f19f699df21937fd,,1,53f28aa6f19f699df21937fd
木偶剧院-地上停车场,39.974578,116.408279,朝阳区安华西里甲一号,d188e7deb0cc41de132935ff,,1,d188e7deb0cc41de132935ff
国家京剧院-东门,39.938019,116.372217,平安里西大街22号,e1747989dfc41c80932ca347,,1,e1747989dfc41c80932ca347
中国歌剧舞剧院松卿艺术培训中心(安贞基地),39.969852,116.394038,黄寺大街21号世纪明珠广场二层,,,1,373d784c98779a092911d116
鼓楼西剧场停车场-出入口,39.952242,116.393586,北京市西城区小八道湾胡同,972da1e664534a6ff7eafce5,,1,972da1e664534a6ff7eafce5
中影光峰激光影院技术北京有限公司,39.962485,116.381785,北京市西城区新德街20号,f9e18e1b287b41baf9f0cb5e,,1,f9e18e1b287b41baf9f0cb5e
露天影院,39.938786,116.424626,北京市东城区东四九条88号共享季F3,9db40625a9da715514c8f617,,1,9db40625a9da715514c8f617
停车场(东图影剧院南),39.94704,116.41896,北京市东城区第一图书馆(东城区第一文化馆东南),5036066153392c92a2a93441,,1,5036066153392c92a2a93441
人民剧场-西北门,39.940907,116.381053,北京市西城区护国寺大街74号,9eefcb66e212bd342fb17e9a,,1,9eefcb66e212bd342fb17e9a
中国木偶剧院大剧场票务中心,39.974398,116.407731,北京市朝阳区安华西里甲1号,,,1,5e288d5749b3a418047ce879
肯德基(木偶剧院餐厅)-洗手间,39.974583,116.407967,安华西里甲1号木偶剧院楼下(安贞桥北),49b58187bdbd16207c29bd75,,1,49b58187bdbd16207c29bd75
中戏逸夫剧场,39.94229,116.40997,东城区棉花胡同39号中央戏剧学院内,15e1e85e2cf67aa2581093d0,,1,15e1e85e2cf67aa2581093d0
什刹海剧场-西A口,39.941318,116.396214,前海北沿与前海西街交叉口南100米,4088ad30dbfec371774ff17c,,1,4088ad30dbfec371774ff17c
北京儿童艺术剧院-北门,39.945487,116.410436,菊儿胡同16号附近,,,1,01ba504bae75be4d2806ceb5
安源演播厅,39.968933,116.423033,朝阳区青年沟路23号2号安源大厦,2fae80b892c3d3c840ab9a0f,(010)84283488,1,2fae80b892c3d3c840ab9a0f
新街口社区数字影院(东冠英胡同店),39.942751,116.372689,北京市西城区东冠英胡同26号,,(010)82203380,1,ce471cedd4264cd3740269ae
中国京剧院大厦,39.937943,116.371829,平安里西大街22号国家京剧院大厦5层,487b4ac8b1c22d94740269e9,,1,487b4ac8b1c22d94740269e9
梅兰芳大剧院-2号门,39.937443,116.36327,平安里西大街32号附近,3ed480c68ca0a0800bccdd56,,1,3ed480c68ca0a0800bccdd56
北京师范大学(海淀校区)北国剧场-停车场,39.968451,116.368918,新街口外大街19号,,,1,ee06ddbd928a2d23ed74f834
梅兰芳大剧院停车场-出入口,39.936928,116.363194,北京市西城区官园北顺城街中海国际中心,7300ec07016e6f61d42ce2cd,,1,7300ec07016e6f61d42ce2cd
北京儿童艺术剧院股份有限公司,39.944883,116.410711,北京市东城区后圆恩寺胡同17,e067dcc1ce85e5e0601c6764,(010)84016486,1,e067dcc1ce85e5e0601c6764
西区剧场-售票处,39.941204,116.381551,护国寺街85号,ea3e992743e7234717b54b88,,1,ea3e992743e7234717b54b88
东图影剧院-售票处,39.947498,116.419082,交道口东大街87号附近,9c9b2457953f64389d82eac8,,1,9c9b2457953f64389d82eac8
国家京剧院停车场-出入口,39.937873,116.371327,北京市西城区平安里西大街22号附近,5b9915e41ff02ed7c62ba11d,,1,5b9915e41ff02ed7c62ba11d
梅兰芳大剧院后台区-入口,39.937008,116.363738,北京市西城区北顺城街,2214e0e25f3ea563593ac836,,1,2214e0e25f3ea563593ac836
木偶城堡,39.974405,116.408096,北京市朝阳区北三环中路辅路,,,1,74a26f952031316a0aa8d4c0
街电(西区剧场),39.941487,116.381915,北京市西城区护国寺街85号护国新天地4层(平安里),,,1,1392841fcc22a66d2811d130
东宫影剧院-南2门,39.931558,116.421822,北京市东城区连丰胡同与隆福寺街交叉口东50米,dc2cfc70c2ca270fc51e513d,,1,dc2cfc70c2ca270fc51e513d
中国木偶剧院-售票处,39.974489,116.407911,北京市朝阳区安华西里一区1号,bc3a05b8d8707ef92811d17a,(010)64254847,1,bc3a05b8d8707ef92811d17a
北京儿童艺术剧院股份有限公司-音乐艺术考级委员会,39.944893,116.410594,后圆恩寺胡同17号,3774bf4030a661972db908ac,,1,3774bf4030a661972db908ac
国家京剧院地下停车场-出入口,39.937762,116.371436,富国街与翠花街交叉口北100米,87bb7fd70a24844715a190df,,1,87bb7fd70a24844715a190df
中央戏剧学院北剧场-南门,39.94277,116.41333,北兵马司胡同5号,c71d377a41fb28219022e047,,1,c71d377a41fb28219022e047
北接剧目排练中心剧场售票处,39.933977,116.415197,亮果厂胡同与美术馆东街交叉口西北50米,92529c43a085d77b734b8728,,1,92529c43a085d77b734b8728
木偶剧院地上停车场-出入口,39.97445,116.40837,朝阳区安华西里甲一号,,,1,0966f0314ed0446fae080f8b
保利剧院,39.940527,116.442362,北京市东城区东直门南大街14号保利大厦1层,764672e57f06e7ad94ec84d0,(010)65065345,1,764672e57f06e7ad94ec84d0
枫花园汽车影院(亮马桥路店),39.9643,116.486526,北京市朝阳区亮马桥路21号(朝阳公园北门对面),b3aa435db383771215764352,(010)64329884,1,b3aa435db383771215764352
世纪剧院,39.957486,116.478908,北京市朝阳区亮马桥路40号,9259a68dbea56adf95f08cc0,(010)64628470,1,9259a68dbea56adf95f08cc0
北京喜剧场,39.935916,116.439479,北京市东城区朝阳门北大街11号,d588452b447ab1f67ab55c3b,(010)84191616,1,d588452b447ab1f67ab55c3b
金鸡百花影城(原影协影院),39.975108,116.430374,北京市朝阳区北3环东路22号,a1a7bf24ff4e29cf157643f9,(010)64212040,1,4eb3b5332523096c43024552
云乐迪私人影院(鸟巢对外经贸大学店),39.98445,116.43069,惠新东街19号北京惠侨饭店4层,4b993f81955fc6a9f82213b8,(010)64964998,1,4b993f81955fc6a9f82213b8
CINKERCINEMAS三克影院,39.938466,116.465274,工人体育场北路盈科中心B座1层,b61909ef2c0766aad23ce3c5,(010)65392868,1,b61909ef2c0766aad23ce3c5
中央歌剧院,39.935238,116.44315,东中街115,5211d219d5f9fc587dc876fc,(010)65535582,1,5211d219d5f9fc587dc876fc
青蓝剧场,39.939194,116.435713,北京市东城区东四十条24号青蓝大厦3楼(近保利大厦),e44156d5085b83292fb9089e,,1,e44156d5085b83292fb9089e
雷剧场,39.939261,116.444015,东城区工体北路66号瑞士公寓1号楼1楼8101号(保利剧院对面),d991e1161341ea2b1e38948a,(010)51655997,1,d991e1161341ea2b1e38948a
秘宅量贩式KTV微影院(西坝河店),39.971202,116.450897,北京市朝阳区西坝河东里社区83号楼底商,47235ae6dba95ae05ebe8634,(010)59948208,1,47235ae6dba95ae05ebe8634
红馆,39.943115,116.460551,三里屯19号三里屯太古里北区L1层,dc4885b83a3012a6ab175aab,,1,dc4885b83a3012a6ab175aab
喜辰良子3D影院式足道理疗,39.961722,116.445812,北京市朝阳区柳芳北里107号底商,71be39dcf15da0e60b1cc748,(010)84542962,1,2512c67ac01fe4356040a9d7
大地影院(朝阳区米高梅影城),39.940099,116.451038,北京市朝阳区工体北路21号永利国际购物中心B1层,2f75bd1d9d2674db3786f40d,(010)58010177,1,2f75bd1d9d2674db3786f40d
简法CARLEY造型(保利剧院店),39.940177,116.442789,北京市东城区东直门南大街14号保利大厦底商,906bf1397e83a816ff0eb02c,(010)65514242,1,906bf1397e83a816ff0eb02c
Carley造型(保利剧院店),39.940434,116.442876,北京市东城区东直门南大街14号,3bfc968d55b888a75cbe86aa,(010)65514242,1,3bfc968d55b888a75cbe86aa
爱笑剧场,39.935452,116.45093,北京市朝阳区工人体育场西路6号,670e926723b3b8408a36ee55,,1,670e926723b3b8408a36ee55
保利剧院-游泳馆,39.940319,116.442089,北京市东城区东直门南大街14号保利大厦1楼三层。,c9ec76730391ca25dc1e52cd,,1,c9ec76730391ca25dc1e52cd
北京华谊兄弟电影汇,39.953724,116.465093,北京市朝阳区新源南路甲2号华谊兄弟办公楼首层,,(010)65858855,1,6425e074cd16f66a03294fa3
比如剧院(比如世界购物中心店),39.973465,116.468398,北京市朝阳区京顺路１１１号比如世界购物中心2层,c37284c428dc478416a19052,"(010)64309866,(010)64309800",1,c37284c428dc478416a19052
世纪剧院-停车场(世纪剧院西南),39.957221,116.478397,北京市朝阳区亮马桥路40号世纪剧院,919dd0453fee686182a12ef5,,1,919dd0453fee686182a12ef5
保利剧院-1号门,39.940557,116.441935,东直门南大街14号,bce4a6c11bf3a9d46f4760ab,,1,bce4a6c11bf3a9d46f4760ab
中心岛剧场,39.954035,116.487524,北京市朝阳区农展南路1号朝阳公园中心岛内,,(010)65016482,1,8b2447df72956e4b9ee3212a
保利剧院-演员出入口,39.940475,116.44288,北京市东城区东直门南大街14号,fa7d3c72b8902377c16c147b,,1,fa7d3c72b8902377c16c147b
枫花园汽车影院亮马桥路店(东南门),39.96152,116.486796,亮马桥路北50米,39c16028c477356b6f476018,,1,39c16028c477356b6f476018
停车场(保利剧院西北),39.941101,116.441681,北京市东城区东直门南大街14保利大厦(西门)附近,968588680baac58fcf06a46c,,1,968588680baac58fcf06a46c
4D动感影院,39.94512,116.488341,北京市朝阳区农展南路1号朝阳公园内,,,1,09bf4769a7d0dfafdf1e52c5
保利剧院-6号门,39.940931,116.442627,北京市东城区东直门工人体育场北路保利大厦,c02a362d9fd4bfd99f09f70e,,1,c02a362d9fd4bfd99f09f70e
世纪剧院-小剧场,39.957297,116.478828,北京市朝阳区亮马桥路40号,c2ef90c0404673706240a9b7,,1,c2ef90c0404673706240a9b7
蜂巢剧场-沿街停车场,39.946291,116.445505,北京市东城区新中街甲3号,2d8f1a35c202795d4afd3fbf,,1,2d8f1a35c202795d4afd3fbf
华谊兄弟,39.956596,116.442966,北京市东城区东直门香河园街1号院当代MOMAT5大堂,ce7eea1656d7683a72210b10,,1,ce7eea1656d7683a72210b10
东四街道市民小剧场,39.93637,116.430523,北京市东城区东四六条17号,2ae37808ba2a4d022bd7ab34,,1,2ae37808ba2a4d022bd7ab34
保利剧院-3号门,39.940834,116.441925,北京市东城区工人体育场北路保利大厦A座二号门,f2276e7bbd90c7024c3a592e,,1,f2276e7bbd90c7024c3a592e
怪兽充电(三克影院来福士),39.945537,116.439051,东直门南大街1-1号来福士F5层,,,1,2b981df491eaf2d66c3e1b47
枫花园汽车影院亮马桥路店-北门,39.965408,116.486773,大马亮桥村附近,ecafc66cd9c26aef6ca3cc60,,1,ecafc66cd9c26aef6ca3cc60
停车场(蜂巢剧场东南),39.946039,116.445441,北京市东城区新中街甲3号,1ecdb1e3aec1f6cbdb2f286b,,1,1ecdb1e3aec1f6cbdb2f286b
百衲剧场.com,39.961148,116.448305,左家庄中街6号院9豪成大厦23层23A10,0bc32dfe030a12042efaa77e,,1,0bc32dfe030a12042efaa77e
保利剧院-4号门,39.940864,116.442056,东直门南大街14号,d2e1841e4465dd1fea56fa51,,1,d2e1841e4465dd1fea56fa51
北京橙地影院投资管理有限公司,39.963018,116.481541,将台小亮马桥安家楼1号,226bb714991bcbaefa42b2f9,,1,226bb714991bcbaefa42b2f9
枫花园汽车影院办公室,39.964245,116.486456,北京市朝阳区亮马桥路21号,,"(010)64333048,13071161819",1,1d4262a595411bedae080f68
北京保利剧院管理有限公司,39.940544,116.44296,北京市东城区东直门南大街14-3附近,,,1,f64234e750e4756e2bb97c2c
停车场(工体雷剧场西北),39.939385,116.444036,北京市东城区东直门三只耳冷锅鱼(保利店)西,e3573a6baea0dec2fe0eb006,,1,e3573a6baea0dec2fe0eb006
暴风点播影院,39.938034,116.459839,北京市朝阳区工人体育场北路三里屯SOHO3号商场B1层317室,1a783e9c9aa7cff1c056ac00,(010)57853008,1,1a783e9c9aa7cff1c056ac00
少年宫剧场停车场-出入口,39.942139,116.441225,东直门南大街10号附近,a61ac7b5c070047b2fb96d71,,1,a61ac7b5c070047b2fb96d71
怪兽充电(CINKER CINEMAS三克影院),39.938832,116.465568,工人体育场北路甲2号盈科中心B座1层No138,,,1,d0b641b3e4135cc9a21de90e
东风剧院停车场-出口,39.93607,116.438998,朝阳门北大街11号附近,1a8204748c84749dc6effb39,,1,1a8204748c84749dc6effb39
世纪剧场自行车租赁点,39.958099,116.47882,北京市朝阳区亮马桥路,3e6c693ac863910e95f08cf3,,1,3e6c693ac863910e95f08cf3
枫花园汽车影院亮马桥路店-东北门,39.965347,116.488205,亮马桥路278号附近,,,1,d975c4c80b37688e095cb391
51piao(东城区店),39.942521,116.443948,东中街40号元嘉国际A座723号,f3675d3c4a669191b05c6a7c,,1,f3675d3c4a669191b05c6a7c
红霞影剧院,39.968177,116.498647,北京市朝阳区红霞路13号,ebbb3b0d4f02f906b13c811e,,1,ebbb3b0d4f02f906b13c811e
酒仙桥红霞路13号红霞影剧院南院,39.96816,116.49869,北京市朝阳区红霞路11号,70c6594a8d6f1757734b87ce,,1,70c6594a8d6f1757734b87ce
五指康影院足道,39.94379,116.50134,北京市朝阳区姚家园国兴·观湖国际8号楼,b6602f4e35fa37d188fc069a,,1,b6602f4e35fa37d188fc069a
山下剧场,39.939268,116.541773,北京市朝阳区姚家园南路1号惠通时代广场7号楼K区,,,1,49c46a5fa9496f6d1f38941d
红霞影剧院-东北门,39.968308,116.498565,酒仙桥红霞路13号,aab89c4ff8e9ea5788f15dbb,,1,aab89c4ff8e9ea5788f15dbb
中国歌剧舞剧院小天使艺术团,39.954287,116.523934,青年北路附近,395963067acfdf819cf779b5,,1,395963067acfdf819cf779b5
红霞影剧院北院,39.96806,116.498735,红霞路13号,ad6b050c5345d3548bb9884a,,1,ad6b050c5345d3548bb9884a
北京明星时代影院投资有限公司,39.933482,116.508626,恒泰大厦A座6F,,,1,0f797cc5784211080aa8d4ce
步之足影院式足道主题SPA,39.963055,116.587847,东坝镇管庄路福润四季B区19号楼,666ed10fb607b745ebf8534c,,1,666ed10fb607b745ebf8534c
北京剧院,39.997431,116.414901,北京市朝阳区安慧里三区10号,c2a762729eb6712b38221c88,(010)64975575,1,c2a762729eb6712b38221c88
传奇小剧场,39.99103,116.40967,北京市朝阳区安定路1号国家奥体中心综合训练馆3楼(近奥体中心),5862c582b545da3b1811d547,13681034115,1,5862c582b545da3b1811d547
森林小剧场,40.017843,116.402221,北京市朝阳区科荟路33号奥林匹克森林公园南园内,,(010)64529060,1,2c754b2a569f7736dc1e520b
中国音乐学院-音乐厅,39.997104,116.386213,安翔路甲1,53cebd503ec8481f2b02e1bf,(010)64874884,1,53cebd503ec8481f2b02e1bf
奥林匹克露天剧场,40.018208,116.398957,北京市朝阳区科荟路33号奥林匹克森林公园南园内,,,1,bd3a8d8da0174c94b54f5479
北京剧院-停车场,39.997317,116.414544,北京市朝阳区安慧里三区10号,d991e1161370ea2b1e3894bb,,1,d991e1161370ea2b1e3894bb
北京剧院-地面停车场,39.997914,116.414242,北京市朝阳区安慧里三区10号,eadb0ba0baf18e206240a901,,1,eadb0ba0baf18e206240a901
北京剧院停车场-入口,39.997806,116.414612,安立路东50米,cc7c58eba9d160642efaa7ed,,1,cc7c58eba9d160642efaa7ed
北京剧院-北门,39.997404,116.41461,安立路安慧里三区10号楼,ccb792dba96c0113ddee8bde,,1,ccb792dba96c0113ddee8bde
北京剧院-东门,39.997108,116.415322,北京市朝阳区慧忠路北京剧院附近,a7d1af7eac14ffa314c8f6ab,,1,a7d1af7eac14ffa314c8f6ab
剧院附楼,39.997709,116.414669,亚运村街道安慧里三区10号,,,1,fea20ac2c352ca186fa3ccda
中国音乐学院-歌剧厅,39.997209,116.385967,北京市朝阳区安翔路1号,9db5b8a318c70c04430245af,,1,9db5b8a318c70c04430245af
5D影院(国家游泳中心),39.998917,116.396172,北京市朝阳区天辰东路11号国家游泳中心F1层,a398d28fefef3860ca29158b,,1,a398d28fefef3860ca29158b
动感影院(中国科学技术馆店),40.011822,116.404662,北京市朝阳区北辰东路5号中国科学技术馆B1,83242d00b9f2543c9b00505d,,1,38a58a56aa6354b9ca2915f2
北京剧院-安全保卫部,39.997288,116.415111,北京市朝阳区安慧里三区10号(北辰购物中心对面),c3e14d1c8b4f72ecd0ff2307,,1,c3e14d1c8b4f72ecd0ff2307
4D动感影院,40.008602,116.387907,北京市朝阳区北辰西路1号国家动物博物馆附近,b6522b4946acd04afb221345,,1,b6522b4946acd04afb221345
停车场(剧院附楼西),39.997764,116.416897,北四环东路辅路中国五矿大厦附近,4a08263b2f0f8725100daaa1,,1,4a08263b2f0f8725100daaa1
剧院附楼-西门,39.99771,116.414647,亚运村,f7a56e80d48b6f67f7eafcd3,,1,f7a56e80d48b6f67f7eafcd3
北京剧院停车场-出入口,39.997877,116.414405,安立路东50米,fc6a5d99a7371e23c9c3dbf5,,1,fc6a5d99a7371e23c9c3dbf5
剧院办公楼,40.000474,116.408768,北京市朝阳区亚运村,,,1,9f6225c221a2c29f8f55ecca
大地影院(望京新天地店),40.002773,116.484489,北京市朝阳区阜安西路11号合生麒麟新天地F2,b8974649af86e11df7e73b18,"(010)57389734,(010)57389754",1,b8974649af86e11df7e73b18
大地影院(朝阳区奥兰环球影城),40.026778,116.472476,北京市朝阳区广营西路5号院诚盈中心地下商业街,8b3720a9766d51adbfa8225f,(010)52622339,1,8b3720a9766d51adbfa8225f
至尚嘉华点播影院(新世界超市店),39.992223,116.487891,北京市朝阳区广顺南大街16号新世界百货F4,4c8ac52ee2f4f605cafa5fda,(010)84764982,1,4c8ac52ee2f4f605cafa5fda
万域芳菲冰上演艺中心,40.014381,116.440022,北京市朝阳区辛店路162号(亚运新新家园西南门对面),,18801381909,1,851a61ca69fae888f842b2f6
索兰影音家庭影院视听体验馆,39.992536,116.437733,北京市朝阳区芍药居北里318-7号底商,d146b388f9c547a0750269a7,"(010)82629976,(010)82629978",1,d146b388f9c547a0750269a7
中贸视界演艺大剧院,40.018859,116.486254,北京市朝阳区利泽东园308号博泰嘉华大厦6层,,,1,815ec4b2bd8909cb07026fd6
消逝的光芒沉浸式剧场,40.005143,116.484735,望京西园三区314楼B座附,,,1,5f71b857f9fc344243ab9a93
风声·沉浸式剧场,39.994917,116.473886,望京街道阜通西大街都市心海岸雅园西门,a976572203aaa8c071455b9f,,1,a976572203aaa8c071455b9f
唯渡私人影院,40.042548,116.447649,朝阳区北苑东路山水蓝维东门,288b24211bd911248bf15d1d,(010)84908341,1,288b24211bd911248bf15d1d
北京盈之宝剧场,40.01809,116.490786,北京市朝阳区利泽东二路二号3层(望京科技园区东北角),7b035eb6115cee8416764322,(010)64398547,1,7b035eb6115cee8416764322
望京乐园,39.996779,116.490806,望京街9号望京国际商业中心B座,a5ef680f21a6daceb9df8f17,,1,a5ef680f21a6daceb9df8f17
新影联·华谊兄弟影院1号厅(望京华彩商业中心店),40.016497,116.47586,北京市朝阳区北京市朝阳区广顺北大街16号望京华彩商业中心F4,f221132501891b838bfc060d,,1,f221132501891b838bfc060d
万和私人影院,40.009183,116.491446,北京市朝阳区远洋万和公馆东区,4985c108582df3a31894c6b9,,1,4985c108582df3a31894c6b9
街电(大地影院望京新天地店),40.003192,116.483725,北京市朝阳区阜通西大街11号合生·麒麟新天地1层,,,1,20fdacfb196e314032f71dc7
北京三里屯温馨私人影院公寓(阜通西大街分店),39.996104,116.4846,北京市朝阳区望京园602号悠乐汇D座,1092ceaf87d25b22077ce8b7,4006061230-67828,1,1092ceaf87d25b22077ce8b7
北青盈之宝剧场-地上停车场,40.017505,116.490836,朝阳区利泽东二路2号,9da4949f19b02fdff32d83db,,1,9da4949f19b02fdff32d83db
威动点播影院,40.026888,116.471819,北京市朝阳区来广营西路望京诚盈中心3号楼13层,,4009916608,1,954438501b3df56beb1e97dc
北京精心设计影院普通公寓,39.99609,116.484583,朝阳区望京悠乐汇望京园D座602号8楼,22bc467aa4348e13d618b731,,1,22bc467aa4348e13d618b731
北青盈之宝剧场-停车场,40.018038,116.490137,北京市朝阳区利泽东二路2号北青盈之宝剧场,f04bf771088e14340b69d9e5,(010)64398547,1,f04bf771088e14340b69d9e5
北青盈之宝剧场地上停车场-出入口,40.018008,116.490068,利泽东二路2号,3433f3a5f4ae13393617dce3,,1,3433f3a5f4ae13393617dce3
小柯剧场,39.990619,116.504483,北京市朝阳区酒仙桥路4号798艺术区751时尚设计广场火车头广场对面,4d9b66024f9092c9cf06a418,(010)84599338,1,4d9b66024f9092c9cf06a418
798艺术区798剧场,39.988991,116.499628,七星西街1号,2849bba9fffe574887154104,13911692297,1,2849bba9fffe574887154104
前沿艺术展演中心,39.991102,116.507215,"北京市朝阳区酒仙桥路4号751园区内751DPARK北京时尚设计广场C203,极客公园右手侧",faceb0f46b759924b21e36d7,(010)84599695,1,faceb0f46b759924b21e36d7
秀剧场,39.989907,116.506866,北京市朝阳区酒仙桥路4号98艺术区751D·PARK北京时尚设计广场,f08a3229d826a8edbfa822cd,(010)65974890,1,f08a3229d826a8edbfa822cd
小椰子儿童音乐剧场,39.993202,116.505401,北京市朝阳区酒仙桥路2号798艺术区2号路b10,e5695282c308a50f1c389492,,1,e5695282c308a50f1c389492
秀剧场-售票处,39.989859,116.50682,北京市朝阳区酒仙桥路4号798艺术区751d·park北京时尚设计广场秀剧场,0ea809cc7bc61a014f3a59f7,,1,0ea809cc7bc61a014f3a59f7
中海视界大剧院,40.0218,116.566532,北京市朝阳区金盏乡蟹岛路1号会展中心1号,,(010)84890589,1,a6c6b75621fbc525da2f287e
中国大马戏,40.019597,116.565562,北京市朝阳区蟹岛路1号(机场辅路中段)蟹岛国际会展中心6号馆蟹岛内,,,1,2658e70b3f4c5df7accb66d3
天泰剧院,40.085416,116.4085,北京市昌平区东三旗甲1号,a311caac08f97beafadc850c,,1,a311caac08f97beafadc850c
星珠影业椅子剧场,40.081028,116.373763,北京市昌平区霍营新世纪商城四层(中西医结合医院斜对面),7c54fd1309d03725c51b753c,,1,7c54fd1309d03725c51b753c
北京福泰瑞禾影院管理有限公司,40.049796,116.417257,朝阳区安立路3号1幢1层106号,881b1d24adcf09e1a11de9d0,(010)85815988,1,881b1d24adcf09e1a11de9d0
大地影院(橙天嘉禾影城北京祥云店),40.096086,116.543327,北京市顺义区安泰大街9号院7号楼二层,bd0371860b678fbb9868b4ce,(010)57648168,1,bd0371860b678fbb9868b4ce
璃墟剧场,40.048798,116.49997,北京市朝阳区崔各庄乡何各庄村一号地艺术园区D区(近璃墟雅集),2a17bfc96a0c62e91f3894e2,(010)51661201,1,2a17bfc96a0c62e91f3894e2
陶身体剧场,40.052088,116.500375,崔各庄乡何各庄318,7024fd0bc90c39a1fd0eb0b7,,1,7024fd0bc90c39a1fd0eb0b7
中央戏剧学院剧场中心,40.111951,116.382709,上承路,e5c17c1acb13c39e5d17c3f8,,1,e5c17c1acb13c39e5d17c3f8
中华龙韵功夫表演团,40.111633,116.408815,北京市昌平区,81e0c34b93863353b23c81af,,1,81e0c34b93863353b23c81af
中国歌剧舞剧院,40.113812,116.563476,北京市顺义区后沙峪镇嘉瑞大厦5层中国歌剧舞剧院,,,1,8766183ca6e2c55b5fbe8614
中国歌剧舞剧院少儿艺术培训中心,40.113786,116.563361,北京市顺义区嘉瑞大厦1层106,9ebbdeaad72df936128824c9,,1,9ebbdeaad72df936128824c9
