name,lat,lng,adderss,street_id,telephone,detail,uid
良乡大学城西,39.7296,116.162684,地铁房山线,,,1,978e74fca993829689b9886d
苏庄,39.729197,116.131898,地铁房山线,,,1,14ea87df36beb45380288a6d
良乡南关,39.72947,116.147255,地铁房山线,,,1,49822a9404d8b0f08d1a896d
阎村东,39.734677,116.107001,地铁房山线;地铁燕房线,,,1,fabf32487c9b8287b817e7db
良乡大学城,39.729499,116.182872,地铁房山线,,,1,a56dabf0f7fb2fddbbdf8f6d
良乡大学城北,39.736109,116.189861,地铁房山线,,,1,bf9c661028f771b516948e6d
广阳城,39.754016,116.191395,地铁房山线,,,1,27a57de1e517aeb948fc8d6d
黄村火车站,39.728326,116.339482,地铁4号线大兴线,,,1,53524be5681fc6473804b16d
黄村西大街,39.73738,116.339128,地铁4号线大兴线,,,1,4115b62fc8e2ee51ff0eb06d
清源路,39.748354,116.339019,地铁4号线大兴线,,,1,f0afa56835284eacd718b76d
枣园,39.759079,116.338975,地铁4号线大兴线,,,1,24411bd2266fb36677e5b66d
义和庄,39.718296,116.325538,地铁4号线大兴线,,,1,ad98eb184009014dfb42b26d
稻田,39.800509,116.225429,地铁房山线,,,1,808ad61ea8a6e39141e1926d
篱笆房,39.766697,116.195928,地铁房山线,,,1,ebdce6d8fee6635997f08c6d
长阳,39.769411,116.219263,地铁房山线,,,1,11632ba165df78a85a10936d
高米店北,39.779548,116.337331,地铁4号线大兴线,,,1,237e50204d3b1e9b9968b46d
西红门,39.795445,116.335169,地铁4号线大兴线,,,1,5778cb03d327cb7527d2bb6d
大葆台,39.814112,116.298159,地铁房山线,,,1,326646f755192ee8dad8916d
高米店南,39.769059,116.33841,地铁4号线大兴线,,,1,b95dce3c98d5a0218a2fb56d
张郭庄,39.864102,116.193406,地铁14号线西段,,,1,a15c370891be585133870acd
园博园,39.867099,116.208364,地铁14号线西段,,,1,e0eb1f42100f17f0611809cd
大井,39.871571,116.281826,地铁14号线西段,,,1,107c62223da7fcbc87420ecd
大瓦窑,39.865215,116.246953,地铁14号线西段,,,1,a6be5df5384596412eb908cd
郭庄子,39.870755,116.259835,地铁14号线西段,,,1,d93c1aa07af2be0baf080fcd
丰台科技园,39.831449,116.303639,地铁9号线,,,1,79df95223da7fcbc86420eac
泥洼,39.8647,116.310813,地铁10号线,,,1,a4e20fcaa35f3ba55c0d02cd
西局,39.872237,116.309853,地铁10号线;地铁14号线西段,,,1,d851d2ccaab2fb7f410245cc
丰台东大街,39.86144,116.300215,地铁9号线,,,1,689b5a3a996927a041ab9a63
七里庄,39.873015,116.300553,地铁14号线西段;地铁9号线,,,1,36a965f0b54f373df32d837e
草桥,39.851597,116.359241,地铁10号线,,,1,3875d63a16104a0cb44f54cc
纪家庙,39.850124,116.339533,地铁10号线,,,1,9ce7f868f13d905e73455bcc
首经贸,39.85032,116.326613,地铁10号线,,,1,688753fadf6f7773a9175acc
丰台站,39.856026,116.311475,地铁10号线,,,1,b8d48458bdeb6544e11103cd
郭公庄,39.820764,116.308567,地铁9号线;地铁房山线,,,1,b69feda07af2be0bae080fac
科怡路,39.838664,116.303808,地铁9号线,,,1,56a05d624525bbe9c4f50dac
丰台南路,39.847201,116.302854,地铁9号线,,,1,bc9e731d8d65c36b83a00cac
四道桥,39.922119,116.140356,地铁S1线,,,1,edf3d128b55a918171210b74
桥户营,39.918355,116.132271,地铁S1线,,,1,3cb0b6f05506e0b30f0e6bb0
上岸,39.911139,116.128714,地铁S1线,,,1,ef7a9f2e9bafc62d88fc062c
石厂,39.895137,116.106975,地铁S1线,,,1,c32bc896c9d017370b69d987
栗园庄,39.901771,116.129827,地铁S1线,,,1,a132268badd8b1e6b34c49ac
小园,39.896156,116.121001,地铁S1线,,,1,d6f5420c924ab8cb5cbe86df
八角游乐园,39.913076,116.21939,地铁1号线,,,1,ad28546df35285eb851541d9
古城,39.913414,116.197072,地铁1号线,,,1,291c5802f26a751cbca240d9
金安桥,39.929962,116.169034,地铁6号线;地铁S1线,,,1,4d39b0a0751f44c988b9886b
神州租车(石景山古城地铁站送车点),39.913715,116.196106,北京市石景山区石景山路与古城小街交口东侧(1号线古城地铁站A口),,,1,7b020bfc56a45985b426556d
五棵松,39.913833,116.280423,地铁1号线,,,1,53889c15034f2e3f58bbbcde
玉泉路,39.913501,116.25947,地铁1号线,,,1,a27fa5a23a128501177643d9
八宝山,39.913185,116.242277,地铁1号线,,,1,a047555503a5bc5cbc4842d9
北京西站,39.900677,116.327811,地铁7号线;地铁9号线,,,1,d70673ae8f490e0d95ca0795
达官营,39.895671,116.342069,地铁7号线,,,1,f959332641cf40842b201aac
白堆子,39.929707,116.332359,地铁9号线,,,1,a6bd5df5384596412eb908cc
六里桥,39.886428,116.30961,地铁10号线;地铁9号线,,,1,8e949ab99cf7cc6a1d1d11ac
南礼士路,39.912979,116.359221,地铁1号线,,,1,8a0343f63b02ce4a6c20b9de
木樨地,39.913125,116.344097,地铁1号线,,,1,ab916729e5f1bd4cf703b8de
军事博物馆,39.913343,116.329314,地铁1号线;地铁9号线,,,1,e55c41bbc12e63bf8405bfde
莲花桥,39.904081,116.316823,地铁10号线,,,1,6734b3fc0e4b738515b54bcc
西钓鱼台,39.929671,116.304186,地铁10号线,,,1,79ea4fb7bf2e12b5b14c49cc
公主坟,39.913509,116.316696,地铁10号线;地铁1号线,,,1,4d620e76e7bc47605af6bede
万寿路,39.91371,116.30155,地铁1号线,,,1,753fa548a87161f27e29bdde
湾子,39.895902,116.3344,地铁7号线,,,1,9d7d2434afa857b41ce99904
六里桥东,39.89278,116.321463,地铁9号线,,,1,85d1a7294abe1ab9f42310ac
火箭万源,39.805336,116.425129,地铁8号线南段,,,1,2c1847170a57fe292afc4869
东高地,39.811433,116.415686,地铁8号线南段,,,1,1e384e24a64114bf4d3a59b8
旧宫,39.812543,116.467432,地铁亦庄线,,,1,fc28fbef88813cb716c8f66d
亦庄桥,39.808826,116.486851,地铁亦庄线,,,1,f66bd65678e80ecf05fef56d
瀛海,39.766756,116.455615,地铁8号线南段,,,1,06484e90dbc945524354d7be
五福堂,39.791422,116.430158,地铁8号线南段,,,1,9bdfc4fccbd747aec33644a8
德茂,39.778312,116.448258,地铁8号线南段,,,1,1324aed17b30f176d23ce311
同济南路,39.779147,116.546383,地铁亦庄线,,,1,e5940413e1d36cf6ef74f86d
荣京东街,39.799616,116.519744,地铁亦庄线,,,1,4caa69bf5073da5cea56fa6d
荣昌东街,39.789194,116.528038,地铁亦庄线,,,1,296d62d4eab8d63de315f96d
万源街,39.809251,116.511928,地铁亦庄线,,,1,46c1d3745c12d31fc7effb6d
亦庄文化园,39.812839,116.49701,地铁亦庄线,,,1,fb0adf155551fea63786f46d
次渠,39.809191,116.597911,地铁亦庄线,,,1,bd42d5e54e2acca33813fd6d
次渠南,39.800804,116.587934,地铁亦庄线,,,1,e79bcd2d4aed015a5ed4fe6d
经海路,39.789493,116.568912,地铁亦庄线,,,1,fe53c9ea8714679d55bfff6d
北京南站,39.870965,116.385169,地铁14号线东段;地铁4号线大兴线,,,1,c05bf27fd828662ff423105f
新宫,39.818302,116.372097,地铁4号线大兴线,,,1,888bb80548045569f23cba6d
永定门外,39.872792,116.405983,地铁14号线东段;地铁8号线南段,,,1,23675194c3166c00246e98f3
景泰,39.871443,116.417164,地铁14号线东段,,,1,0a12e7072b0fec75c6f025de
马家堡,39.859199,116.377878,地铁4号线大兴线,,,1,6bed4cbf5073da5cea56fa28
木樨园,39.865682,116.406334,地铁8号线南段,,,1,8cc98a74b6875481badf8f4d
石榴庄,39.852109,116.420566,地铁10号线,,,1,28582c4f09219f8eaf0457cc
角门东,39.851487,116.392751,地铁10号线,,,1,2c469aece30ad8582ab97ccd
大红门,39.851841,116.406253,地铁10号线,,,1,f30aeb450b488f6fa6c756cc
公益西桥,39.843056,116.377314,地铁4号线大兴线,,,1,db2cf35678e80ecf05fef528
角门西,39.851929,116.377644,地铁10号线;地铁4号线大兴线,,,1,6386f6745c12d31fc7effb28
海户屯,39.858215,116.406712,地铁8号线南段,,,1,dd699f6c5f952904a7c75607
大红门南,39.842626,116.407454,地铁8号线南段,,,1,13ab86fd1af3d21beb56fafa
和义,39.821382,116.408508,地铁8号线南段,,,1,7f947e7b8f8c2fc6f5c59c03
十里河,39.871712,116.465176,地铁10号线;地铁14号线东段,,,1,cea92a31b23ec1185fd4feeb
分钟寺,39.857886,116.460348,地铁10号线,,,1,f8da37042407fd57dd1e52cc
小红门,39.83399,116.465808,地铁亦庄线,,,1,d0910b86baf92f819e09f76d
蒲黄榆,39.871689,116.428894,地铁14号线东段;地铁5号线,,,1,2f83c8ff85250abeb65f1ede
刘家窑,39.863697,116.428565,地铁5号线,,,1,0cc8a7a86ef8036b33f71dde
方庄,39.871749,116.446196,地铁14号线东段,,,1,9a4692a87ef6e54cc0364470
成寿寺,39.851457,116.454315,地铁10号线,,,1,eb3b3ec71003a249c41e51cc
肖村,39.839926,116.455024,地铁亦庄线,,,1,2ff839fea9cfa740cb09f06d
宋家庄,39.851941,116.434913,地铁10号线;地铁5号线;地铁亦庄线,,,1,31e53429c2e36c4379b55c25
焦化厂,39.861686,116.543631,地铁7号线,,,1,3b3c158799bdad28eaf8533b
欢乐谷景区,39.872916,116.505927,地铁7号线,,,1,ea4f4467b89d21544002459b
垡头,39.867184,116.518225,地铁7号线,,,1,6ae6745c9729e458d3ff2308
双合,39.866414,116.533265,地铁7号线,,,1,0a7813b766065c7ec7f50d9f
亦庄火车站,39.818275,116.608099,地铁亦庄线,,,1,a085ae1245f332f1ae31e5b0
珠市口,39.897186,116.405037,地铁7号线;地铁8号线南段,,,1,0ad513bdf03d7222882fb510
陶然亭,39.884625,116.380902,地铁4号线大兴线,,,1,c6d32113e1d36cf6ef74f828
阜成门,39.929522,116.362817,地铁2号线,,,1,5142153d77c431e11911d5de
王府井,39.914398,116.417796,地铁1号线,,,1,0b163ed2266fb36677e5b6de
前门,39.906534,116.404276,地铁2号线,,,1,8d0658549b0c105878dbd2de
广安门内,39.89543,116.364626,地铁7号线,,,1,654839149f81a6c682288a1e
中国美术馆,39.93054,116.417376,地铁8号线,,,1,aedafb2683b10d3552e5c53b
东四,39.930647,116.423405,地铁5号线;地铁6号线,,,1,4d388f0396275777c06c14de
灯市口,39.923603,116.424169,地铁5号线,,,1,43aec313290410696e3e1bde
崇文门,39.906953,116.424439,地铁2号线;地铁5号线,,,1,1f7f3d0b961641927269d3de
东单,39.914503,116.425248,地铁1号线;地铁5号线,,,1,ddf8806835284eacd718b7de
灵境胡同,39.922136,116.380223,地铁4号线大兴线,,,1,5f67a93c56e2c864f5eafc28
西四,39.930248,116.37977,地铁4号线大兴线,,,1,5f72695e0f3bd0acf12d8328
和平门,39.906362,116.390619,地铁2号线,,,1,453ac92dfe531d422911d1de
宣武门,39.905881,116.380848,地铁2号线;地铁4号线大兴线,,,1,538300116f2a781d240bd0de
长椿街,39.90534,116.369911,地铁2号线,,,1,92e811a8a616e9644154d7de
天安门东,39.91408,116.407851,地铁1号线,,,1,940aeb3c98d5a0218a2fb5de
天安门西,39.913776,116.39805,地铁1号线,,,1,002975204d3b1e9b9968b4de
西单,39.913329,116.382001,地铁1号线;地铁4号线大兴线,,,1,722fee03d327cb7527d2bbde
桥湾,39.899001,116.414901,地铁7号线,,,1,9a6587ccccaea46a81288a2e
磁器口,39.899339,116.426035,地铁5号线;地铁7号线,,,1,9f5c0a9e1dc559654e2fdf41
菜市口,39.895375,116.38074,地铁4号线大兴线;地铁7号线,,,1,d2bae5a69b799790631c67e0
虎坊桥,39.895691,116.390654,地铁7号线,,,1,26d4a4a4c12825e1cac3db60
天桥,39.888891,116.405247,地铁8号线南段,,,1,3a86cbf0ee81e395095cb358
复兴门,39.913025,116.363762,地铁1号线;地铁2号线,,,1,afdc9d0548045569f23cbade
一嗨租车(灵境胡同地铁站便捷点),39.922272,116.379761,西单北大街53号,,,1,7a2be2d20f9af27b48cc4a97
大望路,39.914424,116.48342,地铁14号线东段;地铁1号线,,,1,2932e60e8703c20b0b5cb3de
朝阳门,39.930549,116.440635,地铁2号线;地铁6号线,,,1,19f06b69d2a493b92a06cede
东大桥,39.928625,116.458252,地铁6号线,,,1,6e10791195be8a4e2db17ecc
国贸,39.914435,116.467523,地铁10号线;地铁1号线,,,1,c688801de17d0472a21de9b4
金台夕照,39.922961,116.468282,地铁10号线,,,1,09d38b11a3f0eefe00294fde
呼家楼,39.928981,116.468237,地铁10号线;地铁6号线,,,1,3c35f2f82d1625bed7b74ede
永安里,39.914223,116.457089,地铁1号线,,,1,76056ee5681fc6473804b1de
金台路,39.929069,116.484892,地铁14号线东段;地铁6号线,,,1,63a590e45876565b871541ef
建国门,39.914505,116.441577,地铁1号线;地铁2号线,,,1,493a61dbcd6e54eaaaf0cdde
北京站,39.911127,116.433608,地铁2号线,,,1,7b203011c7dc4b206da3ccde
潘家园,39.881735,116.467741,地铁10号线,,,1,fb1d5c1e6219d2b192114ccc
平乐园,39.890758,116.483967,地铁14号线东段,,,1,8aa5dc0e4045f4e2b817e78d
劲松,39.890027,116.46801,地铁10号线,,,1,329c192994fb88054acc4ade
双井,39.899186,116.468453,地铁10号线,,,1,f8dcceb7bf2e12b5b14c49de
广渠门外,39.899309,116.455911,地铁7号线,,,1,9c9d7d84b1af78592cb17e39
北工大西门,39.880747,116.484017,地铁14号线东段,,,1,4febfe51ac3d24499cf77947
九龙山,39.899525,116.484689,地铁14号线东段;地铁7号线,,,1,179011335d98b1256168586b
天坛东门,39.888497,116.427392,地铁5号线,,,1,43d423228cf08f16d5851fde
广渠门内,39.899616,116.440943,地铁7号线,,,1,5b4a42dab2673818b35c6a8b
青年路,39.929469,116.523829,地铁6号线,,,1,1bac2f1440a0a7beadee7acc
高碑店,39.915798,116.538,地铁八通线,,,1,a139b531fda8805e9022e0de
十里堡,39.929238,116.508479,地铁6号线,,,1,861ab5b10813c6ee9ef779cc
四惠东,39.914943,116.522347,地铁1号线;地铁八通线,,,1,382fe242b45bfb1ff80cadde
四惠,39.91486,116.501945,地铁1号线;地铁八通线,,,1,0024210444453215c256acde
百子湾,39.898935,116.50382,地铁7号线,,,1,f6ff7cd713d79186b2077d56
化工,39.893222,116.510091,地铁7号线,,,1,77ed7dacc17501cfae045745
南楼梓庄,39.88078,116.507808,地铁7号线,,,1,b98d4ccadeeb0e419cf77949
大郊亭,39.899072,116.494711,地铁7号线,,,1,aedf28249adf1eb94afd3f5c
褡裢坡,39.929826,116.570223,地铁6号线,,,1,800967a721f094a72de67bcc
双桥,39.915885,116.583332,地铁八通线,,,1,0f84a0172f25114bd52ce2de
管庄,39.914907,116.605782,地铁八通线,,,1,f73c89229705ec65d33ce3de
黄渠,39.929937,116.584917,地铁6号线,,,1,c7ba06f712e914af44e274cc
传媒大学,39.915197,116.561375,地铁八通线,,,1,e01a5baf0610a96b2802e1de
苹果园,39.932436,116.184436,地铁1号线,,,1,ff9fdb36fe0574244c5547d9
杨庄,39.934174,116.194192,地铁6号线,,,1,c0ddbff33009f725601809d5
西黄村,39.939411,116.213386,地铁6号线,,,1,56fe760bb5e7c921d3f49e50
海淀五路居,39.9386,116.282736,地铁6号线,,,1,8815b6b9de1f0ace70210bcc
中铁三局集团北京地铁6号线西延02标田村车站工区,39.935851,116.260468,旱河路与田村路交叉口东100米,d57f49ffe2510a86badf8f9d,,1,d57f49ffe2510a86badf8f9d
火器营,39.972383,116.29561,地铁10号线,,,1,a503451e54ffab581cf74dcc
茶棚,39.988011,116.25461,西郊线,,,1,0c1f5a84ed3e11c7118824fe
田村,39.935623,116.259357,地铁6号线,,,1,c572ece4bb6a544d17764350
廖公庄,39.938025,116.233537,地铁6号线,,,1,1c4efb8e92463058fda77866
车道沟,39.954895,116.300274,地铁10号线,,,1,88e50a11a3f0eefe00294fcc
西土城,39.982026,116.360484,地铁10号线,,,1,2d180dc935fbae831c5800de
大钟寺,39.972034,116.35182,地铁13号线,,,1,0977db56470b0e033210afde
西直门,39.946436,116.361442,地铁13号线;地铁2号线;地铁4号线大兴线,,,1,fa69125c7d51c145374aaede
国家图书馆,39.948864,116.331897,地铁4号线大兴线;地铁9号线,,,1,a911c5ee29ebc3955ebe8628
魏公村,39.963457,116.329874,地铁4号线大兴线,,,1,a523992863e9afa5fadc8528
人民大学,39.97277,116.32809,地铁4号线大兴线,,,1,ae80941a3f2fe5a796ec8428
知春里,39.982061,116.336091,地铁10号线,,,1,9aac692139342d808afc06de
海淀黄庄,39.981865,116.324348,地铁10号线;地铁4号线大兴线,,,1,c9332a87cf26bf7a14c905de
知春路,39.982065,116.347619,地铁10号线;地铁13号线,,,1,c17de10c884d0b59b120a8de
长春桥,39.964876,116.300461,地铁10号线,,,1,bf0373f82d1625bed7b74ecc
苏州街,39.981704,116.312768,地铁10号线,,,1,899278188c804968863304de
巴沟,39.980463,116.300511,地铁10号线,,,1,092337b9de1f0ace70210bde
巴沟,39.980678,116.298179,西郊线,,,1,1330ca48faf89de2ee74f863
车公庄西,39.938074,116.350644,地铁6号线,,,1,5b3c1e33abceb3b597ca07cc
白石桥南,39.938399,116.332038,地铁6号线;地铁9号线,,,1,d93f1aa07af2be0baf080fcc
动物园,39.943923,116.345204,地铁4号线大兴线,,,1,f6d78fec45db67f7714b8728
车公庄,39.938351,116.361834,地铁2号线;地铁6号线,,,1,fe261069b33af18a08a8d4de
花园桥,39.938382,116.317559,地铁6号线,,,1,4805ab87cf26bf7a14c905cc
慈寿寺,39.93927,116.300677,地铁10号线;地铁6号线,,,1,06a4f9188c804968863304cc
香山,39.999821,116.211114,西郊线,,,1,24081e60e748a60a0b69d98a
植物园,39.999254,116.221373,西郊线,,,1,af96812f26cbdbe92b11d1ae
马连洼,40.038769,116.279261,地铁16号线,,,1,fcf4ac0162375d4683a00c0f
北宫门,40.008678,116.28399,地铁4号线大兴线,,,1,60d8431028f771b516948e28
农大南路,40.027823,116.288702,地铁16号线,,,1,f55dd9e80ba0a48bf92213bd
安河桥北,40.018657,116.276432,地铁4号线大兴线,,,1,fae158e1e517aeb948fc8d28
颐和园西门,39.991999,116.269675,西郊线,,,1,d52b0d6ff8e8dc985abbbc31
万安,39.989737,116.238603,西郊线,,,1,3a529a2f3b14a80e83a00ce4
上地,40.038699,116.326836,地铁13号线,,,1,32612b100e275909110daade
五道口,39.998568,116.344434,地铁13号线,,,1,fc272e4a8d1788696040a9de
中关村,39.989956,116.323066,地铁4号线大兴线,,,1,33ada2df36beb45380288a28
清华东路西口,40.0063,116.345527,地铁15号线,,,1,dbae86e3bffebcf5badf8f94
永泰庄,40.043692,116.361159,地铁8号线,,,1,2535aaf0fb50b53e210220ac
六道口,40.006718,116.359309,地铁15号线,,,1,01667fc3bf46c9afb11e36db
北京大学东门,39.998006,116.322265,地铁4号线大兴线,,,1,6cc50f9404d8b0f08d1a8928
圆明园,40.005466,116.315938,地铁4号线大兴线,,,1,b4c951fca993829689b98828
西苑,40.0049,116.297853,地铁16号线;地铁4号线大兴线,,,1,78298ef0f7fb2fddbbdf8f28
北安河,40.073863,116.136825,地铁16号线,,,1,c74820aaf87c3b266c476023
稻香湖路,40.074788,116.194753,地铁16号线,,,1,0dfcb1edc4f3013b0869d919
屯佃,40.074106,116.222442,地铁16号线,,,1,c74e42eec82ef46803294fcc
温阳路,40.074892,116.167825,地铁16号线,,,1,5da91083893b370958f6beda
永丰南,40.071669,116.254611,地铁16号线,,,1,8c71966addaa3ebbc72ba172
西北旺,40.055297,116.264078,地铁16号线,,,1,67b4fafcc9ddfe4eca291538
永丰,40.077644,116.244766,地铁16号线,,,1,b3f79d48a241a32583a00cf6
西二旗,40.058918,116.312621,地铁13号线;地铁昌平线,,,1,4e2e5e35444596fbf4eafc53
生命科学园,40.100975,116.30055,地铁昌平线,,,1,0a4b7d02f26a751cbca2406c
平西府,40.095792,116.357247,地铁8号线,,,1,aa8f6eb3baff841b095cb308
育知路,40.09371,116.333898,地铁8号线,,,1,32c90b23cc4790a87369d332
育新,40.066124,116.353997,地铁8号线,,,1,73eae3779f05a5aabfa822ac
西小口,40.052716,116.358213,地铁8号线,,,1,f34d2b573370194b9de321ac
回龙观,40.076426,116.34232,地铁13号线,,,1,686b080d95d0f74fefe4a5de
龙泽,40.076647,116.326173,地铁13号线,,,1,b60b7940ae0a139ece06a4de
沙河,40.154693,116.295058,地铁昌平线,,,1,743176ccaab2fb7f4102456c
巩华城,40.137318,116.300434,地铁昌平线,,,1,8cb129b57d31784b4d6d466c
朱辛庄,40.110334,116.32013,地铁8号线;地铁昌平线,,,1,f78fa7c0bbbc9d6303ec0196
一嗨租车(朱辛庄地铁站便捷点),40.113315,116.318973,北京市昌平区回昌东路朱辛庄地铁站对面,,,1,cd138deed369f4987dc876b6
积水潭,39.954765,116.379185,地铁2号线,,,1,025c390223e487e1d1ff23de
和平西桥,39.974502,116.424463,地铁5号线,,,1,5402ecb99cf7cc6a1c1d11de
牡丹园,39.982371,116.376446,地铁10号线,,,1,b8e293fc28cd251102ec01de
安贞门,39.983322,116.412371,地铁10号线,,,1,b3731bece30ad8582ab97cde
惠新西街南口,39.983276,116.42404,地铁10号线;地铁5号线,,,1,68923af04a242554326212de
和平里北街,39.964752,116.425051,地铁5号线,,,1,5b47d1294abe1ab9f52310de
北新桥,39.947112,116.423298,地铁5号线,,,1,b00b773e7f6bf160f5b916de
安定门,39.955441,116.414597,地铁2号线,,,1,49db5d573370194b9ce321de
雍和宫,39.955113,116.42312,地铁2号线;地铁5号线,,,1,9ba3dcf0fb50b53e200220de
安华桥,39.974878,116.400603,地铁8号线,,,1,3d00aa624525bbe9c5f50dcc
安德里北街,39.963931,116.400884,地铁8号线,,,1,644aa46befb94d90b45f1ed8
新街口,39.94658,116.374132,地铁4号线大兴线,,,1,d6e547bece4c4917b03c8128
北土城,39.983254,116.400663,地铁10号线;地铁8号线,,,1,39e10558bdeb6544e11103de
健德门,39.982833,116.387816,地铁10号线,,,1,27d78ecaa35f3ba55c0d02de
鼓楼大街,39.954724,116.40011,地铁2号线;地铁8号线,,,1,c97c95779f05a5aabea822de
张自忠路,39.939914,116.423579,地铁5号线,,,1,0e283020d139f925c82915de
北海北,39.939493,116.39289,地铁6号线,,,1,a4e10fcaa35f3ba55c0d02cc
南锣鼓巷,39.93984,116.409683,地铁6号线;地铁8号线,,,1,cfaef99f6672f32dad31e535
什刹海,39.944154,116.402547,地铁8号线,,,1,ebf314200e805ddd2fe67bb8
平安里,39.939264,116.378635,地铁4号线大兴线;地铁6号线,,,1,7387684bcf598975e9e58228
三元桥,39.96688,116.463573,地铁10号线;机场线,,,1,7becb6042407fd57dd1e52de
亮马桥,39.955006,116.468743,地铁10号线,,,1,712f82007b19e457ebf853de
柳芳,39.964106,116.439265,地铁13号线,,,1,2bcbdf2b7f7aa865f7c59cde
团结湖,39.939382,116.468337,地铁10号线,,,1,2435c41e54ffab581cf74dde
枣营,39.950188,116.48155,地铁14号线东段,,,1,2effad64d800a58c9d9d6890
农业展览馆,39.946988,116.468772,地铁10号线,,,1,442bdd1e6219d2b192114cde
朝阳公园,39.939443,116.484946,地铁14号线东段,,,1,3f60bf93763b9ef14054d744
太阳宫,39.978367,116.454059,地铁10号线,,,1,6a0dbfc71003a249c41e51de
东直门,39.947892,116.441454,地铁13号线;地铁2号线;机场线,,,1,d600d97d2e2bce8caa059dde
光熙门,39.974474,116.438355,地铁13号线,,,1,22d13de0792cf934912ca3de
芍药居,39.983549,116.443571,地铁10号线;地铁13号线,,,1,34cf35fa9be7ff62c07da2de
东四十条,39.939841,116.440638,地铁2号线,,,1,269987ecaf8ffcb9445726de
将台,39.97696,116.496253,地铁14号线东段,,,1,f1e901e18e5846e017948e1c
东风北桥,39.9645,116.492579,地铁14号线东段,,,1,f30e4c7fdee0b517bca8229b
常营,39.93151,116.605447,地铁6号线,,,1,a7ea35ee92e17dabc71b75cc
奥林匹克公园,40.007852,116.398711,地铁15号线;地铁8号线,,,1,5644cf50f6cf052382a12ec3
北苑路北,40.036821,116.424525,地铁5号线,,,1,bc362b624525bbe9c5f50dde
奥体中心,39.992442,116.400191,地铁8号线,,,1,27aebfcb97b74d5e63180929
惠新西街北口,39.994151,116.423532,地铁5号线,,,1,bddbec23a31a0b2bfa2213de
林萃桥,40.027995,116.378905,地铁8号线,,,1,aa517f887af77d1e8d7727ac
北沙滩,40.007538,116.375561,地铁15号线,,,1,b9ef9ad5c949ee9988b988cf
大屯路东,40.009611,116.424567,地铁15号线;地铁5号线,,,1,6a08051d8d65c36b82a00cde
安立路,40.008946,116.414285,地铁15号线,,,1,d4bc4b9718a82a9a704b87c5
森林公园南门,40.016211,116.399036,地铁8号线,,,1,9c0ff1ecaf8ffcb9455726ac
望京南,39.990534,116.488454,地铁14号线东段,,,1,65f410b6ddc6027a2b3a9f3d
阜通,39.997887,116.477642,地铁14号线东段,,,1,530e0e765ad687e9f42310e9
望京,40.004532,116.475304,地铁14号线东段;地铁15号线,,,1,7e51cbc51502eabd293a9f6d
善各庄,40.03309,116.484762,地铁14号线东段,,,1,debbab5fba8abe05a21de96a
来广营,40.026145,116.473489,地铁14号线东段,,,1,fb00b00265ddcc4f8733043f
望京西,40.00107,116.455519,地铁13号线;地铁15号线,,,1,e3cf20e493fd1da9c62ba1de
东湖渠,40.016228,116.474032,地铁14号线东段,,,1,a2ec780036eaf0294c6d467c
关庄,40.007136,116.437889,地铁15号线,,,1,5e5458247083bc730d3ddad4
望京东,40.00927,116.4933,地铁15号线,,,1,df4c0dec195dc46d715e8079
马泉营,40.039847,116.509638,地铁15号线,,,1,2b56fc7d2e2bce8caa059d6d
崔各庄,40.028437,116.499145,地铁15号线,,,1,2e00ad2c48c2934cd3f49e6d
天通苑北,40.089597,116.419385,地铁5号线,,,1,2269b60891be585133870ade
天通苑,40.081478,116.419233,地铁5号线,,,1,61de9e42100f17f0611809de
回龙观东大街,40.086965,116.369753,地铁8号线,,,1,19bff3e301afe8b63b221cac
天通苑南,40.072752,116.419113,地铁5号线,,,1,218bdcf5384596412eb908de
立水桥,40.059244,116.418274,地铁13号线;地铁5号线,,,1,58099ba07af2be0baf080fde
立水桥南,40.048143,116.420973,地铁5号线,,,1,9349e3223da7fcbc87420ede
霍营,40.077129,116.366721,地铁13号线;地铁8号线,,,1,182633d77101d6ad39e4a6de
北苑,40.048872,116.441315,地铁13号线,,,1,c52df6e486e315b324e0a0de
孙河,40.051264,116.54104,地铁15号线,,,1,c89dfa2b7f7aa865f7c59c6d
T3航站楼,40.058887,116.621643,机场线,,,1,5511d1c3b7af2058d02dd6df
国展,40.075932,116.561721,地铁15号线,,,1,c78718e0792cf934912ca36d
T2航站楼,40.085493,116.599563,机场线,,,1,92ef11a8a616e9644154d7df
花梨坎,40.090312,116.564223,地铁15号线,,,1,d39910fa9be7ff62c07da26d
后沙峪,40.119865,116.570793,地铁15号线,,,1,069905e493fd1da9c62ba16d
南法信,40.134458,116.616411,地铁15号线,,,1,dba4ccd282e57f532e4733ac
