name,lat,lng,adderss,street_id,telephone,detail,uid
丰巢驿站,39.74129,116.138952,西潞园2里18号楼,,,1,59d65439403c1f8a3a13fd98
东方威尼斯演艺酒吧,39.72899,116.163057,北京市房山区鸿顺园商业1号楼2层西侧,d458de020de0a937f4231022,,1,d458de020de0a937f4231022
彼岸花酒吧(良坨大街),39.749328,116.137082,北京近郊房山区良坨北路1-14号,3f46ff846016b04a343a71a1,,1,3f46ff846016b04a343a71a1
Partner酒吧,39.741938,116.165948,良乡东路北150米伟业嘉园北里,,,1,6d0e982b7b698726c52ba1b6
星巴克(政通南路店),39.752102,116.147963,房山区通政南路2号院龙湖房山天街1层,,(010)61351520,1,2c30b74bafec2bfc3686f4d3
小酒馆,39.732479,116.146752,北京市房山区南关西路,,,1,59ae1c12a53d31b81e58000e
丰巢自提柜,39.760766,116.167528,长阳镇绿地启航国际15号楼,36eb608614094815626858fa,,1,36eb608614094815626858fa
忆青春酒吧,39.728754,116.176962,北京市房山区书院南街12号院2号楼210(中商惠民超市旁),,,1,79c8cc6b7b41f127ca1b95fb
曳紫酒吧,39.73166,116.177874,良乡东区十六号路首开熙悦书香睿府2号楼,,,1,41407c090f55872e8f1a89d9
小民谣酒吧,39.731341,116.178987,良乡东区十六号路西50米,,,1,003c16fd7b9c5f481d1d1190
BOSS酒吧,39.742053,116.359187,北京市大兴区团河路48号,2c4047b55828b80b631c6723,,1,2c4047b55828b80b631c6723
星巴克(大兴天键广场店),39.758696,116.322141,大兴区枣园路26号大兴天键广场1层,,(010)61240871,1,eba3d3e181ebdd702a02e18d
010久8酒吧,39.744519,116.345727,大兴区兴丰大街61号,,,1,75850fb86b44451b08ccdd03
Mo Club 酒吧,39.754784,116.338075,"北京市大兴区兴华大街二段3号院2号楼1层110室(波普中心东门北侧,巴蜀阁南侧)",cf45e840c2c0394a4f6d461f,,1,cf45e840c2c0394a4f6d461f
星巴克(大兴泰禾店),39.719201,116.326219,大兴区新源大街30号1号楼1层1088-1090号,,(010)53918390,1,9b5d8073eac912da1b94c608
翅八串吧酒吧,39.739959,116.350308,黄村西大街龙河路115号,,,1,561aa5abd02d762c1e5800e6
星巴克(天星街店),39.763093,116.166862,房山区天星街1号7号楼绿地缤纷城F1层,4dfee1e959c65f1643ab9a24,(010)52594162,1,4dfee1e959c65f1643ab9a24
星巴克(悦盛路店),39.769104,116.193187,房山区悦盛路6号首创奥特莱斯F1层F1-B06号,e1c4d65154cb0eaa430245e2,(010)60356869,1,e1c4d65154cb0eaa430245e2
museclub酒吧,39.776395,116.177366,北京市房山区京良路80号(金桥国际底商),,,1,c79fc2bd220180fd7369d31b
胡桃里音乐酒馆(大兴店),39.763816,116.347766,北京市大兴区康庄路2号,,,1,787954a09e1337e1b320a885
星巴克(欣宁大街店),39.793945,116.334072,大兴区西红门镇欣宁大街15号北京荟聚西红门购物中心L1层,5c56502d99fb2ef3c4f50d65,(010)50931855,1,5c56502d99fb2ef3c4f50d65
慢点酒吧,39.779383,116.336144,兴华大街地铁高米店北A口出来余生记南侧二楼,cbc818d2aad1acd9c17da2db,,1,cbc818d2aad1acd9c17da2db
星巴克(金星西路店),39.770181,116.340647,大兴区金星西路3号,ff304319715a835d09b93a0d,(010)53948665,1,ff304319715a835d09b93a0d
U Lounge私人定制酒吧,39.771101,116.339099,高米店南绿地中央广场C座1517(绿地缤纷城),,,1,3ca7d4dd9c5fb2008936ee85
星巴克(宏福路店),39.796968,116.346291,北京市大兴区西红门宏福路鸿坤生活广场一层,de6f0ec4668d92c9f60e77ea,(010)60292130,1,de6f0ec4668d92c9f60e77ea
1206酒吧(日月星辰店),39.769666,116.343779,兴丰大街(一段)18号院1号楼西斯莱公馆1号楼底商,8cebe9e6649ccceffda778fe,,1,8cebe9e6649ccceffda778fe
bruno caffe(绿地缤纷城店),39.769875,116.340419,北京市大兴区兴华大街与金星西路交叉口东北角绿地缤纷城F1,e8a1bf7aabe5710bae080f15,(010)80222687,1,e8a1bf7aabe5710bae080f15
奥宇酒店-大堂吧,39.768126,116.358133,金星路12号院1,cfc4f6348ad4148a8c1a89ba,,1,cfc4f6348ad4148a8c1a89ba
醉梦酒吧咖啡,39.873806,116.284215,北京市丰台区西四环南路55丰台体育中心西12号看台,06a1e9450099a9d7df1e52a8,,1,06a1e9450099a9d7df1e52a8
星巴克(南四环西路店),39.83307,116.292817,丰台区南四环西路188号,a011e62f8f400c9c246e98fb,(010)63729601,1,d5d62d0482f0f09ff6e73b22
星巴克(西四环南路店),39.84412,116.291715,丰台区西四环南路103号资和信百货商场第一层1024单元,0cb6d548172029772fb90817,(010)83203068,1,0cb6d548172029772fb90817
圣地苑宾馆-大堂吧,39.866101,116.293704,北京市丰台区丰台北大街3号,21f7fddfa5696bf988f15d7a,,1,21f7fddfa5696bf988f15d7a
脏SWAG UNITED,39.850776,116.32185,北京市丰台区首经贸北路万芳园二区15-21,27d36c0766bbcfecb5147f39,,1,27d36c0766bbcfecb5147f39
星巴克(丰北路店),39.872831,116.299804,丰台区丰北路甲79号华堂商场1层1-001单元,c2a73e3b4434478d4151c0b9,(010)63801101,1,c2a73e3b4434478d4151c0b9
上岛咖啡(丰管路店),39.864366,116.30554,北京市丰台区丰管路君颐润华酒店西侧2楼,23db989d8f1a2c254afd3fdb,(010)57270808,1,23db989d8f1a2c254afd3fdb
星巴克(丰科路万达广场店),39.830522,116.304416,丰台区五圈路万达广场F1层1056号,,(010)52806313,1,8bdd76117c0bfa591894c6ea
星巴克(南四环西路第二店),39.833382,116.328691,丰台区南四环西路76号花乡奥莱物业2号楼一层02111商铺,,(010)83798670,1,33547a2052e078f47dc876d0
星巴克(丽泽桥恒泰店),39.8722,116.312038,丰台区丰台北路18号院恒泰广场一层,dee82be90e0c4038fa42b29d,(010)63708711,1,f383cda4d0248d9be115f92e
星巴克(西铁营店),39.86655,116.361648,西铁营中路1号万达广场F1层,0a59265438b6bf46e81e97b9,(010)83557911,1,0a59265438b6bf46e81e97b9
星巴克(丰葆路店),39.823835,116.298777,丰台区丰葆路88号院永旺梦乐城1层,,(010)83816426,1,6a5c8b91b91a75fec42ba18f
luckincoffee(诺德中心店),39.83557,116.306227,丰台区南四环西路128号院2号楼1层105号,,"4000100100,4006692002,18612291561",1,6a8e807fd9689c36c16c14c9
北京西国贸大酒店-酒吧,39.861645,116.315387,北京市丰台区丰管路16号院8号楼,b180c03923fda9d5018972c4,(010)83832222,1,b180c03923fda9d5018972c4
北京西国贸大酒店-大堂吧,39.861645,116.315387,北京市丰台区丰管路16号院8号楼北京西国贸大酒店1层,1ab65dacb2677505ede4a5ee,(010)83832222,1,1ab65dacb2677505ede4a5ee
梦工厂,39.910744,116.134854,北京市门头沟区永定镇金沙西街10号院华润悦景湾6-2底商,,,1,8a24fdd6ebc7bc5f2cb17e65
丽维赛德酒店大堂吧,39.875323,116.202405,园博园主展馆,,,1,bc90fdbfd8e411e9fbdc8593
Kiezklub街区酒库,39.91052,116.228425,北京市石景山区银河大街银河财智中心A2座地下一层B141,,13681510255,1,46ec971aea8417d8250bd027
丽维赛德酒店-行政酒廊,39.875323,116.202405,丽维赛德酒店4层,,(010)83389999,1,9d5a936acdd2b6401df74d91
丰巢自提柜,39.90034,116.18051,水泥厂滨河园1号院4号楼2-1601,,,1,fd9b1b3aa39269465a3ac8ed
星巴克(首钢店),39.914575,116.177299,北京市石景山区石景山路68号晾水池东路(三高炉北侧),,(010)88296062,1,8c618beceae1340ab34c4912
萨莎酒吧,39.92855,116.211922,北京市石景山区阜石路辅路八角东街15号俄罗斯餐厅院内(俄罗斯餐厅沃尔玛山姆会员店茂华大厦),8def215e3a4211859cf779f2,,1,8def215e3a4211859cf779f2
星巴克(阜石路第一店),39.929441,116.178519,石景山区阜石路300号喜隆多新国际购物中心F1层,43fca392a631a32002897284,(010)53021090,1,43fca392a631a32002897284
i7咖啡,39.911731,116.190103,石景山区城通街26号院2号楼2层8-42号,,18601280902,1,5bbcee0480459ba62d473342
JFREEDOM,39.916441,116.283277,北京市海淀区华熙LIVE·hi-up地下1层西区W2,0e100210e45f55437369d3e4,,1,0e100210e45f55437369d3e4
大成路九号-大堂吧,39.896258,116.275409,大成路9,3c40ec8a04ca89f5e5e9656f,(010)88279999,1,3c40ec8a04ca89f5e5e9656f
瑞成大酒店-大堂吧,39.925286,116.289132,北京市海淀区西翠路9号瑞成大酒店1层大堂,3886328273e3e9839fec2bc4,(010)68132255,1,3886328273e3e9839fec2bc4
丰巢,39.909094,116.247749,北京市石景山区玉泉西里二区2号楼4单元,,,1,e0c5f35210ac8504f4eafcdf
丰巢自提柜,39.929271,116.292413,定慧东里中化社区八号楼,,,1,92ca3e126880abbe3686f44c
丰巢自提柜,39.921996,116.253597,玉泉西街1号院1号楼门口,,,1,a3754db15b6c28b7d92f28b7
星巴克(石景山万达广场店),39.911923,116.232713,石景山区石景山路乙18号院4号楼石景山万达广场购物中心2层,08a0c6c22edd0f00adb22a80,4008206998,1,08a0c6c22edd0f00adb22a80
星巴克(北京鲁谷远洋店),39.909366,116.258693,石景山区玉泉路59号院1号楼远洋沁山水1层A001单元,ee5935a620c30df3f503b83c,(010)88632549,1,ee5935a620c30df3f503b83c
星巴克(大成路店),39.895052,116.271593,丰台区大成南里三区13号翠微百货一层,251374c96992b726a11de953,(010)68260728,1,251374c96992b726a11de953
星巴克(五棵松卓展店),39.919925,116.285006,海淀区复兴路69号3号楼卓展购物中心1层,,(010)88199278,1,c60c648f33e450621329357e
星巴克(五棵松第二店),39.919438,116.284836,海淀区复兴路69号卓展购物中心5楼,,(010)88199321,1,8ec964b435f1f5ce085cb3af
星巴克(永定路店),39.911067,116.271498,海淀区永定路88号,496d519bdf7f192cb6147f16,(010)56057683,1,496d519bdf7f192cb6147f16
SOARSPACE,39.91635,116.284589,复兴路69号院2号020室,,(010)68153350,1,239d54c70f2fd272f7eafc4b
猫头鹰音乐部落(五棵松店),39.914686,116.276072,北京市海淀区复兴路79号院627服务楼院外航天长峰电子四层402室,,,1,d741fae2fd722624abf72936
华人街俱乐部,39.921594,116.303129,北京市海淀区万寿路翠微中里15层乙15号,480b24d0643664e89dec2bbe,,1,480b24d0643664e89dec2bbe
juice bar,39.918248,116.310936,太阳宫凯德Mall地下2层,,,1,36ce4b63736f4730e812e446
丰巢自提柜,39.882189,116.344927,乐城小区7号楼,220e20c11625de581776435d,,1,220e20c11625de581776435d
丰巢自提柜,39.896923,116.346318,北京市西城区手帕口西街广华轩小区三号楼,,,1,1e9f6b77381c3c7793114c39
丰巢自提柜,39.89051,116.328682,北京市丰台区马连道太平里4号楼,,,1,c960d069ce128e2ec27da2b3
金色夏日商务酒店-大堂吧,39.899696,116.35924,西便门内大街85号,c3b5d3f9df9453ab0bccdd53,,1,c3b5d3f9df9453ab0bccdd53
丰巢自提柜,39.922652,116.301813,万寿路翠微西里小区10号楼907户,,,1,faac0b20b5208119c356accc
星巴克(朗琴国际大厦店),39.894202,116.348316,西城区广安门外大街168号天虹百货商场1层101-1号,9ee6b0dc41a610f2e856faf3,(010)63381606,1,9ee6b0dc41a610f2e856faf3
三个火枪手精酿啤酒吧,39.93071,116.322919,北京市海淀区阜成路北三街23号109户,,,1,6c457fc0436f7c18e0110362
星巴克(羊坊店路店),39.905018,116.32846,海淀区羊坊店路18号光耀东方广场一层103单元,261d9a8f181b11948c1a894d,(010)57536322,1,261d9a8f181b11948c1a894d
上岛咖啡(玉渊潭南路店),39.917264,116.33741,北京市海淀区玉渊潭南路3号,a7c56ee024c056aaa3acc4d8,(010)68575598,1,a7c56ee024c056aaa3acc4d8
星巴克(万丰路店),39.88888,116.30422,丰台区万丰路68号和谐广场1层,488274187ee93da0c17da27c,(010)63254312,1,488274187ee93da0c17da27c
星巴克(复兴门外店),39.912428,116.35752,西城区复兴门外大街A2中化大夏1楼,540c728ea74b22bea5da3954,(010)68568009,1,540c728ea74b22bea5da3954
唐秀酒吧,39.913624,116.349719,西长安街复兴门外大街19号唐拉雅秀酒店B1(北京唐拉雅秀酒店),8532ca85cf559197220262fd,,1,8532ca85cf559197220262fd
星巴克(三里河东路店),39.913543,116.350994,西城区复兴门大街15号长安商场F1层,03de675cb05cf7a6932ca391,(010)68056720,1,03de675cb05cf7a6932ca391
星巴克(建威大厦店),39.914228,116.359599,西城区南礼士路66号建威大厦一层,4eb3b5332517096c4302455e,(010)68018027,1,4eb3b5332517096c4302455e
星巴克(翠微路店),39.918612,116.309732,海淀区翠微路12号凯德Mall1层101-06-44-K12B号,3fac3aeaa1d89c551b11d517,(010)88633651,1,3fac3aeaa1d89c551b11d517
清香林茶楼(万寿路店),39.918423,116.301782,海淀区翠微南里21号楼,eb367503900ea40201ec01bc,(010)68274954,1,eb367503900ea40201ec01bc
金点咖啡酒吧,39.875322,116.30041,西局西街300号邦泰宾馆1层,7849f89b0431fb0872455b73,,1,7849f89b0431fb0872455b73
星巴克(翠微广场店),39.914432,116.311732,北京市海淀区复兴路翠微广场购物中心地上一层110号商铺,b724a62b08e43e435f0d0286,(010)68265331,1,b724a62b08e43e435f0d0286
裕龙国际酒店-大堂吧,39.928294,116.304674,北京市海淀区阜成路40号裕龙国际酒店1层大堂,1e9e70a8cede99a47c29bd97,,1,1e9e70a8cede99a47c29bd97
星巴克(北京西站第一店),39.901038,116.32819,丰台区莲花池东路118号北京西站通廊7-1号,,(010)51931281,1,67a5cd8376252f8d45e2740f
杰西咖啡(白云时代大厦店),39.903934,116.346316,北京市西城区莲花池东路甲5号白云时代大厦1楼(近莲花池东路),b1c556e853d07f15b426554d,(010)63408780,1,b1c556e853d07f15b426554d
京都信苑饭店-大堂酒吧,39.904335,116.318586,北京市海淀区什坊院6号京都信苑饭店1层,81a332ce64fc25c0f603b872,(010)63902138,1,81a332ce64fc25c0f603b872
为他茶楼,39.885226,116.357223,西城区广安门南街30号19幢,,(010)63518878,1,669d726510699a8082a12e70
三国鼎盛茶楼(翠微店),39.921506,116.311468,海淀区翠微路颐源居8号楼底商,cc986fcad3cdd7e501294f6a,15801289845,1,cc986fcad3cdd7e501294f6a
京都信苑饭店-酒吧,39.90384,116.318766,什坊院6号,88f6e796d4407f8e077ce8bc,,1,88f6e796d4407f8e077ce8bc
金色茶苑,39.899676,116.359076,西城区西便门内大街85号,d6cbafe712a40679912ca36c,16601103579,1,d6cbafe712a40679912ca36c
中土大厦-大堂吧,39.90373,116.340656,北京市海淀区北蜂窝6号中土大厦1层,2ebd8cadf984440bb34c49ab,(010)51818888,1,2ebd8cadf984440bb34c49ab
庭苑花园酒吧,39.930934,116.360601,北礼士路98号北京金都假日饭店1层,89dd60b732cce7c42fb17e0d,,1,89dd60b732cce7c42fb17e0d
猫聆酒咖,39.891478,116.333851,北京市西城区马连道路6号院-4号-110底商猫聆酒咖,,,1,56f31638c4afef84b426550c
北京希尔顿逸林酒店-酒吧,39.894485,116.347079,北京市西城区广安门外大街168号北京希尔顿逸林酒店一楼,a47fe12c97f0f6553a04b1ff,"(010)63381999,(010)63381888",1,a47fe12c97f0f6553a04b1ff
深圳大厦-酒吧,39.896017,116.353741,广安门外大街1号,98681df961449b39210220e9,,1,98681df961449b39210220e9
梅地亚中心-大堂酒吧,39.916398,116.326852,复兴路乙11号梅地亚中心1层,a5097bfacaa8a77af13cbaa4,,1,a5097bfacaa8a77af13cbaa4
乐在啤中啤酒屋(东高地店),39.800786,116.426359,东高地梅园小区梅园小区西门45号商业楼一楼,,,1,e0c3dac149e09b86b21e3638
猎人据点酒吧,39.809959,116.373621,槐房西路316号底商(格林豪泰酒店北行30米),a2cc61c404894e4af32d8325,,1,a2cc61c404894e4af32d8325
啤库精酿啤酒吧,39.799068,116.42607,北京市丰台区南大红门路55号,b73f00f5bda71f87ad31e520,(010)67063296,1,b73f00f5bda71f87ad31e520
星巴克(星光影视基地店),39.778676,116.369829,大兴区北兴路2号1幢星光影视园A座,734b284aa7c6bcbeb2077d6f,(010)60224277,1,734b284aa7c6bcbeb2077d6f
格力森鲜啤工场(旧宫店),39.805539,116.461831,北京市大兴区旧头路31号,52d1883954d1f9c51e5800b2,18610671181,1,52d1883954d1f9c51e5800b2
星巴克(旧宫万科店),39.811401,116.466664,大兴区旧宫忠凉路1号院号1号楼住总万科广场一层L1001-L1002号单元,d990bd86d4acdb4f1b94c6d2,(010)60845092,1,d990bd86d4acdb4f1b94c6d2
荆棘酒吧,39.811837,116.462192,富力盛悦居19号楼底商102,,,1,cc70534ac462f3c7157643b6
kaffal bar酒吧(北京华联购物中心店),39.811847,116.508637,北京市大兴区荣华中路8号北京华联F4,01afa8b4dc5a8b45ddee8b89,,1,01afa8b4dc5a8b45ddee8b89
醇BAR,39.812856,116.499858,北京市大兴区亦庄经济技术开发区林肯公园b区3号楼底商111二楼,,,1,cab6a36ae8c92686fa0cade0
燃CLUB,39.812572,116.500047,北京市大兴区天华东路,,,1,015146e1ba6bf2ccae080f40
星巴克(荣华南路店),39.788389,116.52387,大兴区经济技术开发区荣华南路15号院1号楼101-011室,ce4e5106ed9fa56846e27478,(010)67854452,1,ce4e5106ed9fa56846e27478
星巴克(朝林广场店),39.799168,116.512393,大兴区荣华中路19号朝林广场A座一层,8de9c59d41806226d3ff2392,(010)67857761,1,8de9c59d41806226d3ff2392
星巴克(文化园西路店),39.811811,116.500901,大兴区经济技术开发区文化园西路6号17号楼一层101-1单元,a5ecebcd8864cc2a72210b21,(010)67864302,1,a5ecebcd8864cc2a72210b21
莱恩棒球酒吧,39.791759,116.505117,地盛西路BDA国际广场E座品味大厦8层,,,1,fae5fc32b23b7e578936ee26
缪斯酒吧,39.797259,116.504664,北京市大兴区天宝南街,,,1,aaf4574632d2134d1288242d
星巴克(同济南路店),39.791142,116.536816,大兴区亦庄经济技术开发区同济南路1号院,,(010)57388157,1,68bc17797b55d957f6c59cf1
星巴克(大族溢彩城店),39.799322,116.51933,大兴区荣华南路2号院大族广场1层F1-37号,,(010)67837840,1,437daae21a4fd4da7369d3d0
大树比萨&酒吧,39.775913,116.509758,亦庄凉水河一街泰河园一里一区14号商业楼五层,e29315a59e9a9f24f603b8e1,(010)87926351,1,e29315a59e9a9f24f603b8e1
丰大国际大酒店大堂吧,39.802246,116.515034,北京市大兴区北京经济技术开发区荣华中路20号丰大国际大酒店堂吧,,,1,ba0a764fc5977326c6effb46
executive lounge,39.792989,116.522333,亦庄开发区荣华南路12号北京兴基铂尔曼饭店18层,298c57ec2c38b656f60e7798,,1,298c57ec2c38b656f60e7798
星巴克(大族溢彩城2店),39.798414,116.518089,大兴区荣华南路2号院大族广场T2三层,,(010)67850831,1,4994e4a1c1597f0aaecb661b
咖啡陪你(亦庄力宝店),39.810175,116.508152,荣华中路8号院力宝广场8号楼一层109号,cf9434a3cdd109340b1cc7ea,"(010)57862131,13051663650",1,cf9434a3cdd109340b1cc7ea
丰巢自提柜,39.788307,116.574315,北京市通州区科创十三街18号院3号楼,,,1,d5867af91625140e02294f50
迪迪酒吧,39.769246,116.561132,北京市通州区马驹桥马团路西段多隆购物广场,f4460918f2d7296ab11e3663,,1,f4460918f2d7296ab11e3663
咖啡之翼(亦庄店),39.785363,116.564299,北京市通州区北京经济技术开发区经海三路经开壹中心底商109,5bbdd102264259e04e2fdf39,17701340521,1,5bbdd102264259e04e2fdf39
橡木树音乐酒吧,39.80371,116.571786,科创九街定海园三里9号楼旭日酒店三层,,,1,be56875cfa79e9ffc7f0253e
日升昌酒店-大堂吧,39.872162,116.371391,右安门外大街8号北京日升昌酒店1层,f4b2896a00bc96c1c4f50d1a,(010)63555999,1,f4b2896a00bc96c1c4f50d1a
星巴克(大红门西路店),39.850991,116.391604,丰台区大红门西路26号11号商业楼首层L1-01单元,550fd5f907f8eb60931fc9c6,(010)56530792,1,550fd5f907f8eb60931fc9c6
星巴克(北京南站三店),39.871575,116.385282,丰台区永外大街12号北京南站换乘层中区商业,9ab8722e9f7e90e8fa0cada8,(010)83100361,1,9ab8722e9f7e90e8fa0cada8
星巴克(槐房西路店),39.820632,116.373574,丰台区南苑西路39号槐房万达广场一层1083号,5c7d616223a8922e95f08cbd,(010)67987897,1,5c7d616223a8922e95f08cbd
星巴克(百荣世贸商城店),39.866201,116.403078,东城区永定门外大街101号百荣天海国际商贸城一层,,(010)67260681,1,060b51835dc916740bccddb3
烛光茶艺馆,39.871229,116.393524,北京市丰台区马家堡东路1号,14076dee36601ced02294f53,(010)67069757,1,14076dee36601ced02294f53
星巴克(北京南站一店),39.870348,116.386606,丰台区永定门外大街北京南站2层,ed12f7fd09060fbbd8ecedc0,(010)83108677,1,ed12f7fd09060fbbd8ecedc0
星巴克(北京南站第五店),39.872003,116.385684,北京市丰台区永外大街12号北京南站北进口内测东部通道区域地上一层,60c14167cb48e3f833169b58,(010)83106951,1,871fa012172dcc835cbe86f6
星巴克(北京南站第六店),39.870582,116.386947,丰台区永外车站路12号北京南站B1层,,(010)83106096,1,fb7cfaea8347c582ca1b9546
luckincoffee(搜宝商务中心店),39.86065,116.374552,丰台区南三环西路16号2号楼B1层103号西区16号,,4000100100,1,d1c50ec190009ae517c8f6c6
蜂巢自提柜,39.851464,116.404458,北京市丰台区临泓路6号院1号楼1单元,,,1,8352acd93a620d0716a1907e
A7酒吧,39.825447,116.429579,北京市大兴区久敬庄路,,,1,94e77ad4cf21382b882fb54a
LOFT啤酒超市,39.873149,116.436712,北京市丰台区红剑综合停车楼16-9号,e91f4a1f7843566843e192df,13911685956,1,e91f4a1f7843566843e192df
A7派对酒吧,39.825526,116.43006,北京市大兴区久敬庄路世界之花假日广场3FD区,,,1,f21571865fbf3fedd72ce27b
星巴克(成寿寺路店),39.862747,116.453461,丰台区南三环东路成寿寺路2号北京分钟寺阳光新生活广场一层A129号,5554aaac9ee976c088fc06e6,(010)67606685,1,5554aaac9ee976c088fc06e6
星巴克(方庄通润商务会馆店),39.872292,116.432365,丰台区方庄路璞瑅公寓紫芳园四区3号楼底商7号商铺,9bd0e4d5f5ec436e81288abb,(010)87211072,1,9bd0e4d5f5ec436e81288abb
星巴克(石榴中心店),39.847954,116.428699,丰台区榴乡路88号24号楼1层102室,,(010)56762241,1,b3fac3726d226a2f4251c075
moderato莫酒吧(方庄总店),39.856612,116.44543,方庄南路方恒偶寓B105,9a3ec703303a4c162cb90889,,1,9a3ec703303a4c162cb90889
luckincoffee(石榴中心店),39.847614,116.429665,丰台区榴乡路石榴中心10号楼1层101-4号,,4000100100,1,972b943c2d861340e6e965f4
澳玛夜总会酒吧,39.86168,116.44074,南三环东铁匠营横一条8号江西大酒店B1层,7fd72311e75f31865dbe86ac,,1,7fd72311e75f31865dbe86ac
星巴克(久敬庄路店),39.825328,116.429574,大兴区旧宫镇久敬庄路临1号,,(010)67066836,1,4d3ff1955c204cb2931fc91f
颠马廊慢摇吧,39.859615,116.444928,北京市丰台区方庄南路9号谱田大厦3F,8f2535ad9e8eb4bcdeee8b95,,1,8f2535ad9e8eb4bcdeee8b95
微觅vimi啤酒便利店,39.873146,116.436746,北京市丰台区方庄环岛红剑综合停车楼16-9号,,(010)87677866,1,a68132e3dc75750242e19286
modcrato莫酒吧,39.856624,116.445063,方庄南路与横道沟西街交叉口西北100米,,,1,3f36d1017b22725ae6073833
疆进酒OMNI SPACE,39.888843,116.404442,北京市西城区天桥南大街9号天桥艺术中心b103,,,1,f6c2798a1acaeef68d1a8960
和平自酿酒馆,39.905126,116.393777,北京西城区西河沿街200号(和平门烤鸭店后身胡同东侧),ae4791c46858884ac356ac99,,1,b1875c4abbb0104e3fe231eb
维罗那酒吧,39.907733,116.415891,前门东大街3号首都大酒店B座1层,2c0bd6c55293aab342ab9afa,,1,2c0bd6c55293aab342ab9afa
东方君悦大酒店-大堂吧,39.915999,116.420935,北京市东城区东长安街1号东方君悦大酒店1层,b9e5d0b8a45cc9a581a12e55,,1,b9e5d0b8a45cc9a581a12e55
西单美爵酒店-大堂吧,39.909457,116.381307,北京市西城区宣武门内大街6号西单美爵酒店1层,f68ab6d72defc8b8a2a934ed,,1,f68ab6d72defc8b8a2a934ed
猫头鹰音乐部落(宣武门店),39.900833,116.381523,北京市西城区宣武门外大街20号海格国际大厦B座B1层,,,1,d9440192671e7f66110daa54
励骏酒店大堂吧,39.921292,116.425171,金宝街90/92号励骏酒店1层,94f9a0dbecf23f104d2fdff4,,1,3471b6d006b0664894ec8470
琥珀酒廊,39.917217,116.378139,北京市西城区华远街2号,,,1,d94fd6404bf440f4ee74f8c6
北京国际艺苑皇冠假日酒店-大堂酒廊,39.925138,116.418237,北京市东城区王府井大街48号北京国际艺苑皇冠假日酒店1层,da73119562f1b7652cb17e0f,(010)59119999,1,da73119562f1b7652cb17e0f
哈瓦那古巴雪茄吧(金宝街店),39.923011,116.425858,东城区金宝街97号1层,,(010)53599099,1,cfd138e571a881c8c91b9594
北京诺富特和平宾馆-大堂吧,39.922055,116.421864,北京市东城区金鱼胡同3号诺富特和平宾馆1楼大堂,1c112ba8f6500817abf0cdc3,(010)65128833,1,1c112ba8f6500817abf0cdc3
Noodle Bar,39.905308,116.423737,北京市东城区崇文门外大街3-18号贝尔特酒店1楼,c269b8a50f9178fc7ab55c29,(010)67081188,1,c269b8a50f9178fc7ab55c29
金茂万丽酒店大堂吧,39.927502,116.416741,北京市东城区王府井大街57号北京金茂万丽酒店1层,,(010)65208888,1,480e205e1de19b139c09f716
往事如烟,39.922329,116.369996,北京市西城区金城坊街3号,550fd5f96f649360931fc952,(010)66079699,1,550fd5f96f649360931fc952
泛太平洋酒店·大堂吧,39.917202,116.378069,西城区华远街2号(泛太平洋酒店一层),,,1,b445fa4b4df443843fe231a4
福麓FLOWS,39.902314,116.396571,北京市西城区笤帚胡同20号,,,1,35903d7d6a5be8b2b75f1ed8
Roof Garden Bar,39.916212,116.413393,南河沿大街华龙街天安大厦北京天安瑞嘉酒店7层,4d57732a6ac4af44b020a8a9,,1,4d57732a6ac4af44b020a8a9
东方君悦酒店-行政酒廊,39.916028,116.420968,东长安街1号东方君悦大酒店17层,5508504d4e70dbd2c7f02555,,1,5508504d4e70dbd2c7f02555
国窖1573北京体验馆,39.89176,116.404244,北京市西城区天桥艺术大厦B座B1层国窖1573北京体验馆,6aabdfbf6ebd9c45af080f5a,(010)83167002,1,6aabdfbf6ebd9c45af080f5a
北京金茂万丽酒店-行政酒廊,39.927502,116.416741,王府井大街57号北京金茂万丽酒店17层,31ccb01ffc98d51307fef592,,1,31ccb01ffc98d51307fef592
威斯汀行政酒廊(金融大街店A2),39.923138,116.365831,北京西城区金融大街丙9号威斯汀大酒店26楼,5ce2637d879a2748ae31e568,,1,5ce2637d879a2748ae31e568
咖啡小酒窝,39.897658,116.414263,北京市东城区金鱼池中街2号院-11-38(7号线桥湾地铁站D口出),,,1,e89fc65e95a919638936eeea
商都酒店-大堂吧,39.875221,116.374641,北京市丰台区右安门外东滨河路8号,ac72021fed7482341e58003f,,1,ac72021fed7482341e58003f
Mona Gin Bar,39.903574,116.415307,北京市东城区西兴隆街60号,,,1,5921de29c48ac55f213bf23f
北京金融街洲际酒店-酒吧,39.924983,116.364196,金融街11号,4aa6b0691d0b287cb320a8a1,,1,4aa6b0691d0b287cb320a8a1
华滨国际大酒店-大堂吧,39.910949,116.382548,宣武门内大街4,0e0165d0ab40cd22940319de,"(010)83568888,(010)83568889",1,0e0165d0ab40cd22940319de
Champlus(王府中环店),39.918902,116.415085,北京市东城区王府井大街269号王府中環F4,,,1,5cd0cbac449987abbfa24025
北京宁波宾馆-大堂吧,39.907842,116.386866,新壁街8号北京宁波宾馆1层,e56455a43a96c6b2deee8ba2,(010)66061210,1,e56455a43a96c6b2deee8ba2
北京丽晶酒店-酒吧,39.922237,116.425424,金宝街99号丽晶酒店二层,cb51ee6b4b2dc7ad43e192bf,,1,cb51ee6b4b2dc7ad43e192bf
大堂酒廊,39.92313,116.365898,金融大街丙9号北京金融街威斯汀大酒店1楼,147ac1179f1049b729fc4833,,1,147ac1179f1049b729fc4833
SOUTH BAR,39.900481,116.403046,西城区煤市街施家胡同11号合德缘四合院酒店内,,,1,363174156f4a82c897ca074c
ACE CLUB,39.898738,116.423682,北京市东城区珠市口东大街2-7北京大都市2层,096e6ae9029611b8d6b74efa,,1,096e6ae9029611b8d6b74efa
MO Bar(王府中環店),39.918729,116.415794,北京市东城区王府井大街269号王府中環F5,,,1,be9b914f938c2fb50482c251
星巴克(北京坊店),39.904332,116.403278,西城区煤市街廊房头条13号院3号楼1-3层,,(010)63156703,1,b0229e1d47e43ea72806ceaf
星巴克(金树街店),39.923146,116.368206,西城区金城坊街金融街公寓F座9-11号,7a2554c8df05f29fafee7ad9,(010)66220225,1,7a2554c8df05f29fafee7ad9
星巴克(前门大街店),39.904636,116.404167,东城区前门大街1-1号,d5464cf8d62a7c4efda77854,(010)63027966,1,d5464cf8d62a7c4efda77854
星巴克(英蓝国际店),39.926326,116.364273,西城区金融大街7号英蓝国际金融中心首层F111-F112单元,7c5e480b169061adacb22ab8,(010)66555918,1,7c5e480b169061adacb22ab8
星巴克(北京东方广场三店),39.915373,116.419334,东城区东长安街1号北京东方广场东方新天地商场平台层P-W18-10号,,(010)85187651,1,0e4fc64e1d5cb992d2f49e64
星巴克(北京王府井店),39.920371,116.416027,东城区王府井大街253号王府井百货大楼首层,24d05508601155b61288245c,(010)65129138,1,24d05508601155b61288245c
星巴克(大栅栏店),39.903924,116.400664,西城区大栅栏街道弓字胡同10号,b078dad61170502828201aab,(010)63132022,1,b078dad61170502828201aab
燕家2号,39.900605,116.397854,大栅栏西街燕家胡同2号,1a0e7175502a8d3a9de32115,,1,1a0e7175502a8d3a9de32115
星巴克(北京庄胜崇光店),39.90179,116.382006,西城区宣武门外大街8号北京庄胜崇光百货新馆B1层,3c0ea7c5510b5685fbf0cbcd,(010)63104865,1,3c0ea7c5510b5685fbf0cbcd
星巴克(天坛东路店),39.892659,116.426868,东城区天坛东路46号红桥市场1层001单元,3a1bae3d74327a3443ab9a93,(010)67113708,1,3a1bae3d74327a3443ab9a93
星巴克(万博苑店),39.877876,116.371102,西城区右安门内大街72号万博苑7号楼王府井购物中心1层,f57aa0c53e2686874d776e44,(010)83570692,1,f57aa0c53e2686874d776e44
星巴克(北京百盛店),39.914575,116.365455,西城区复内大街101号百盛购物中心复兴门店北楼F1层,b533ea4af3948a584f6d465e,(010)66037275,1,b533ea4af3948a584f6d465e
星巴克(西单大悦城二店),39.917419,116.378834,西城区西单北大街131号大悦城(西单店)F1层101-XZL号,7d5f3a0a6dc863522cb90847,(010)58312897,1,7d5f3a0a6dc863522cb90847
印屋顶天台酒吧,39.904484,116.418881,祈年大街8号新世界酒店12层,92bdee4ce48ae872c1f1cf11,,1,92bdee4ce48ae872c1f1cf11
星巴克(永定门店),39.876754,116.396185,东城区永定门西滨河路8号院7楼中海地产广场101东塔02单元,92467dd40384c0ac843304fe,(010)57837720,1,92467dd40384c0ac843304fe
星巴克(富卓大厦店),39.900265,116.381567,西城区宣武门外大街28号富卓大厦一层,2ef2651889da1d870b1cc7a8,(010)63185381,1,2ef2651889da1d870b1cc7a8
星巴克(西单北大街第二店),39.916096,116.379766,西城区西单北大街133号西单君太百货二层,a475b7931fbb8651f4e73bc5,(010)66014090,1,a475b7931fbb8651f4e73bc5
星巴克(金街店),39.915983,116.41682,东城区王府井大街301号新燕莎金街购物中心一层MF105-1-MF105-2商铺,478bdcd1b2e182c544e27427,(010)65699190,1,478bdcd1b2e182c544e27427
星巴克(西单北大街店),39.919882,116.380786,西城区西单北大街110号巴黎老佛爷百货F2层,0db0d230133a8a0b364aae76,(010)63211220,1,0db0d230133a8a0b364aae76
星巴克(北京王府井二店),39.918522,116.416283,东城区王府井大街269号1号楼B1层-102号商铺,,(010)65255196,1,0bf445193ffcd34f8605bf11
星巴克(太平桥大街店),39.92297,116.371727,西城区太平桥大街18号丰融国际2层203室,f41ac403777ab79214948eab,(010)66533400,1,f41ac403777ab79214948eab
星巴克(西单汉光百货商场店),39.915352,116.382378,西城区西单北大街汉光百货一层,7388dffd72b70df2d3ff230d,(010)66017188,1,7388dffd72b70df2d3ff230d
星巴克(西城远洋大厦店),39.911678,116.366554,西城区复兴门内大街158号远洋大厦首层G03A号,d4034eb3656edeefc036445e,(010)66416538,1,d4034eb3656edeefc036445e
星巴克(北京新世界店),39.904558,116.424536,东城区崇文门外大街3号新世界百货崇文店综合馆F1层,38c324496588b6964d776ee6,(010)67087068,1,38c324496588b6964d776ee6
星巴克(复兴门内店),39.911845,116.37046,西城区复兴门内大街28号,c98982ba554459f76f3e1b76,(010)66055752,1,c98982ba554459f76f3e1b76
莫塞尔红酒屋,39.915907,116.368822,北京市西城区兴盛街2号华荣公寓北侧(八中北门对面),a74481d661544f5ff503b85f,(010)58550088,1,a74481d661544f5ff503b85f
悦咖啡(天安门店),39.904468,116.405,东城区前门大街2号,b03033a2361017fe70210b76,(010)63329880,1,b03033a2361017fe70210b76
星巴克(崇文门外第一店),39.904133,116.426336,东城区是崇文门外大街18号国瑞城地下二层,341c35defb4d83a7e6073854,(010)67117065,1,341c35defb4d83a7e6073854
和茶茶馆(陶然亭店),39.884864,116.392244,西城区陶然亭路2号一瓶小区9号楼底商109号(近陶然亭公园、一瓶小区、朱雀门、建设银行、克丽缇娜),2d41faeff21d8d8dd7b74e5f,(010)83953536,1,2d41faeff21d8d8dd7b74e5f
巷左右转西餐酒吧,39.888232,116.403452,北京市西城区新农街19号附近,,(010)59444234,1,a5151d63955fc55adaeced7b
NOVA串吧·酒吧,39.903244,116.419854,北京市东城区东兴隆街58号北京汇商厦底商,59c8a6336798aec44f3a5950,"(010)67016879,15296728146",1,59c8a6336798aec44f3a5950
北京饭店-莱佛士-作家酒吧,39.915085,116.415627,东长安街33号北京饭店莱佛士饭店1楼,bd4df479ac083ee72efaa7ab,,1,bd4df479ac083ee72efaa7ab
星巴克(崇文门外第二店),39.902921,116.425671,东城区崇文门外大街40号搜秀城一层,f0a25ca655481ef48f55ec67,(010)87108917,1,f0a25ca655481ef48f55ec67
佳利廊酒吧,39.907772,116.423552,崇文门西大街1号北京新侨诺富特饭店1层,37afffdcebde713c9c95debc,,1,37afffdcebde713c9c95debc
北京王府井希尔顿酒店-书阁,39.920793,116.419783,北京市东城区王府井东街8号北京王府井希尔顿酒店1层,c48eac24dedb71a75e0d028d,,1,c48eac24dedb71a75e0d028d
王府饭店大堂酒吧,39.921174,116.422817,北京市东城区王府井金鱼胡同8号王府半岛酒店1层,d30d3a02e52f616ee7e96558,(010)85162888,1,d30d3a02e52f616ee7e96558
星巴克(灯市口天客隆店),39.925246,116.420731,东城区灯市口大街33号天客隆一层,,(010)65687017,1,98990ef3e92034182bd7ab71
北京木棉花酒店-酒吧,39.921359,116.411882,东华门大街16号,2f252caa9429a1569c09f7cf,,1,2f252caa9429a1569c09f7cf
星巴克(王府井大街店),39.921575,116.417786,东城区王府井大街138号新东安广场B1层B111-B112号,,4008206998,1,36eeab9b8a9cf83533621209
京泰龙国际大酒店-大堂吧,39.898422,116.406578,珠市口东大街19号京泰龙国际大酒店1层,0ba012e2f44a4f71e9f853e8,,1,0ba012e2f44a4f71e9f853e8
陶然大厦-大堂吧,39.876385,116.394909,马家堡路1号陶然大厦1层,bd0b6c33c592098b40afe628,(010)87286688,1,bd0b6c33c592098b40afe628
天伦王朝酒店大堂吧,39.924374,116.41851,北京市东城区王府井大街50号天伦王朝酒店1层,89fd4ea302eb6c5ee4e9659d,,1,89fd4ea302eb6c5ee4e9659d
星期五餐厅(金融街店),39.92264,116.369,北京市西城区金城坊街9-2号,d96f1670cb1c70efdeee8bea,(010)66220880,1,beabdbf48dc2b5817169d38c
北京贵宾楼饭店-喷泉酒吧,39.915191,116.413639,北京东城区东长安街35号北京贵宾楼饭店3楼,12013bc6f6b0a0b3246e98f4,(010)65137788,1,12013bc6f6b0a0b3246e98f4
森林酒吧,39.928081,116.408734,北京市东城区北池子大街19号(近故宫),2dc555e7520461c6d7851f2f,,1,2dc555e7520461c6d7851f2f
皇都会酒廊,39.929748,116.417898,北京东城区王府井大街2号华侨大厦10楼,c3cfaab9852193a4940319d8,,1,c3cfaab9852193a4940319d8
BEER,39.922153,116.423726,东单北大街24号附近,,,1,8938470beda37f4a6d20b95d
北京贵宾楼饭店-酒吧,39.915352,116.41363,东长安街35号,3bf3dd9b336175836e20b98f,,1,3bf3dd9b336175836e20b98f
崇文门饭店-大堂酒吧,39.906598,116.424188,北京市东城区崇文门西大街2号崇文门饭店1层,d0a2bb354b6261124e776e35,(010)65122211,1,d0a2bb354b6261124e776e35
胡桃里音乐酒馆(世贸天阶南区店),39.921973,116.457724,北京市朝阳区光华路甲9号世贸天阶南街F4,3e2d38266b95218db54f540e,,1,3e2d38266b95218db54f540e
AlaHouse,39.924306,116.460634,朝阳门外大街6号新城国际21号楼102号,3a58d27ebda97f9dc1f1cfa1,,1,3a58d27ebda97f9dc1f1cfa1
国际俱乐部饭店-大堂酒吧,39.916735,116.446861,北京市朝阳区建外大街21号北京瑞吉酒店1层,5ac96ae5865666134d6d4664,,1,5ac96ae5865666134d6d4664
北京美洲俱乐部,39.91905,116.440638,北京市东城区建国门北大街8号华润大厦28-29楼,8fa14fc39e253a77f6eafcb9,(010)85192888,1,8fa14fc39e253a77f6eafcb9
葡道(远洋光华国际店),39.921521,116.46125,北京朝阳区金桐西路10号远洋光华国际中心1楼,43b7e8891739cb7358f6be7f,,1,43b7e8891739cb7358f6be7f
瑰丽酒店怡庭大堂吧,39.926625,116.467343,北京市朝阳区朝阳门外大街1号京广中心1-23层,b584f7affdbcabbc593ac82d,"(010)65360085,(010)65978888",1,b584f7affdbcabbc593ac82d
云顶酒吧,39.904797,116.463988,双花园南里三区2号楼101室,,,1,0e58e04c1ba23af7a11de9c3
musafirin bar,39.89722,116.484997,北京市朝阳区西大望路甲23号珠江帝景2号楼110号(西大望路珠江帝景长岛SPA旁),,,1,42fab0e50577ad0676e5b6e5
海骝马酒屋,39.924864,116.491568,北京市朝阳区延静里中街华业玫瑰东方25号底商,27c786601682a52ecd04efe8,,1,27c786601682a52ecd04efe8
Maggie's,39.919316,116.450648,光华路17号(日坛公园内),b105e09e89a5031cca1b9558,(010)85628142,1,b105e09e89a5031cca1b9558
炫酷(嘉里商场店),39.91959,116.46471,北京朝阳光华路1号北京嘉里大酒店1层,606ab0d034bcc2330f3ddaae,(010)85652398,1,606ab0d034bcc2330f3ddaae
北京广西大厦-大堂吧,39.879134,116.463235,北京市朝阳区潘家园华威里26号广西大厦1层,6175237a216b2c6d2efaa79a,(010)67796688,1,6175237a216b2c6d2efaa79a
D&M Bar多摩尔酒吧,39.904894,116.463019,光华北一街5号楼103底商,f6f065c0b61582fd30870aaf,,1,f6f065c0b61582fd30870aaf
BRONZE,39.901075,116.471343,东柏街天之骄子2-06号,f39bdc021d5c5c636018097f,,1,f39bdc021d5c5c636018097f
THE BRICK,39.901121,116.471718,东柏街9号院2-11,2ad32cc3ae8dc2969d95de57,,1,2ad32cc3ae8dc2969d95de57
Grinders 西餐酒吧,39.901142,116.472501,东柏街9号院天之骄子3号楼0102(近乐成购物中心),3c5fa0c7aba7f3bb233bf2aa,,1,3c5fa0c7aba7f3bb233bf2aa
SOPO越南粉·酒吧,39.904811,116.465644,北京市朝阳区广渠门外大街甲31号合生国际21号楼底商,a87a1d64a027552e23f01751,(010)57136671,1,a87a1d64a027552e23f01751
KAVKAZ,39.924551,116.44997,朝外大街39号神路街1-51,442720a58bfc587b54bfff5b,,1,442720a58bfc587b54bfff5b
China Bar,39.913329,116.465762,建国门外大街2号柏悦酒店65楼,22e11407bbb9d7add4b74ea0,,1,22e11407bbb9d7add4b74ea0
INSIDE BAR,39.918573,116.483165,西大望路1号温特莱中心B座二层210,bbd822f2c1431404d1f49eae,,1,bbd822f2c1431404d1f49eae
LIT lounge bar,39.901193,116.472936,北京市朝阳区双井东柏街9号院3号楼1层0108,,,1,c3a2b3a36c3cb8f62ce67b3c
Ashen,39.901117,116.47143,北京市朝阳区东柏街9号院-2附近,f40f50415ce5cf8d71455b35,,1,f40f50415ce5cf8d71455b35
卡慕世家酒廊,39.912142,116.458619,朝阳区建外大街永安东里8号华彬中心4层405,34f68ab0a793a2138e55eca1,(010)85289518,1,34f68ab0a793a2138e55eca1
阿丽雅酒吧,39.915618,116.46584,建国门外大街1号中国大饭店2层,56492442f7a56bcdf503b8d8,,1,56492442f7a56bcdf503b8d8
JW万豪酒店大堂吧(建国路店),39.916659,116.48829,建国路85号JW万豪酒店1层,9f8fc2fea663178d095cb31d,,1,9f8fc2fea663178d095cb31d
糖果录音棚(劲松店),39.891217,116.469463,劲松地铁站B出口富顿中心D座1810,6c1798a0cbe711eab6f42fb7,,1,6c1798a0cbe711eab6f42fb7
巧克力俱乐部,39.923721,116.448311,北京市朝阳区日坛北路19号,181653343cfcef79fa2d61bc,,1,181653343cfcef79fa2d61bc
富力万丽酒店行政酒廊,39.903742,116.467371,东三环中路61号富力万丽酒店内,1216c2f8b286f1dc5d17c336,,1,1216c2f8b286f1dc5d17c336
上德大象(日坛店),39.923112,116.447097,北京市朝阳区日坛路1号北京日坛宾馆2层,d36d483faaf72e64ebe582e8,,1,d36d483faaf72e64ebe582e8
Mulan  Whisky  Cocktail Bar,39.904867,116.46442,光华北一街双花园南里三区1号楼1-105铺(华夏银行西侧),,,1,d508a0f6749eb5b225d2bbed
万欧兰葡萄酒俱乐部,39.905714,116.475268,朝阳区百子湾路32号苹果社区北区3号楼A座1010室,44f1d4f24680040a616858f0,(010)85864505,1,44f1d4f24680040a616858f0
万丽吧,39.903621,116.467322,东三环中路61号北京富力万丽酒店4楼,ffadcb090755572b36b06c0a,(010)58638241,1,ffadcb090755572b36b06c0a
Davidoff LOUNGE,39.916741,116.487579,建国路甲83号丽思卡尔顿酒店内,56e88cba95d67d7ca4c75651,,1,56e88cba95d67d7ca4c75651
七星岛8号Club(SOHO·尚都店),39.92481,116.459381,东大桥8号尚都SOHO北塔B座,,,1,7c211661117cd8632b201a91
华彬费尔蒙酒店金樽酒廊,39.911129,116.458496,北京市朝阳区建国门外大街永安东里8号华彬费尔蒙酒店20楼,c47b52ab4df4d31d621809bb,,1,c47b52ab4df4d31d621809bb
Laddie Bar,39.90589,116.490036,北京市朝阳区百子湾路16号-4号楼A座门口右手边A105,c4712c8c698b7d90db13181b,,1,c4712c8c698b7d90db13181b
北京市京广新世界大堂酒吧,39.926115,116.467023,朝阳区呼家楼京广中心酒店公寓40楼,4ea3f2f1af9b2ab3aecb665b,,1,4ea3f2f1af9b2ab3aecb665b
酒廊(北京国贸大酒店店),39.918015,116.465361,北京市朝阳区建国门外大街1号北京国贸大酒店F80层,30b5439c10cbd04ba8059d54,,1,30b5439c10cbd04ba8059d54
鑫海锦江大酒店-大堂吧,39.921861,116.43221,金宝街61号鑫海锦江大酒店1层,34051c6b428a05f0a1d230cf,(010)58163388,1,34051c6b428a05f0a1d230cf
日坛宾馆-大堂吧,39.922972,116.447048,北京市朝阳区日坛路1号日坛宾馆1层,eb0d56f66903aadd08a8d45e,,1,eb0d56f66903aadd08a8d45e
Barbarrossa Brewpub,39.899719,116.455302,广渠门外(地铁站)上2层,,,1,e37aca70bf8549c69122e004
缪斯古典音乐俱乐部,39.916979,116.483761,西大望路1号蓝堡国际中心Ⅱ座3层,32b24c376962a7d0b54f5450,,1,32b24c376962a7d0b54f5450
湖南大厦-大堂吧,39.913039,116.433013,北京市东城区北京站街9号湖南大厦1层,035968a415e8435cac31e575,,1,035968a415e8435cac31e575
北京华彬费尔蒙酒店-酒吧,39.910991,116.458553,建国门外大街永安东里8号,4bf7b6f3643ee04638221cf7,,1,4bf7b6f3643ee04638221cf7
KAVKAZ RESTO BAR,39.92461,116.449885,北京市朝阳区南营房八条40号附近,,,1,133af35da5c950c3081cc7e2
grinders Burger Bar,39.901046,116.472656,东柏街天之骄子3号楼,563f5b631537a286601809c9,(010)87751847,1,563f5b631537a286601809c9
丰巢自提柜,39.915247,116.481547,北京市朝阳区建国路91号金地中心B座B1,,,1,185d7c2703f6ba02c336445c
FITNESS CLUB会所,39.923828,116.46151,北京市朝阳区门外大街6号院26号楼,,,1,16f0c9d6073dab4c5d0d028c
NO1 bar,39.926747,116.447756,三丰路与朝外市场街交叉口东南50米,,,1,7475948f80a70959fa0cade8
hopfenstube,39.92755,116.44698,北京市朝阳区朝阳门外大街悠唐生活广场1层,b9c8b08b5f1b1be7ca213d48,,1,b9c8b08b5f1b1be7ca213d48
THE LOBBY大堂酒廊,39.914683,116.459021,朝阳区建国门外大街2号银泰中心63楼电梯右拐(国贸对面),6093ac0bdc709f53a0046400,,1,6093ac0bdc709f53a0046400
长富宫饭店-行政酒廊,39.913548,116.444431,建国门外大街26号长富宫饭店内,80447ec49e2bf6c50bccddbb,,1,80447ec49e2bf6c50bccddbb
来电(酒吧),39.926926,116.447801,北京市朝阳区朝外市场街怡景园北里4号楼一层B2,,,1,6140b10b70bfa973adb22a57
188 club,39.924545,116.458342,北京市朝阳区北京市朝阳区东大桥路８号SOHO·尚都B1,,,1,77deb2e2e426d2cc4c2fdfbe
魅酒吧,39.926187,116.467204,呼家楼京广中心5层(瑰丽酒店5层),0d40f3ef558df6bccafa5f59,,1,0d40f3ef558df6bccafa5f59
柏悦酒店大堂酒廊,39.913071,116.465824,朝阳区建国门外大街2号银泰中心63楼(近国贸地铁站C口),53cebd502b3b5d782a02e125,,1,53cebd502b3b5d782a02e125
星巴克(温特莱店),39.918817,116.483097,朝阳区西大望路1号温特莱中心一层,d1641a74348aafbfc4f0255a,(010)65387097,1,d1641a74348aafbfc4f0255a
星巴克(北京万达广场店),39.914928,116.47954,朝阳区建国路93号新世界彩旋百货1层,7388dffd71140af2d2ff23f0,(010)65812558,1,7388dffd71140af2d2ff23f0
Swallow餐厅酒吧,39.906564,116.479519,北京市朝阳区百子湾路30号,,,1,9848b05adc9ea82feaf853f5
千禧大酒店-大堂吧,39.922646,116.465835,北京市朝阳区东三环中路7号财富中心千禧大酒店1楼,0bcd58005e3899c85cbe861f,(010)85876888,1,0bcd58005e3899c85cbe861f
星巴克(名敦道店),39.898806,116.454295,东城区广渠门外南街6号名敦道3号楼1层,6d21064da8f14e575bf6becc,(010)87224941,1,6d21064da8f14e575bf6becc
星巴克(嘉里中心第二店),39.919579,116.466338,朝阳区建国门外大街光华路1号嘉里中心商场2层111-2层204号,931850930e0c0baac9291565,(010)85298355,1,931850930e0c0baac9291565
星巴克(丰联广场店),39.929626,116.445504,朝阳区朝阳门外大街丰联广场一层,c973f61d0eb6132ff40e7788,(010)65880503,1,c973f61d0eb6132ff40e7788
星巴克(凯恒店),39.929779,116.439029,东城区朝阳门内大街2号凯恒中心B座1层04单元,69fcd6df9b5b7636ca291562,(010)85197361,1,69fcd6df9b5b7636ca291562
星巴克(华贸店),39.914889,116.487165,朝阳区建国路79号华贸购物中心2层217-218号,25b3176ceadf254b87154184,(010)65305766,1,25b3176ceadf254b87154184
星巴克(中粮广场店),39.913077,116.436016,东城区建国门内大街8号北京中粮广场C座G130-132号,c866e14c8c6d46f7d7851fe9,(010)65674460,1,6b23beadb523d0191b11d5cf
星巴克(国贸四店),39.916637,116.466994,朝阳区建国门外大街1号国际贸易中心商城地下一层SB126-SB127号铺位,,(010)65050369,1,9314d6437ed67a7243e192c1
星巴克(东三环南路店),39.898462,116.466981,朝阳区东三环南路1号佳龙大厦101室,795bb4ef3068857fbfa82208,(010)67730519,1,795bb4ef3068857fbfa82208
星巴克(北京LG大厦店),39.913225,116.455463,朝阳区建国门外大街乙12号北京双子座大厦首层L118号,a12baa4092dc284fe956faa1,(010)65686282,1,a12baa4092dc284fe956faa1
星巴克(北京西大望路第一店),39.899602,116.483352,朝阳区西大望路15号外企大厦B座1层,1140d73bcc33ca2309b93a28,(010)87723654,1,1140d73bcc33ca2309b93a28
星巴克(朝阳门SOHO店),39.928408,116.439242,东城区南竹杆胡同1号朝阳门SOHOB1-123号,ab5a57ef0715627c9222e0ef,(010)85197812,1,51f4a4d358509aa6f82213a4
星巴克(建国路店),39.913154,116.482038,朝阳区东三环中路39号建外SOHO5号别墅01户,dc449fab6654b155bbbd63b4,(010)58690273,1,dc449fab6654b155bbbd63b4
MOLI酒吧,39.910657,116.449751,北京市朝阳区建国门美华世纪南门(建华南路西),e440edacdd7ba8e03ce23112,,1,e440edacdd7ba8e03ce23112
星巴克(芳草地大厦店),39.925738,116.455774,朝阳区东大桥路9号北京侨福芳草地D座1层,466a416abce804bd01294f9a,(010)85618515,1,466a416abce804bd01294f9a
星巴克(呼家楼店),39.926124,116.467315,呼家楼1号京广中心商务楼1层,7b235e0335d617e6764ff1da,(010)65973907,1,7b235e0335d617e6764ff1da
星巴克(国贸第二店),39.916647,116.466783,朝阳区建国门外大街国贸商城二层的NL205号铺位,e48d38ee7e26fcc7354aae1f,(010)65057909,1,e48d38ee7e26fcc7354aae1f
星巴克(乐成中心店),39.899771,116.46887,朝阳区东三环中路22号乐成中心1层,,(010)67723170,1,f42a14e863727aafaaf0cd34
星巴克(朝外悠唐店),39.927674,116.446727,朝阳区三丰北里2号楼悠唐购物中心1层,15e1e85ebc7b8abb5810935c,(010)85728421,1,15e1e85ebc7b8abb5810935c
星巴克(新闻大厦店),39.913575,116.428377,东城区建内大街19号新闻大厦1层,122ef0c286ca4698fbdc851a,(010)65240649,1,122ef0c286ca4698fbdc851a
星巴克(赛特购物中心店),39.913314,116.44836,朝阳区建国门外大街22号赛特购物中心B1层,3da907f37ce2f94ab220a8a1,(010)65155228,1,3da907f37ce2f94ab220a8a1
星巴克(北京富力家园店),39.90179,116.46747,朝阳区东三环中路63号富力大厦1层148单元,c879fa0195525553c909f057,(010)59037472,1,c879fa0195525553c909f057
星巴克(北京站第一店),39.909479,116.433737,北京市东城区毛家湾胡同甲1号北京站F2,,(010)51015915,1,af376890e20a72117ab55c41
三睦威士忌酒吧,39.917305,116.487034,北京市朝阳区建国路89号-7号楼106,,,1,a77ce8c1153fe9f9e60738cf
MOON BAR,39.898242,116.476479,北京市朝阳区广渠路36号首城国际B座东侧109,,,1,cfcddde04dbf16c56cc02ceb
星巴克(新族大厦店),39.915974,116.447942,朝阳区日坛路6号新族大厦首层,e71013e7639bac2597031957,(010)65954675,1,f4a33da9b2a4fc103110afa1
生命汇医学健康中心,39.913315,116.465914,北京市朝阳区建国门外大街2号北京银泰中心A座6层,d081b98bab1e7ea4cf04ef8e,(010)65663339,1,d081b98bab1e7ea4cf04ef8e
星巴克(财富购物中心店),39.923065,116.46491,朝阳区东三环中路7号财富购物中心一层,,(010)65309173,1,4f4bf3c36b56d7ad74026989
Se club(色酒吧),39.912041,116.466433,朝阳区东三环中路39号建外SOHO东区3号楼27楼05室,1d57db90edf62dc8b45f1e20,,1,1d57db90edf62dc8b45f1e20
北京亮酒吧,39.913302,116.466055,北京市朝阳区建国门外大街2号北京柏悦酒店65层,1bf85b25b6713bbda0a93481,,1,1bf85b25b6713bbda0a93481
于是 By Cartelei,39.924208,116.460755,新城国际20号楼101,36139ac2e06708e1c9291578,,1,36139ac2e06708e1c9291578
星巴克(东三环北路第三店),39.926896,116.470136,朝阳区东三环北路38号院1号楼1层101-7室,,(010)85280910,1,fb29e54ae635a93848cc4a9d
星巴克(金地中心店),39.914856,116.480708,朝阳区建国路91号金地中心L2层L201店铺,192291364570e5766d20b915,(010)85903358,1,192291364570e5766d20b915
巴克咖啡(万通中心店),39.925191,116.462916,朝阳区朝阳门外大街甲6号一层2011-2012号商铺,2aeb6f33157dd077dc1e52e8,(010)59070313,1,2aeb6f33157dd077dc1e52e8
哈瓦那之家雪茄俱乐部,39.91469,116.460039,北京朝阳区建国门外大街5-2号(近建国饭店),764672e5ef8017b495ec84a1,(010)65950888,1,764672e5ef8017b495ec84a1
Cafe Flatwhite(建国门外交公寓店),39.917196,116.445179,朝阳区秀水街1号建国门外外交公寓13号楼,e93761f64ea1be15233bf2a1,(010)85326775,1,e93761f64ea1be15233bf2a1
luckincoffee(SOHO现代城店),39.913018,116.48216,建国路88号7-10号楼1至2层0504(SOHO现代城C座0504),,4000100100,1,010ad391e713ef26b54f54d7
No1酒吧,39.926708,116.447711,朝外市场街22号,c57aee3bd8265c0832870ab9,"15500966988,(010)80456956",1,c57aee3bd8265c0832870ab9
luckincoffee(东方梅地亚店),39.918253,116.479793,朝阳区光华路4号院2号楼1层105,,4006692002,1,f7a1317d339219f24354d738
星巴克(爱思开大厦店),39.913384,116.46349,朝阳区建国门外大街甲6号1幢SK大厦2层,0557519c6459458ad22dd6f4,(010)85670237,1,0557519c6459458ad22dd6f4
星巴克(建国路二店),39.913202,116.471243,朝阳区建国路112号惠普大厦1层,,(010)65682385,1,54eb7036f83fe158acee7a66
EASTENDERS伊斯特恩酒吧,39.904733,116.466302,双花园南里三区20号楼20-2,549e6ba70441aac538221ca7,,1,549e6ba70441aac538221ca7
luckin coffee(尚都国际店),39.925354,116.457885,朝阳区东大桥路8号尚都国际中心一楼,2b7fa9361242f84d901fc949,4000100100,1,2b7fa9361242f84d901fc949
CraftSecret精秘TaproomCoffee,39.906219,116.490416,朝阳区百子湾路16号后现代城B区4号楼C单元102号底商,,18600282887,1,a34dd4a672dbe41c48cc4aa3
luckincoffee(老番街店),39.927204,116.447893,朝阳区朝外市场街怡景园北里3号楼,,4000100100,1,438ade542c486c9af4b9164f
luckincoffee(建外SOHO店),39.911812,116.467275,朝阳区建外SOHO东区A座0101F,,4000100100,1,7693effb2f4d40924054d762
蜗牛桌游主题酒吧,39.898326,116.476301,广渠路首城国际B座212室,b95b06c30b00b3900c0e6b24,,1,b95b06c30b00b3900c0e6b24
True North Cabin酒吧,39.911903,116.459514,北京市朝阳区建外SOHO西区17号楼B8820室,38fe84a0fc07f1a06b49f327,,1,38fe84a0fc07f1a06b49f327
luckin coffee(银河soho店),39.926008,116.439324,北京东城区南竹竿胡同2号1幢银河sohoC座2层30212,ec2d3562cd0dc7ddc9fa5f09,(010)85179080,1,ec2d3562cd0dc7ddc9fa5f09
星巴克(金汇路世界城店),39.923632,116.458478,朝阳区金汇路世界城商业街9号,8ce119ffee32afbcece4a596,(010)85907651,1,8ce119ffee32afbcece4a596
星巴克(环球金融中心店),39.924449,116.465636,朝阳区东三环中路一号环球金融中心首层W102号,fad9073d2707581ab45f1ee4,(010)59817829,1,fad9073d2707581ab45f1ee4
星巴克(世茂大厦店),39.913314,116.477725,朝阳区建国路甲92号北京世茂大厦首层102单元,cd9d05dd6b380eaf85420e51,(010)85809015,1,076b5b443037d826eedfcacb
luckincoffee(民生大厦店),39.926684,116.469264,朝阳区东三环北路38号院4号楼民生大厦商业一层L113室,,4000100100,1,52f113dbdfede791ad080f98
BE ONE BAR酒吧,39.89682,116.4714,双井桥东南角广渠路66号院百环家园甲3号,,,1,49e45728af5ab232a3d2301c
luckincoffee(朝阳门SOHO店),39.928476,116.439385,东城区朝阳门内大街东二环南竹竿胡同1号,,4000100100,1,b9e99056bcc902b188fc06fa
gofun酒吧,39.903234,116.469109,北京市朝阳区东三环中路12-6号,,,1,66c3716a5178abb46f3e1b72
星巴克(华贸二店),39.917542,116.487909,朝阳区建国路89号北京华贸19号楼一层102单元,c6b82b942249827fa10464e0,(010)65307016,1,c6b82b942249827fa10464e0
老记茶馆(朝阳门店),39.926712,116.433224,北京市东城区朝内南小街8号1楼,,(010)58646140,1,3dea4fc3e33388e4f02d83ed
星巴克(世贸天阶第二店),39.922583,116.458255,朝阳区光华路9号世贸天阶南街B1层B152号,,(010)52061047,1,7cc0705a897741083fe231d5
星巴克(宝钢大厦店),39.913485,116.452716,朝阳区建国门外大街丙12号宝钢大厦1层,5fa8983666fa2c575bf6be43,(010)57610191,1,5fa8983666fa2c575bf6be43
飞天大厦-大堂吧,39.897176,116.451937,北京市东城区广渠门外南街5号北京飞天大厦酒店2层,5ffce21069e2cec2f4eafc67,,1,5ffce21069e2cec2f4eafc67
记者俱乐部酒吧,39.91684,116.446731,建国门外大街21号北京国际俱乐部饭店1楼(近日坛路),c61bd30571480d71c37da2a1,,1,c61bd30571480d71c37da2a1
连咖啡coffeebox(百子湾店),39.906167,116.491916,北京市朝阳区百子湾路16号百子园5号楼B单元101号,9f5d5f678413aa67bb17e7ab,4000605000,1,9f5d5f678413aa67bb17e7ab
嘉里中心-大堂酒廊,39.919528,116.464817,北京朝阳区光华路1号嘉里中心1楼,44207646e3b24b72dfee8ba1,,1,44207646e3b24b72dfee8ba1
星巴克(光华路店),39.919785,116.476876,朝阳区光华路15号1号楼亿利生态广场一层,,(010)65895549,1,6ad665dae8f3eacc30169b81
北京JW万豪酒店-酒吧,39.916631,116.488379,华贸中心建国路83号北京JW万豪酒店,1b492dd742ed991db34c4966,,1,1b492dd742ed991db34c4966
四季酒吧(北京国际饭店),39.915414,116.434816,北京东城区建国门内大街9号北京国际饭店2楼,d82d6697c8e1bcbfd418b78b,,1,d82d6697c8e1bcbfd418b78b
loong bar,39.916391,116.48838,建国路85号JW万豪酒店2楼,c2e4dbcd57ee641845572664,,1,c2e4dbcd57ee641845572664
Coffee Box咖啡(团结湖店),39.929346,116.472956,北京市朝阳区朝阳北路219号,f341f6e12d7d456daeb22a41,4000605000,1,f341f6e12d7d456daeb22a41
北京朝阳悠唐皇冠假日酒店-酒吧,39.928071,116.445326,三丰北里3号,71d0e340a617853eb34c49bd,,1,71d0e340a617853eb34c49bd
星巴克(北京万达广场2店),39.914893,116.477551,朝阳区建国路93号万达广场B座万达影院3层,,(010)59604273,1,63d6be04529fc9afabf72918
星巴克(光华路第二店),39.919317,116.45908,朝阳区光华路1号9号楼1层120室,,(010)85950710,1,c77a1828666d5719441a32f3
品藏轩茶馆,39.917217,116.486137,建国路甲89号华贸公寓6号楼102,073d17d3c61141cceb12e47e,(010)65309810,1,073d17d3c61141cceb12e47e
记忆盒,39.904361,116.4668,富力城星光大道a9-102楼光华北一街,6cbeaa697d0292c38afc061c,(010)58622233,1,6cbeaa697d0292c38afc061c
星巴克(京汇大厦店),39.912612,116.469837,朝阳区建国路乙118号1-105号单元,,(010)65685868,1,21f21bcc17f15148ed74f8b6
瑞阁行政酒廊,39.926086,116.467218,北京市朝阳区呼家楼京广中心北京瑰丽酒店7层,,,1,cf4a8f097d2eb4d05d17c389
北京京瑞温泉国际酒店-酒吧,39.875477,116.466749,东三环南路17号,6101fb3b707460a5f4e73ba1,,1,6101fb3b707460a5f4e73ba1
星巴克(财富中心三店),39.923229,116.465217,朝阳区东三环中路5号楼北京财富金融中心B1层,,(010)65969103,1,927e1c673afe1da38f55eced
星巴克(秀水店),39.915566,116.45643,朝阳区建国门外大街秀水东街8号,,(010)85306756,1,479b142e8f4da5d5d32dd69c
星巴克(南竹杆二店),39.926581,116.439313,东城区南竹杆胡同2号银河SOHO广场A座地下1层,,(010)65249941,1,06e0b4058f0aedb2465726a2
MOLI BAR,39.910581,116.449778,建华南路17号,3217b40406ae10edf7e73b14,,1,3217b40406ae10edf7e73b14
琥珀精酿,39.904786,116.464042,双花园南里3区2-5号,,,1,c93b0caa7dd70895ad04570a
Full moon bar(正月酒吧),39.894017,116.427347,北京市东城区法华寺街93号北京街25号,,,1,a42964ed3b8b4076eb12e471
雅宝城国际酒店-酒吧,39.924639,116.447942,日坛北路19,673241bb0c47609d03ff2d6c,,1,673241bb0c47609d03ff2d6c
伟艺术班live house,39.922194,116.458667,SOHO尚都北塔A座3层2308(世贸天阶),e373b270cc29e104d5b74e83,,1,e373b270cc29e104d5b74e83
So Cool Paradise 甜侨宅(搜酷甜侨宅 ),39.925302,116.461237,朝外大街乙6号朝外SOHOB座0125-0126号(近世贸天阶),554947a113b8639138e4a64d,,1,554947a113b8639138e4a64d
美琪酒吧,39.919229,116.450448,建外街道光华路日坛南门,9343e6b3b29be723cc06a440,,1,9343e6b3b29be723cc06a440
CIQI瓷器酒吧,39.91559,116.44694,北京市朝阳区建国门外大街21号,cd45ddc5926a82a8f60e773f,,1,cd45ddc5926a82a8f60e773f
我在流年这端等你,39.916527,116.478318,建国路93号院18号楼105底商,,18201138866,1,d917371b970b6383f7eafcac
luckincoffee(万通中心店),39.925566,116.463041,朝阳区朝外大街甲6号万通中心地下1层底商,,4000100100,1,286b38a7bbc6e027f03cbaaf
蜂巢自提柜,39.910775,116.440296,北京市东城区万豪中心A座大堂,,,1,64e68f7c9a6dd29bab059dcc
北京昆泰嘉华酒店-酒吧,39.928719,116.449625,朝阳门外大街乙12号,aebeb309902548827369d3d9,,1,aebeb309902548827369d3d9
景悦,39.881615,116.452265,北京市朝阳区潘家园南里19号北京人卫酒店28层,,,1,4d1ee8b7f54de9e12fb9085b
构美·露台酒吧(工体南路店),39.930687,116.454319,北京市朝阳区工人体育场南路山水广场B座605,,,1,ee26148b43d7c2f47f29bd4a
北京日坛宾馆-酒吧,39.923043,116.447048,日坛路1号日坛宾馆4层,d03f62f9434196b36140a969,,1,d03f62f9434196b36140a969
瑞延阁行政酒廊,39.881621,116.452305,潘家园南里19号康源瑞廷酒店28楼,8ec2da12c17f20ebd13ce3e9,,1,8ec2da12c17f20ebd13ce3e9
隐Hide Bar(朝阳大悦城店),39.928721,116.521379,朝阳北路青年汇102号西门305室,e57f3a2ac08bac4ea2046480,,1,e57f3a2ac08bac4ea2046480
MTClub,39.928761,116.517312,朝阳北路青年汇佳园一号地112号楼地下,86944e199066c31b04026fe6,,1,86944e199066c31b04026fe6
饮JOY ENJOY,39.904535,116.492259,北京市朝阳区百子湾南一路后现代城D区百子园14号楼底商,,18518620190,1,f0e3211655a40f304afc8d05
October coffee club,39.904477,116.511291,北京市朝阳区百子湾南一路下沉街209-104,,"18210161898,15910669381",1,10dcdcacb76fd7ed0aa8d4ba
品课酒咖,39.918786,116.547073,北京市朝阳区花园闸路东亿国际传媒产业园C16号楼1层,,,1,11a9d9304af437a88bfc06ca
YOUNG·Bar·Store漾酒吧,39.906671,116.508376,百子湾石门东路金都心语104楼底商101铺,,13521596683,1,c62aa92f308094e0fe0eb002
北京嘉泰国际商务酒店-大堂吧,39.922885,116.494836,北京市朝阳区东四环中路41号,95d01f9621ee0cd8e115f9a6,(010)65016666,1,95d01f9621ee0cd8e115f9a6
豪庭国际酒店-大堂吧,39.931133,116.527372,朝阳北路雅成一里18号楼,2cd48c706854517e1f389419,,1,2cd48c706854517e1f389419
星巴克(北京远洋天地店),39.920618,116.49781,朝阳区东四环中路56号远洋国际中心A座首层109号单元,9fbfeef27a4d055cede4a557,(010)85868829,1,9fbfeef27a4d055cede4a557
星巴克(世东国际店),39.89829,116.509057,朝阳区广渠路18号世东国际1号楼1层105-106单元,,(010)67719342,1,ddfd86e8fa603dd1b6f42f56
星巴克(燕莎奥特莱斯购物中心店),39.883618,116.492504,朝阳区东四环南路9号燕莎奥特莱斯购物中心二期C座一层,,(010)87381381,1,658e66ba633c5e9fb5f42fe7
大师洞(GURU HOLE BAR),39.915912,116.502305,北京市朝阳区四惠金地名京商业街A座2层211室,,13718921982,1,d500e372854acf9b471a3239
limestone红酒吧,39.929521,116.529085,朝阳雅筑底商2号楼2-2号,,,1,18c6fea5a0cf569432f71dbb
THE LIGHTHOUSE,39.92883,116.520436,朝阳北路104号楼108,,,1,1f253e39c2920f44100daaed
年代咖啡酒吧,39.911557,116.526116,朝阳区惠河南街南岸一号礼安门54号楼104号一层,,,1,522fb3aa46c45af3d12dd668
游娱联盟演艺酒吧,39.881581,116.536275,王四营乡观音堂文化大道西街A103室,,,1,c8d52d7b74c3c88908f5eb60
luckincoffee(慈云寺北里店),39.922957,116.498953,朝阳区朝阳路慈云寺北里207号楼1层122号,52d38c5094789cf94c3a59a3,4000100100,1,52d38c5094789cf94c3a59a3
luckincoffee(金泰国际店),39.899921,116.50666,朝阳区广渠路金泰国际大厦B座负一层,,4000100100,1,f2a80344c58b690083a00c52
酷车百视咖啡,39.879335,116.507541,朝阳区金蝉西路甲一号酷车小镇一期B2区域6号一层,,(010)67204142,1,d2def29f4cc523cccb213d5b
安的咖啡(朝阳路店),39.924528,116.533327,北京市朝阳区铜牛电影产业园7号楼1层,ecb5b0130faf9b3860180918,,1,ecb5b0130faf9b3860180918
星巴克(花园闸路店),39.918108,116.547997,朝阳区建国路27号紫檀大厦1层,f01afc0476dfec9c4e554712,(010)85774421,1,f01afc0476dfec9c4e554712
星巴克(万科时代中心店),39.921438,116.509262,朝阳区朝阳路十里堡甲3号院甲1号万科时代中心1层底商,,(010)51077507,1,ba9e2edf081c37ea2102208d
later后来酒吧,39.905002,116.511824,北京市朝阳区百子湾东里沿海赛洛城第三有条斜街217-3,,,1,a5057ce19bf275016140a91b
星巴克(北京远洋未来汇影院店),39.922066,116.498881,朝阳区慈云寺北里209号209号楼远洋未来汇购物中心2楼,,(010)85772884,1,835ee5700f45f4546ca3cc31
迈克咖啡的小酒馆,39.90962,116.544881,北京市朝阳区高碑店古家具一条街琦檀宇艺术博物馆,5fddd53e14685b2f7069d38e,,1,5fddd53e14685b2f7069d38e
Felix Bar,39.910516,116.54337,高碑店东区D25-3,,,1,34e76ec90cd7df0501294f68
luckincoffee(四惠卓明大厦店),39.912312,116.522644,朝阳区高碑店惠河南街1069号卓明大厦一层,,4000100100,1,c73414ebe1ee89741df74d38
北京丽景湾国际酒店-大堂吧,39.927088,116.50885,东四环十里堡北里28号丽景湾国际酒店B1层,f16f6f5fff5d375e213bf2c6,,1,f16f6f5fff5d375e213bf2c6
丽景湾国际酒店-酒吧,39.927088,116.50885,东四环十里堡北里28号丽景湾国际酒店2层,eee0a0d5bbdff4f5d4851f4b,,1,eee0a0d5bbdff4f5d4851f4b
春风十里民谣音乐酒馆,39.915759,116.508891,北京市朝阳区建国路通惠家园车库美术馆9-1,,,1,e68ef609f7f0b1beb5147ff4
My Yard小院酒吧,39.913473,116.560027,惠河北街18号,,,1,dddf80ad3fd661827069d3f0
唱吧不是吧(草房店),39.93044,116.619674,北京市朝阳区朝阳北路常营丽景园配套商业6号楼B1层-125号,,,1,f4ce2b2bf5d35de12fb96d52
星巴克(常通路第一店),39.930941,116.604649,朝阳区常通路1号院西区1号楼1F-08-2F-08号,ea6000f068bc1202fbf0cb7f,(010)65430972,1,ea6000f068bc1202fbf0cb7f
FM调频酒吧,39.924734,116.571081,北京市朝阳区地铁褡裢坡站西南口向南500米天泰苑A8区捷驿佳宾馆底商,47e5f9b3b2cb3bc4b320a86a,13521850913,1,47e5f9b3b2cb3bc4b320a86a
luckincoffee(长楹天街店),39.930001,116.602544,朝阳区常通路3号院2号楼1层110室,,4000100100,1,97c0762c23253191da2f281c
馨咖啡(龙湖天街店),39.930395,116.605817,北京市朝阳区常通路1号院1号楼长楹天街购物中心B2,53a1be3c90e317a29b68b4ad,(010)65700068,1,53a1be3c90e317a29b68b4ad
星巴克(常通路二店),39.930771,116.606905,北京市朝阳区常通路1号院1号楼长楹天街东区购物中心4层,93fbfca31a88d0ffaeb22ac3,(010)65430236,1,93fbfca31a88d0ffaeb22ac3
趣舍咖啡,39.910366,116.573342,朝阳区双柳北街39号天籁轩D座,87cb93fce902a2b690114cb5,13810751640,1,87cb93fce902a2b690114cb5
中传国际交流中心-THE BAR,39.918064,116.560483,北京市朝阳区定福庄东街7号,6a59f3d0300e711b128824f0,,1,e5094a7ef535ee7eb75f1e66
顽啤猴精酿(西山摩尔汇店),39.934197,116.103996,北京市门头沟区西山艺境37号楼102号,,,1,14b93b568cb1429472455b33
Space酒吧,39.941371,116.119965,双峪路35号院1号熙旺中心B座2506号,,15600665717,1,ad5492d2edaccce6f7eafcaf
龙泉宾馆-大堂酒吧,39.968599,116.110471,水闸北路21号龙泉宾馆,60b7f7a568f1830d4054d721,,1,60b7f7a568f1830d4054d721
石景山景园假日酒店-大堂吧,39.944207,116.221775,北京市石景山区田村路555号3层,729baa0c52019abd8bf15d28,(010)88770808,1,729baa0c52019abd8bf15d28
休息吧,39.98707,116.217162,北京市海淀区香山南路巨山家园11号楼,ca7c4a873d7de6df6240a908,,1,ca7c4a873d7de6df6240a908
华北宾馆-酒吧,39.954307,116.202727,八大处甲1号,755b1d47e8adaff02b11d108,,1,755b1d47e8adaff02b11d108
Sunny pub,39.944119,116.198499,中园路与实兴大街交叉口东100米,86b630f5b5995398d1f49e3d,,1,86b630f5b5995398d1f49e3d
北京海淀永泰福朋喜来登酒店-酒吧,39.963768,116.286168,北京市海淀区远大路25号1座1层,d0e620e128ba847e33f71d53,(010)88898888,1,d0e620e128ba847e33f71d53
一殿酒吧,39.959426,116.287214,板井路69号世纪金源大饭店大堂东侧,dcffaec91ca188c425e0a008,,1,dcffaec91ca188c425e0a008
Wxyz酒吧,39.964388,116.285458,远大路25号2座-北京海淀雅乐轩酒店一层(海淀永泰福朋喜来登酒店),a12baa4092d0284fe856fa5d,,1,a12baa4092d0284fe856fa5d
丰巢自提柜,39.969233,116.278967,四季青常青园北里4号楼,,,1,26f33c3ba067d2a6c909f03b
永兴花园饭店-Lobby Bar,39.93155,116.29325,阜成路101号永兴花园饭店,35ef1089caa0b482c7f50d23,,1,35ef1089caa0b482c7f50d23
海淀世纪城录音棚,39.961768,116.288592,海淀区远大路22号西院18号楼2单元501,12a78f3358ecb2ccc71e5188,,1,12a78f3358ecb2ccc71e5188
望满阁(远大路店),39.965646,116.289362,蓝靛厂晨月园甲3,491e5ddf4c25887ab6147fc6,(010)88546180,1,491e5ddf4c25887ab6147fc6
星巴克(玉泉商业中心店),39.982094,116.257868,海淀区茶棚路2号玉泉商业中心1层,,(010)52902044,1,2231d3cad2b32f3ab45f1e8f
星巴克(杏石口店),39.959844,116.23694,海淀区杏石口路50号西杉创意园一区4号楼一层107-1号,191aef2cc10868725b109354,(010)62868130,1,191aef2cc10868725b109354
清心阁茶楼(田村路店),39.935226,116.255447,海淀区畅茜园兰德华庭7号楼1层,b703e96bd74842e38f1a8950,(010)88251530,1,b703e96bd74842e38f1a8950
流香轩茶艺居,39.959365,116.287245,板井路69号世纪金源大饭店1楼,42f2a0133c25edc6af31e587,,1,42f2a0133c25edc6af31e587
不可燥刺SPACE,39.965205,116.352455,京果商厦B座B1层,,,1,c0d6cd477f235ee338e4a638
猫头鹰音乐部落(知春路店),39.980621,116.345819,知春路甲48号盈都大厦D座3层3003号,aedc48728163e182ca2915df,(010)57185036,1,aedc48728163e182ca2915df
香格里拉行政酒廊,39.950131,116.315037,北京市海淀区紫竹院路29号北京香格里拉饭店12层,9fbfeef264be035cede4a566,(010)68412211,1,9fbfeef264be035cede4a566
新世纪日航饭店-大堂酒廊,39.943161,116.33458,北京市海淀区首体南路6号新世纪日航饭店1楼,94fc79be7a72238fab0dd844,(010)68492001,1,94fc79be7a72238fab0dd844
NJTCLUB(魏公村酒吧),39.959679,116.329569,魏公街1号韦伯时代大厦B1楼,fdfd82cb3e773818c26c1491,,1,fdfd82cb3e773818c26c1491
蜂巢自提柜,39.960434,116.306207,半壁街厂洼西街10号院3号楼,,,1,78497ad9da7da660bb17e706
湖北大厦-大堂吧,39.953398,116.331764,中关村南大街36号湖北大厦1层,732740570653f15c9e95deee,(010)62172288,1,732740570653f15c9e95deee
北京唯实酒店(唯实国际文化交流中心)-行政酒廊,39.984357,116.359072,北京市海淀区学院路39号唯实国际文化交流中心22层,163a5609dc64ee20a80dd851,,1,163a5609dc64ee20a80dd851
北京中关村皇冠假日酒店-大堂酒廊,39.981416,116.329609,海淀区知春路106号中关村皇冠假日酒店3楼(近海淀医院)驾车,bf51ff05bc500a02047ce8f8,,1,bf51ff05bc500a02047ce8f8
STAR CLUB(新中关店),39.984261,116.321195,海淀区中关村大街19号新中关购物中心第2街L212号(近丹棱街),,,1,3c00c2d7d42e0e20cf06a471
星巴克(首体南路店),39.940337,116.331484,海淀区首体南路9号主语国际4座1层,b27eb541a55097370f0e6bb4,(010)68790211,1,b27eb541a55097370f0e6bb4
星巴克(中关村南大街店),39.959149,116.331828,海淀区中关村南大街甲18号C座第一层01-101单元,,(010)62163669,1,ae201853fedc4337f32d838e
星巴克(新中关购物中心店),39.984075,116.322189,海淀区中关村大街19号新中关大厦首层L128A号,f757e6ee738d8a0e260bd059,(010)82486056,1,f757e6ee738d8a0e260bd059
星巴克(腾达大厦店),39.943732,116.333277,海淀区西直门外大街168号腾达大厦2层210号,e54066a7ff619e9495f08cc5,(010)88577710,1,e54066a7ff619e9495f08cc5
星巴克(西环广场2期店),39.947444,116.359269,西城区西直门外大街1号西区B1-45-47A号,,(010)58301229,1,294029c69c13642c36b06c7a
香格里拉酒店大堂吧(香格里拉饭店),39.950261,116.314733,北京市海淀区紫竹院路29号香格里拉酒店1楼,34429fe61c951c1ef82213d9,"(010)68412211,(010)68012211-6723",1,34429fe61c951c1ef82213d9
星巴克(西直门外大街店),39.944739,116.35587,西城区西直门外大街18号2单元101-07号,618b98d72eab2c3b220262ad,(010)88384680,1,618b98d72eab2c3b220262ad
luckincoffee瑞幸咖啡(联想桥店),39.975798,116.341696,海淀区中关村东路118号神州优车集团一层,bde38561a8e64c67cae33c4c,4000100100,1,bde38561a8e64c67cae33c4c
星巴克(北京中关村亿世界店),39.98703,116.321898,海淀区中关村大街11号中关村e世界A座1楼,4128d2d9705a843d6140a982,(010)62418405,1,4128d2d9705a843d6140a982
麦咖啡(知春路店),39.982746,116.340776,北京市海淀区知春路59号,a53d448dd59cc3e1c036448a,(010)82628192,1,a53d448dd59cc3e1c036448a
luckincoffee瑞幸咖啡(11大厦店),39.986002,116.315765,海淀区彩和坊路10号1加1大厦1层1-6-02号,c2c2d6f82924bc9252e5c5b5,4000100100,1,c2c2d6f82924bc9252e5c5b5
北京蓝调派咖啡,39.949618,116.317991,北京市海淀区紫竹院路广源闸5号广源大厦一层,073699968dedbbc900ff2db7,"18600735576,18303300880",1,073699968dedbbc900ff2db7
NOVA串吧·酒吧,39.961596,116.323674,北京市海淀区魏公村5号3层,06ff79a37f94281ec6effb40,18310351770,1,06ff79a37f94281ec6effb40
luckincoffee(黄庄尚科店),39.982553,116.325341,海淀区中关村大街28-1号-1层尚科办公中心地下一层,,4000100100,1,e60aebda4b9825491b94c642
舍得茶馆(总店),39.948865,116.318533,北京市海淀区紫竹院路甲2号,cb4fd14647d6cd589d9d6859,(010)68465743,1,cb4fd14647d6cd589d9d6859
luckincoffee(立方庭大厦店),39.986756,116.315766,海淀区善缘街1号立方庭大厦一层,,4000100100,1,0860eaa45c4a39c649fc8d2d
LAKERS酒吧,39.941966,116.315379,海淀区西三环北路87号国际财经中心A座1层西北侧,,,1,ba3f1588fac963371811d517
luckincoffee(紫金数码园店),39.984337,116.343135,海淀区紫金数码园4号楼一层0113室,9f0869c278b302699ee3211f,4000100100,1,9f0869c278b302699ee3211f
PBD BAR,39.963373,116.337696,北京市海淀区学院南路71号附近,,,1,633d5b491d627705b1077de7
九霄云外酒吧(香格里拉饭店),39.950293,116.314906,紫竹院路29号北京香格里拉饭店景阁1楼大堂,610852112d478fb8c51b7559,,1,610852112d478fb8c51b7559
酒吧,39.975998,116.329428,北京市海淀区中关村大街甲38号,6aa861c9355dee093a13fdb7,,1,6aa861c9355dee093a13fdb7
brunocaffe(银网中心店),39.982452,116.327269,海淀区知春路113号1幢1层103-104-105号,,(010)62585920,1,410389f0ae980d9f43e192c6
霓裳酒吧,39.959004,116.315185,北京市海淀区西三环北路21号久凌大厦南楼二层,,,1,9cf393b8976758bc8936ee9f
字节跳动今日头条,39.980923,116.345065,知春路甲48号院盈都大厦B座12层,,,1,8d835a049c0f2c1d0c0e6bc8
星巴克(金源燕莎2店),39.965027,116.297648,海淀区远大路1号友谊商城金源店地下一层,,(010)88873879,1,672e4552182f99b08f1a8930
DN日夜酒吧,39.964658,116.358192,北京市海淀区学院南路15号,,,1,13ba674fde30b75d54bfff49
京仪大酒店-大堂吧,39.978208,116.344567,大钟寺东路9号京仪大酒店1层,c5379e01400b3508f8f0cb4c,(010)62165588,1,c5379e01400b3508f8f0cb4c
金泰之家通华苑店-大堂吧,39.940794,116.359664,北礼士路101号,5c8a27ce94d979cf373a7196,,1,5c8a27ce94d979cf373a7196
Y友之家,39.950196,116.316047,西三环北路33号附近,4e9ea34399327733d4851f57,,1,4e9ea34399327733d4851f57
北京丽亭华苑酒店-聊吧,39.983135,116.351806,北京市海淀区知春路25号北京丽亭华苑酒店2层,dffd631cd61cebbc38221c55,(010)82356699,1,dffd631cd61cebbc38221c55
丰巢自提柜,40.041707,116.223814,西北旺镇西山林语三区24号楼,,,1,d59bc4a364f82a4d0af5eb96
小木屋花园酒吧,39.995274,116.223287,香山南辛村20号中国科学院植物研究所北京植物园内,cb8506535584515d17b54b17,,1,cb8506535584515d17b54b17
北京世纪金源香山商旅酒店-大堂吧,39.99705,116.209563,北京市海淀区北正黄旗59号,d998b7ce512806c048cc4ad5,,1,d998b7ce512806c048cc4ad5
香山饭店-酒吧,39.995634,116.201228,香山公园内,2f8082ddeb57e5d6afee7aa9,,1,2f8082ddeb57e5d6afee7aa9
安缦酒吧,40.005692,116.288608,北京市海淀区颐和园宫门前街1号安缦颐和酒店内,bcaebff8b04e914dc8e33c85,(010)59879046,1,bcaebff8b04e914dc8e33c85
丰巢自提柜,40.028817,116.294343,圆明园西路2号院21号楼,,,1,fee4fc922de27e69c056acf5
星巴克(北京龙湖天街店),40.004695,116.295768,海淀区颐和园路206号龙湖星悦荟L1-01-03号,89fd4ea32bca155ee4e965bc,(010)62501706,1,89fd4ea32bca155ee4e965bc
Sensation,39.997653,116.34355,海淀区成府路35号华清嘉园12号楼一层(近五道口地铁站),4eb3b53356b67a6c430245ff,,1,4eb3b53356b67a6c430245ff
THE STEPS BAR(五道口店),39.99756,116.343542,五道口华清嘉园12号楼7-11、Sensation2层,434d1737ac2d773b33621252,(010)82863240,1,434d1737ac2d773b33621252
零度CLUB,40.036461,116.318429,北京市海淀区上地信息路19-1号,bfa4d80a86c7885f28b97c5e,,1,bfa4d80a86c7885f28b97c5e
LUSH(成府路店),39.998227,116.343288,北京海淀区成府路华清家园1号楼(光合作用书店楼上),9f97b1c5b6b2b81fb64f545d,(010)82863566,1,9f97b1c5b6b2b81fb64f545d
bartender酒吧,39.998094,116.340304,北京市海淀区华清商务会馆802C,7f75c0421db66548adcb6668,,1,7f75c0421db66548adcb6668
明洞邦酒吧(成府路店),39.998845,116.345472,北京市海淀区成府路27号国际食尚苑2层,c32c0f6910bcb4b76c47606e,(010)61647990,1,c32c0f6910bcb4b76c47606e
Propaganda(华清嘉园店),39.997581,116.343492,北京市海淀区华清嘉园12号楼一层附5号,c16534057dcd8560ab175a5d,(010)82863991,1,c16534057dcd8560ab175a5d
13club网吧,39.997729,116.330811,北京市海淀区蓝旗营161号(近成府路),49a02a7ab4a7ac402b201a55,,1,49a02a7ab4a7ac402b201a55
夜半酒吧,39.999026,116.343263,北京市海淀区成府路35号东源大厦B1楼(近五道口城铁站西侧),79cceb3679465c901f5800b7,,1,79cceb3679465c901f5800b7
啤器精酿,39.998096,116.340285,北京市海淀区成府路华清商务会馆9楼907c,bc88314a6f63275683a00cda,,1,bc88314a6f63275683a00cda
ELECTRO HOUSE,39.997707,116.3435,北京市海淀区财经东路华清嘉园12-1号,,,1,f73a3a5ae2960639c8213dd0
KYLIN PUB酒吧,39.998186,116.340016,成府路35号华清商务会馆7层702,,,1,f0fe5576e721fa722d47331a
爱精酿Ai Beer Bar,39.998194,116.34029,成府路华清商务会馆5层507A(近审美),,,1,cbc2206410b5a3a0dc1e527b
Propagada,39.997411,116.343504,成府路与荷清路交叉口南150米,9e2609f6a120fe52badf8f43,,1,9e2609f6a120fe52badf8f43
紫光国际交流中心-大堂吧,40.00101,116.338397,北京市海淀区中关村东路1号院10号楼,bcd7906445209eba4d2fdfd8,(010)62791888,1,bcd7906445209eba4d2fdfd8
AR live house酒吧,40.007616,116.358724,学院路六所大厦B座3层(地铁六道口站A2口行20米，白夜网咖六道口店旁),,,1,ef5b62150a6c6223f90cadff
美味门(北京大学店),39.992065,116.319534,北京市海淀区海淀路中关村7号楼迤西平房3号,0eb3111b325e89befb2d61c5,18612232802,1,0eb3111b325e89befb2d61c5
TOP CLUP,40.004003,116.358719,矿业大学东门苏宁易购南侧门三层,a8bd29dd12f10be6fbdc8565,,1,a8bd29dd12f10be6fbdc8565
地大国际会议中心-大堂吧,39.997028,116.351655,学院路29号,6f69a8b8d8343907364aaedc,,1,6f69a8b8d8343907364aaedc
VIVE X CLUB,39.995102,116.340831,中关村东路16号龙湖唐宁1号楼108附近,e286990ed9605c0b4d554796,,1,e286990ed9605c0b4d554796
大堂吧,39.996445,116.312735,北京市海淀区北京大学勺园7号楼北京大学正大国际中心1层,d3e9e3c93e2b4f462bb97cf7,,1,d3e9e3c93e2b4f462bb97cf7
北京资源燕园宾馆-大堂吧,39.992882,116.312302,北京市海淀区颐和园路1号资源宾馆1层,fdf09f69bfdd978c75e5b642,(010)62757199,1,fdf09f69bfdd978c75e5b642
Global酒吧,39.999055,116.343201,北京市海淀区成府路35号东源大厦地下1层,e8811b6398293a60d22dd6f2,,1,e8811b6398293a60d22dd6f2
六月花园咖啡馆(中关村东路店),39.994868,116.341467,北京市海淀区中关村东路16号院龙湖唐宁ONE2号A123号商铺,ea39734592cad8cb14b54bf5,(010)62423421,1,ea39734592cad8cb14b54bf5
3W咖啡(北京旗舰店),39.989049,116.313658,北京市海淀区海淀西大街70号101室,cdef4edf0338a75728d7ab71,(010)59433307,1,cdef4edf0338a75728d7ab71
星巴克(五道口购物中心店),39.998125,116.345803,海淀区成府路28号1层101-10B号,610852112d468fb8c51b7558,(010)61647620,1,610852112d468fb8c51b7558
星巴克(畅春园店),39.994782,116.311204,海淀区颐和园路8号,b817740b50270d45a0acc453,(010)81046615,1,b817740b50270d45a0acc453
星巴克(上地三街店),40.042191,116.314668,海淀区上地三街9号金隅嘉华大厦B座1层,f7dc78501310cb09fb42b20d,(010)62978546,1,f7dc78501310cb09fb42b20d
星巴克(科学院南路店),39.990413,116.3333,海淀区科学院南路6号融科资讯中心B座1层019单元,,(010)82861286,1,0c38d66cd422875dc51b7574
星巴克(金码大厦店),40.007454,116.360131,海淀区清华东路2号金码大厦A座首层,b9e5d0b8a47fc9a580a12eb8,(010)82838391,1,b9e5d0b8a47fc9a580a12eb8
星巴克(鼎好电子大厦店),39.989541,116.320901,海淀区海淀大街3号鼎好电子大厦1层,e6ee2fd2e5f4ef512b11d159,(010)82698072,1,e6ee2fd2e5f4ef512b11d159
星巴克(五彩城店),40.036169,116.339583,海淀区清河中街68号五彩城西区首层L101号商铺,7c5e480b38d71fadacb22af1,(010)82816711,1,7c5e480b38d71fadacb22af1
星巴克(清河嘉园东区店),40.03624,116.35317,海淀区清河嘉园东区甲1号楼清河翠微百货一层101-01单元,324fe2cbdaa757b91b94c691,(010)62910916,1,324fe2cbdaa757b91b94c691
星巴克(海龙大厦店),39.989275,116.321837,海淀区中关村大街1号1号楼1层F100号铺位,b57c99d10b69b1baca29153c,(010)82663805,1,b57c99d10b69b1baca29153c
星巴克(大恒科技大厦店),39.988634,116.311706,海淀区苏州街3号大恒科技大厦首层,bd5046e805b6e358d72ce24d,(010)82827945,1,bd5046e805b6e358d72ce24d
星巴克(威新国际大厦店),39.999372,116.338927,海淀区中关村东路1号清华科技园搜狐大厦1层,5e95316631ce5d88a1046427,(010)58722056,1,d25b0c6f5c62cdf396ca0733
GLOBAL Warehouse 烤肉餐·酒吧,39.997818,116.343482,五道口华清嘉园12-1号(桥咖啡楼下),e6d1a2755b5ef73395f08ca3,,1,084b585fcc0247c05cd4fe7f
印象酒吧(安宁庄前街店),40.044213,116.338722,北京市海淀区清河安宁庄清上园东门金源快捷酒店对面印象酒吧(清上园东门金源快捷酒店对面),ff5a0405b06721b6fb2d614c,,1,ff5a0405b06721b6fb2d614c
星巴克(五彩城二店),40.035899,116.341602,海淀区清河中街66号院号华润五彩城购物中心2期4层,,(010)69614875,1,face025d279699b4b9df8fb5
一半一伴bocoffee,39.989678,116.321184,北京市海淀区海淀大街3号日月光·鼎好大厦B座1层,,"13911510348,(010)62662001",1,9ab7208b8ae6479e07026f4d
n-caco咖啡酒吧,40.006064,116.356809,清华东路16号艺海大厦3层,72bdd0d0d5fae21099005098,,1,72bdd0d0d5fae21099005098
luckincoffee(汇智大厦店),40.025307,116.357808,海淀区学清路9号汇智大厦A座,,4000100100,1,2b9c734573b272a849fc8d46
辽宁大厦-酒吧,39.990761,116.344227,北四环西路甲2号,2ddc55ce98eb3f7fe812e4c5,,1,2ddc55ce98eb3f7fe812e4c5
北大博雅国际酒店-大堂酒吧,40.003795,116.319759,中关村北大街127号北大博雅国际酒店1层,,,1,03e8e6923be886c20e3dda6e
SOJU BAR,39.998743,116.34305,北京市海淀区成府路35,3f5a123a973dea56d2f49e28,,1,3f5a123a973dea56d2f49e28
达园宾馆-酒吧,40.005992,116.306979,颐和园路东口福缘门甲1号,f9ac426f59907a02cac3dbbd,,1,f9ac426f59907a02cac3dbbd
北京锡华商务酒店-酒吧,39.995404,116.309255,颐和园路12号,,,1,2073501f833d3437a21de9ec
丰巢自提柜,40.089714,116.260062,西北旺永丰嘉园五区4号楼3单元,,,1,7d904f21830c2c354d2fdfe6
星巴克(东北旺西路第三店),40.054068,116.286671,海淀区西北旺东路10号楼东区5号楼互联网创新中心一楼,c07341b3304ae8d330169be1,(010)59403249,1,c07341b3304ae8d330169be1
星巴克(东北旺二店),40.053277,116.293995,海淀区东北旺西路8号23号楼,2d2a46cfeafaab0e9e9d6808,(010)56730959,1,2d2a46cfeafaab0e9e9d6808
北京应物会议中心北清路店-大堂吧,40.080159,116.259207,丰豪东路1北京应物会议中心北清路店1层,b9ab1071b201d01b7069d3e9,(010)58851818,1,b9ab1071b201d01b7069d3e9
GEEKBAR码农社,40.074044,116.320503,北京市昌平区龙域北街3号院1号楼211,,,1,a09e36ab70c98e1bb5147fb8
嘿哈精酿啤酒屋(回龙观店),40.074651,116.341902,北京市昌平区黄平路龙博苑一区西门,,,1,4bf098ee364e939088f15d41
金翠廊大堂吧,40.093296,116.30789,北京市昌平区回龙观路317号龙城丽宫酒店1楼,cc788fde8194a19389fc06a3,(010)80799988,1,cc788fde8194a19389fc06a3
北平北PeiPingNorth Bar,40.083336,116.336173,北京市昌平区西大街18号,,,1,55cc110abea01eeb35b06cf2
慕尼黑啤酒,40.047527,116.361494,北京市海淀区专家国际公馆121,,,1,4cecdacb1025ac4a2902e17f
丰巢自提柜,40.08104,116.34205,回龙观街道龙腾苑五区4号楼,,,1,c5364b212279141d2e473367
丰巢自提柜,40.059336,116.307861,上地十街辉煌国际3号楼一层,39d5859d6f93ff26441a32f4,,1,39d5859d6f93ff26441a32f4
星巴克(黄平路店),40.071826,116.353762,昌平区黄平路19号1号楼B单元101-02室,0c1abc4ab1b20be09c9d68e7,(010)82540252,1,0c1abc4ab1b20be09c9d68e7
佳沃茶社,40.048926,116.31178,信息路7号数字传媒大厦一层111室,bb6be67c053bf490d6b74e29,(010)60608169,1,bb6be67c053bf490d6b74e29
啤酒青年酒吧,40.070283,116.35206,北京市昌平区太平庄北街龙旗广场十字路口向西100米路北,,,1,724b425df9bf71df4f6d4677
老单车咖啡馆(回龙观店),40.071688,116.349361,文博路26-27号,e567c835a43360cc40e192c1,(010)62710063,1,e567c835a43360cc40e192c1
观BREW PUB,40.084412,116.33656,回龙观西大街152号附近,,,1,aaee0ef0a68a0f1f2fb90891
纯五度咖啡厅(奎科大厦店),40.047952,116.313317,海淀区信息路甲9号,69fcd6df97757236ca291504,(010)61952210,1,69fcd6df97757236ca291504
相遇休闲酒咖,40.057694,116.334801,北京市海淀区西三旗安宁佳园东路京玺文化园2号楼102室,,18612832251,1,8517be14607a27e95cbe86a4
星巴克(龙域中街店),40.072184,116.322811,昌平区龙域中街1号院龙域中心A座1层,,(010)62920876,1,1eb4aaea632077f1cf04eff3
不将就酒吧餐吧,40.08472,116.337534,回龙观西大街35号院上北鑫座2号楼2楼205号,ddc550f2098b9150ebe582d4,13901255449,1,ddc550f2098b9150ebe582d4
luckincoffee(中关村软件园店),40.05571,116.301298,海淀区软件园二号路中关村软件园12号楼万集空间E区1层,,4000100100,1,ff199b4cb7f6f83c725e80e4
又见精酿啤酒吧,40.084409,116.336555,回龙观西大街35院附近,,,1,96ad6faa280d0a8f7bf7962f
热舞酒吧,40.10466,116.293604,北清路1号院珠江摩尔国际大厦7号楼B1层,,(010)83246666,1,4d6f81cb1dca46fbe215f903
星巴克(生命园路店),40.107025,116.27484,昌平区生命科学园路4号4号楼1层102室,,(010)52475277,1,aa8621dd84a5b17c8d7727e2
蜗牛精酿酒吧,40.151482,116.285765,顺沙路19号院一区底商,,17710796784,1,fc64d243fbac97dff503b8dd
后海酒吧美食街,39.945269,116.399612,西城区后海银锭桥附近(烟袋斜街西口),15a93810b642cea415c8f6bd,,1,15a93810b642cea415c8f6bd
DADA酒吧,39.946997,116.405524,鼓楼东大街206号B栋101室,b7694b20a2a0190228201a32,,1,b7694b20a2a0190228201a32
牛啤堂精酿啤酒餐吧NBeerPub(护国寺店),39.941397,116.382103,西城区护国寺大街85号护国新天地1层F1-6B,e245c30d8b69ed86e6e96520,(010)83288823,1,e245c30d8b69ed86e6e96520
大跃啤酒豆角6号古朴小院,39.943758,116.405751,豆角胡同6号,a38d4a296d50127e3a04b18a,,1,a38d4a296d50127e3a04b18a
Temple(鼓楼店),39.946997,116.405524,鼓楼东大街206号院内B202(近南锣鼓巷),cac5fc76afdc9aea2cb96dc3,,1,cac5fc76afdc9aea2cb96dc3
麦酒吧,39.951881,116.409366,北京市东城区北锣鼓巷40号,7c5e480b3eb319adadb22a55,18801067105,1,7c5e480b3eb319adadb22a55
Side Street街旁,39.947595,116.416503,北京市东城区东大街113-2号,,15910694920,1,c396e27bf7a103fce215f97f
吉他吧(南锣鼓巷店),39.947333,116.412931,北京市东城区鼓楼东大街35号,e3e2cd9d12e449fac6f50d83,(010)64063937,1,e3e2cd9d12e449fac6f50d83
熊猫精酿啤酒厨房(北新桥店),39.945997,116.423494,北京市东城区东四北大街14-2号,95b627c82662fbd080a00cfe,,1,95b627c82662fbd080a00cfe
琥珀精酿AmberCraftBeer,39.942594,116.413604,北兵马司胡同24号,cddd368a6b437d670869d9aa,,1,cddd368a6b437d670869d9aa
十月酒馆,39.946649,116.393032,后海南沿1号(近海边),,,1,5440e736aa61b0f646e274ea
后海5号酒吧,39.945746,116.399227,北京市西城区什刹海后海北沿5号近小石碑胡同、银锭桥西50米、地安门商场西北,0ed1dfd424f16f624afd3f20,,1,d5f93c0ef59c5a45ecdfcaa3
hoper,39.950175,116.408971,北京市东城区华丰胡同6号,bce4e032591cee332bd7ab00,18618438838,1,bce4e032591cee332bd7ab00
wonderwall,39.944071,116.414766,北京市东城区交道口南大街前圆恩寺胡同2号,7ad13963d0f8bd866f20b9b2,,1,7ad13963d0f8bd866f20b9b2
海棠吧,39.945072,116.401068,北京市西城区烟袋斜街40-2后门,90704eb8e73b91cfb817e739,,1,ff0f88d0ee77072fb45f1ea6
Corner 角落,39.946717,116.423428,东直门内大街288号1楼21号,0cd7597b965117704054d724,,1,0cd7597b965117704054d724
江湖酒吧,39.942075,116.414188,北京市东城区东棉花胡同7号(近交道口南大街),69fcd6df8eab0b36ca291552,,1,69fcd6df8eab0b36ca291552
吉它吧(前海北沿店),39.943681,116.399123,北京市西城区前海北沿10号,5b25f446364268f3112935a2,(010)83220903,1,5b25f446364268f3112935a2
见面,39.946512,116.392703,北京市西城区后海南沿丁1号(银锭桥南岸往西500米),c07a3dbeef950bd5f02d834e,18611843160,1,c07a3dbeef950bd5f02d834e
EA live house,39.946905,116.405489,鼓楼东大街206号北京国际创意设计-B座,6dbe7ffc82a47ca6bca822c3,,1,6dbe7ffc82a47ca6bca822c3
七树醇酿,39.942576,116.412679,北兵马司32,d6a042392cbe68e1e9f853dc,,1,d6a042392cbe68e1e9f853dc
BEER GUYS,39.950026,116.400113,北京市旧鼓楼大街与豆腐池胡同交叉口西南50米,,,1,b9d1fbd1f9589ffa4c6d464b
熊猫精酿(五道营胡同文化店),39.954764,116.418595,"北京市东城区五道营胡同61号(地铁雍和宫站,安定门站附近)",19eeeb68e21bbe1bb817e7d6,,1,19eeeb68e21bbe1bb817e7d6
鸦儿渡口酒吧,39.945798,116.399157,北京市西城区后海北沿6号1幢等3幢,5c78a8b4d354bea76fa3ccd5,(010)84083969,1,5c78a8b4d354bea76fa3ccd5
海妖酒吧,39.954504,116.421264,雍和宫南大街五道营胡同22号(近雍和宫),a3f21eee3be1005d2fb17e10,,1,a3f21eee3be1005d2fb17e10
呆会儿,39.945619,116.399473,北京市西城区后海北沿2号,eba74a9a3983267d3be4a6ba,,1,eba74a9a3983267d3be4a6ba
猫头鹰音乐部落(惠新店),39.984023,116.420083,北京市朝阳区北土城东路小关东里8号院外底商,b9e06286aec90c58f21937fc,,1,b9e06286aec90c58f21937fc
Chill Bar,39.954702,116.413201,北京市东城区安定门西大街2号,f2cdbf1d1501c9b9e5073824,,1,f2cdbf1d1501c9b9e5073824
北京金隅喜来登酒店-大堂酒廊,39.973649,116.414973,北三环东路36号北京金隅喜来登酒店1层,c50ce90f824dda4288f15db4,,1,c50ce90f824dda4288f15db4
烈火凤凰酒吧,39.945364,116.398833,后海南沿6号,c8b5cdeffc86ab1a120daaa3,"(010)83280599,18610881101",1,c8b5cdeffc86ab1a120daaa3
一品昌,39.944748,116.400065,北京市西城区银锭桥16号,fc6c1aec8e1c58a6ce04efc2,,1,fc6c1aec8e1c58a6ce04efc2
北京登陆酒吧,39.944939,116.409375,东城区南锣鼓巷黑芝麻胡同1号,34e485088eb8dcfbd9d891a3,,1,34e485088eb8dcfbd9d891a3
Player,39.945446,116.398314,北京市西城区后海南沿10号,9c2592540caf324bb9df8fae,,1,9c2592540caf324bb9df8fae
运雅酒吧(后海店),39.945529,116.399777,北京西城区烟袋斜街85号(近银锭桥),2527be1e32da5caa4bfc8d87,,1,2527be1e32da5caa4bfc8d87
北京什刹海会贤堂酒吧,39.943433,116.398506,前海北沿18号,1d12f2398a76a699c91b9532,,1,1d12f2398a76a699c91b9532
集贤堂茶酒吧,39.946227,116.394244,北京市西城区后海南沿36号,30d2985f2fde38dfe8e58247,,1,30d2985f2fde38dfe8e58247
北京什刹海会贤堂酒吧,39.943433,116.398507,北京市西城区前海北沿13号,4ce10ce66677f6b8451a32a2,(010)66176221,1,4ce10ce66677f6b8451a32a2
元缘红坊,39.943163,116.409586,南锣鼓巷74号,74c933fb88d968479f82eaa2,(010)64072116,1,74c933fb88d968479f82eaa2
聚仙阁酒吧,39.945459,116.398133,北京西城区后海南沿16号,55f36954322002bc9de321be,(010)83287933,1,55f36954322002bc9de321be
集酒馆Agora Bar,39.947334,116.400003,北京市西城区鼓楼西大街31号,,,1,6543bdeb77689a7f48cc4adc
长亭酒肆(北锣鼓巷店),39.950901,116.409174,北京市东城区北锣鼓巷51号,,,1,526487cf970ce5b09ff779b3
西绦26号,39.954304,116.394251,旧鼓楼大街西绦胡同26号(近工人日报社),34f68ab0a57aa4138f55ec3e,,1,34f68ab0a57aa4138f55ec3e
海月轩,39.949618,116.392516,什刹海后海北岸乙27号(望海楼院内),db1f39d497df5a76f5c59c5f,,1,db1f39d497df5a76f5c59c5f
啤气,39.947617,116.411474,鼓楼东大街81号,aabcd9c604817bb6b75f1e93,,1,aabcd9c604817bb6b75f1e93
The V吸血鬼酒吧(安定门总店),39.954592,116.419917,北京市东城区雍和宫大街五道营胡同42号,d89f739ad3010a75b54f547c,(010)64037252,1,d89f739ad3010a75b54f547c
酒窝 Dimple CAFE&BAR,39.943588,116.414834,北京市东城区金紫茗张妈妈特色川味馆(交道口店),41213ce8c0411dd8ae045730,,1,41213ce8c0411dd8ae045730
北京双城咖啡酒吧,39.950115,116.418005,方家胡同46号A101,5508504d4e5ddbd2c6f025ae,,1,5508504d4e5ddbd2c6f025ae
黄昏黎明俱乐部(DDC),39.938321,116.416893,北京市东城区山老胡同14号院,,,1,b56f15dce885809c35b06c3d
School酒吧,39.954743,116.419387,北京市东城区五道营胡同53号,7d5f3a0a6ce964522db908a4,,1,7d5f3a0a6ce964522db908a4
卿城国际会所,39.986037,116.397235,北京市朝阳区民族园路3号,,,1,49a02a7a20a338592a201aa9
36号酒吧,39.945363,116.401278,北京市西城区烟袋斜街35号,8ce12ca14d3dc83a8c1a891b,,1,8ce12ca14d3dc83a8c1a891b
聊斋,39.944871,116.409056,北京市东城区黑芝麻胡同5号,0858c40a80b9c592f942b2bc,,1,0858c40a80b9c592f942b2bc
声声慢酒吧,39.945529,116.397692,北京市西城区后海南沿18号,3dc0dec08dae91d18715417c,,1,e94fc790f36300301df74d39
星巴克(护国寺街店),39.941418,116.381868,西城区护国寺街85号11号楼1层F1-3单元,e97851593717df08b5f42fc8,(010)66074240,1,e97851593717df08b5f42fc8
星巴克(北京德外大街店),39.960612,116.384696,西城区德胜门外大街83号德胜国际中心B座一层102号,d697a85b5a25c7eed42ce2db,(010)82326181,1,d697a85b5a25c7eed42ce2db
悦界酒吧,39.945331,116.398631,北京市西城区后海南沿甲10号酒吧一条街中段,2d7206c1a08e328e9a00505a,13810218027,1,2d7206c1a08e328e9a00505a
barblu闲西餐酒吧,39.954716,116.420429,北京市东城区五道营胡同31号,09848e38fa9458546cc02c71,,1,09848e38fa9458546cc02c71
星巴克(安定路店),39.983956,116.412726,朝阳区安定路5号环宇荟购物中心1层,,(010)64197170,1,f0c7e8f32073a78629fc48ed
喵客酒吧Meow Cafe&Bar,39.939416,116.401027,北京市西城区地安门西大街10号-3幢,,15701206746,1,5ece7f54861efdb059bbbc6e
东岸,39.942363,116.401816,北京市西城区地安门外大街前海南沿2号楼2楼,e6ee2fd2751f1f482b11d12c,(010)84032131,1,e6ee2fd2751f1f482b11d12c
星巴克(北京中海国际大厦店),39.937622,116.364212,西城区平安里西大街28号楼中海国际大厦1层6-7单元,,(010)88009512,1,df1e85f7aa7ddd87950319bc
星巴克(北京环球贸易中心店),39.973388,116.41628,东城区北三环东路36号环球贸易中心2号楼C座05单元一层,da41b1e1d55a617dcb213d34,(010)58256529,1,da41b1e1d55a617dcb213d34
Mona Bar,39.93198,116.425455,北京市东城区东四二条20号,29099479fd6bdae314948eaf,,1,29099479fd6bdae314948eaf
CAFE&BAR,39.94557,116.397477,后海南沿银锭桥南沿20号(近小翔凤胡同),fc9bc3124ec6af9dcae33c0d,,1,b7021bf87762bde3f5e73bb1
星巴克(安贞环贸2店),39.974627,116.416653,东城区北三环东路36号环球贸易中心A座1层01单元,,(010)59575613,1,0cb9fd57cbac4e75f423104c
谷雨酒吧,39.945349,116.399022,北京市西城区后海南沿甲6,cde9e2c7a9bdb1ade91e97a3,,1,4768f36f7849a4cb283a9fd9
坚果nuts,39.943558,116.398925,前海北沿11号(银锭桥南),,,1,8b33de7b185807796d20b923
好彩（LUCKY STRIKE）酒吧,39.948108,116.409498,北京市东城区北锣鼓巷76号,,15910956156,1,0c102a865c7b5f1f0d0e6b48
星巴克(中粮置地广场店),39.958245,116.415227,东城区安定门外大街208号中粮置地广场高塔1层1F-08商铺,,(010)64220715,1,479a060a164a310db9df8f76
星巴克(北太平庄路店),39.974799,116.377626,海淀区北太平庄路18号27-04中城建大厦A座01层102室和A座02层210室,1d35e247759bf130a8f0cde4,(010)62426435,1,1d35e247759bf130a8f0cde4
luckincoffee(江苏广电大厦店),39.97118,116.413546,朝阳区安定门外大街1号江苏广电大厦一楼,,4000100100,1,55e2e84f12dc41d5f8f0cbf5
luckincoffee(北太平庄店),39.972822,116.367756,海淀区杏坛路40号,,4000100100,1,251b49b3c6e1d2284f3a59cd
摆渡酒吧(后海店),39.94566,116.399462,西城区后海北沿2号(近银锭桥),5edaf5344c04d57306fef5b1,,1,5edaf5344c04d57306fef5b1
烈火麒麟,39.945252,116.399678,北京市西城区银锭桥胡同1号,fa7da3e87246017b43d63ea2,,1,fa7da3e87246017b43d63ea2
印巷酒吧,39.943171,116.409574,北京市东城区南锣鼓巷72号,7c5e480b17a966adadb22a43,,1,7c5e480b17a966adadb22a43
瀚茗轩茶楼,39.984829,116.375153,海淀区花园路2号院3号楼2层,a76a19f7c17688734e776e03,13011292879,1,a76a19f7c17688734e776e03
起点(后海店),39.945503,116.397927,北京市西城区后海南沿甲18号,8a01498c8dfb5e3087330478,,1,8a01498c8dfb5e3087330478
波楼酒吧ballhouse酒吧,39.948692,116.402696,北京市东城区安定门街道钟楼湾胡同40号波楼酒吧,,,1,9e9c66e2fc1e6a7f250bd024
银海轩酒吧,39.945321,116.399103,北京西城区后海南沿5号银锭桥胡同2号,f757e6ee73eb8a0e270bd083,,1,f757e6ee73eb8a0e270bd083
望海情缘酒吧,39.945349,116.398932,后海南沿6号(近银淀桥鼓楼后海),81d6a509b8a33c596f20b9a3,,1,81d6a509b8a33c596f20b9a3
爵色桃源,39.945375,116.398807,后海南沿8号(近银锭桥),a12085d442c71b8996ca07ce,,1,be3736540031f87d16a1902b
相遇酒吧,39.942259,116.397234,地安门西大街57号相遇酒吧(荷花巿场内),fc4e1caac1892dc494ec84d6,,1,fc4e1caac1892dc494ec84d6
唯咖啡voxcoffee(小西天店),39.958455,116.367522,北京市海淀区文慧园北路9号空间蒙太奇商务中心(今典花园),ee59a35ce832269df4b9164d,(010)82220800,1,ee59a35ce832269df4b9164d
秋叶,39.946518,116.392996,后海南沿甲1-7号,b32c4468a10a034e28201a65,,1,b32c4468a10a034e28201a65
醉初DRUNK BEGINS,39.945543,116.397173,北官房胡同37号,2887127f9e14e3ac80a00ca9,,1,2887127f9e14e3ac80a00ca9
印格时光咖啡酒吧,39.954571,116.421534,北京市东城区雍和宫桥南50米五道营胡同18号,480b24d04e691ae89cec2b5b,(010)64021646,1,480b24d04e691ae89cec2b5b
后海西沿甲肆号,39.950805,116.387038,北京市西城区后海西沿,34c6c9a22702e94ea1a9343c,,1,34c6c9a22702e94ea1a9343c
都市酒吧,39.93707,116.363338,平安里西大街30号楼远通维景国际大酒店2层,7ff1e4725371b3da9cf7793f,,1,7ff1e4725371b3da9cf7793f
陈升福元昌茶楼(南锣鼓巷店),39.939445,116.407925,地安门东大街地铁南锣鼓巷站A口西侧10米,c45207c7f86734161fe999c3,(010)84069599,1,c45207c7f86734161fe999c3
听荷雨,39.944918,116.400068,银锭桥胡同14号(银锭桥),,,1,b929f50882b5d3626849f3d4
乐舞聚财酒吧,39.983491,116.422746,北土城东路7号元大都遗址公园酒吧一条街内(对外经贸大学南门对面),09482876f7f4af01f119372e,,1,09482876f7f4af01f119372e
怡景阁行政酒廊,39.93707,116.363338,平安里西大街30号楼远通维景国际大酒店20层,e67a6b61693311987f29bda0,,1,e67a6b61693311987f29bda0
一品茗茶咖啡,39.95913,116.406985,北京市东城区青年湖南街安德路47号院西门8号楼1层,c0b8c2dc69179485fa42b21f,"(010)64287400,18611697873",1,c0b8c2dc69179485fa42b21f
后海音乐震颤酒吧,39.945252,116.399489,银锭桥胡同3号,426ec396aade624130169bcd,4006805298,1,426ec396aade624130169bcd
Shisha Bar阿拉伯水烟酒吧,39.94789,116.423774,北京市东城区东直门内大街277号,,,1,3224a4c8b43da2f8ed74f87e
仓库酒吧,39.95404,116.405931,北京市东城区宝钞胡同6号附近,,,1,7919c8ddd765a14fabf0cdaa
蓝溪酒吧,39.947334,116.400128,旧鼓楼大街183号,,,1,6f70613fe12fe39479dbd2d1
江湖酒吧(后海店),39.942947,116.397383,前海北沿17号,6c2f99cfebea8cc2931fc91f,,1,6c2f99cfebea8cc2931fc91f
朝酒晚舞,39.944114,116.400046,西城区什刹海前海北沿3号,,,1,94c65fcacc3284b8336212d2
北京杜革私人酒店-酒吧,39.943965,116.410435,前圆恩寺胡同26号,af2fffb14f40578c04fef579,,1,af2fffb14f40578c04fef579
麦咖啡(北师大店),39.967534,116.376866,北京市海淀区新街口外大街19号师大东门励耘学苑1楼(近北师大),64ccb61bcaa6b3bbf7b916cc,,1,64ccb61bcaa6b3bbf7b916cc
古韵青年酒店酒吧,39.951107,116.40013,北京市西城区旧鼓楼大街51号,,,1,7ec7f3e60fd7ab4d30169b09
DEAL酒吧,39.9488,116.422784,交道口北二条与雍和宫大街交叉口西南50米,,,1,9e312f4dd4fe0c1cd02dd65d
北京和敬府宾馆-大堂吧,39.941464,116.419359,张自忠路7号,917b6914b0a52f2f72455b77,,1,917b6914b0a52f2f72455b77
海风,39.942238,116.397243,北京市西城区地安门西大街51号荷花市场内,ca5d31be8eb3e66d018972f5,,1,ca5d31be8eb3e66d018972f5
福地凰城酒店-酒吧,39.934402,116.420443,钱粮胡同17号,7316f90b293b991663685888,,1,7316f90b293b991663685888
VICS酒吧,39.938572,116.454603,北京市朝阳区工人体育场北门内东侧(近澳拜克牛排店),e889a74444e791ac8705bf8b,,1,e889a74444e791ac8705bf8b
Great Leap Brewing大跃啤酒(新源里店),39.955844,116.461698,北京市朝阳区新源街45-1号,02ab22595759a6bcd13ce386,(010)59476984,1,02ab22595759a6bcd13ce386
Destination,39.934347,116.449917,北京市朝阳区工人体育场西路7号,b1fe6b1a8f22875b9e95de64,(010)65515138,1,b1fe6b1a8f22875b9e95de64
Sir teen,39.935181,116.450861,北京市朝阳区工体西路6号,d537576c9dc75688f03cba3a,,1,d537576c9dc75688f03cba3a
Vplus Lounge,39.938066,116.457266,北京市朝阳区工体东路中国红街3号楼顶层(工人体育场东门对面),b6ed92f6d1a766b6a1d2302e,,1,b6ed92f6d1a766b6a1d2302e
OZ CLUB盎司娱乐(NEW LIVE潮玩店),39.939018,116.451371,北京朝阳区工人体育场北路50号,,,1,c354d8eb0c570f821811d571
Camera Stylo,39.94007,116.428376,东四十一条64号(平安大街),061b4b224a7a5d0d8e772724,18811715156,1,061b4b224a7a5d0d8e772724
天草之间 BSP Live House,39.934174,116.442542,北京市朝阳区朝阳门北大街天辰大厦一层,8a5f33247115e73a47e27406,(010)85306931,1,8a5f33247115e73a47e27406
柒lounge,39.939824,116.456102,北京市朝阳区工人体育场北路13号-1层,1f4b1c7827d54b1183a00c1a,,1,1f4b1c7827d54b1183a00c1a
拿铁工体店,39.93796,116.452134,工人体育场北门22号看台对面国安文苑会议中心3楼,,,1,7388dffd4a4475f2d2ff23a0
Hidden House(新东路店),39.941273,116.457435,北京市朝阳区北三里屯南39号楼一层八号,dad000fcaa0d30b29b68b4e3,,1,dad000fcaa0d30b29b68b4e3
灯笼-Club,39.937651,116.450641,工人体育场西门向北100米许仙楼B1层,e116be544be9af62c81b95f8,13911977989,1,e116be544be9af62c81b95f8
鹿舍精酿啤酒,39.954026,116.457728,北京市朝阳区新源南路16号世方豪庭A座A116,,,1,3ea576d9adf3d869d3ff23dd
AMO CLUB,39.937881,116.463138,工人体育场北路4号北京机电院内,,,1,c926ac5ec2a01f6ecae33ccf
INCEPTION,39.94239,116.448215,新中街乙12号紫铭大厦,,,1,01c0091a4790ee9d07026f7b
HERBAL,39.942729,116.457853,北京市朝阳区新东路12号院首开铂郡南区4号楼1-021室,,,1,a2acb4a5727c2ea8e311033b
The Vending Machine丸町遤神,39.934389,116.449059,北京市朝阳区工人体育场西路甲7号,,,1,1d1fdd875839b1ff2cb90806
桥场居酒屋(三里屯店),39.937296,116.46304,北京市朝阳区工体北路4号机电院内(滚石西门对面),69fcd6dfb0bd0d36ca29157c,(010)65853570,1,69fcd6dfb0bd0d36ca29157c
喵了个咪猫BAR(三里屯SOHO店),39.938298,116.460624,北京市朝阳区工人体育场北路8号三里屯SOHOF1,99be9bf372b1d8a82e47336c,,1,99be9bf372b1d8a82e47336c
THE RABBIT BAR,39.937719,116.463296,北京市朝阳区机电院4号院81号楼2-3层,f22fac66504be906f02d835a,18642804322,1,f22fac66504be906f02d835a
Janes and Hooch酒吧,39.937912,116.463577,朝阳区工体北路4号机电院内,8003c9b9aef0e0004bcc4a3f,,1,8003c9b9aef0e0004bcc4a3f
D-ONE酒吧,39.934915,116.450862,北京市朝阳区工体西路6号,144c49a24015786771455b82,"(010)65008888,(010)65938888",1,144c49a24015786771455b82
赋格,39.944915,116.457461,北京市朝阳区三里屯新东路首开铂郡北区1-09,30badceaa425f9356ea3ccaa,(010)57237117,1,30badceaa425f9356ea3ccaa
BEER MANIA(欧月啤酒吧),39.933489,116.46217,三里屯南路16之4-5泰悦豪庭酒店1层,25a0582f15e945618f1a8985,,1,25a0582f15e945618f1a8985
浮古汇,39.937744,116.4542,工体北路工人体育场1号看台一层,,,1,8c72b20a349225de4e776ef7
MiMiClub,39.950068,116.456625,北京市朝阳区新东路1号外交人员免税店负1楼,b2262e6f742884a08505bfdf,(010)85326997,1,b2262e6f742884a08505bfdf
TheBlackMoth,39.941795,116.461784,三里屯北街81号那里花园4层C408,9f72ef84bc21c878c92915eb,,1,9f72ef84bc21c878c92915eb
Republic啤酒共和国,39.935271,116.450808,北京市朝阳区工体西路6号B1层,42c05745aef87b03ee74f8c8,"13701020617,13801234172",1,42c05745aef87b03ee74f8c8
v cocktail lab,39.942625,116.457512,新东路首开铂郡南区地下广场B1-030(天堂超市后门),,,1,bf947e7cd697ec7a90114ca3
吾肆wusi,39.933421,116.428111,北京市东城区东四四条54号,ee52bda54a6f1a0f1894c632,,1,ee52bda54a6f1a0f1894c632
全明星俱乐部,39.935527,116.450835,北京市朝阳区工体西路6号,9c1737e354c654b396ca07c4,,1,9c1737e354c654b396ca07c4
花笙酒迹CHLOE,39.940162,116.451474,北京市朝阳区工人体育场北路21号永利国际大厦一单元1803,,,1,f1e9b3d67e4f5f959322e0e7
工体COCO酒吧,39.934774,116.451923,北京市朝阳区工体西路8号1楼,2592aeb1705bba28f33cbad8,,1,2592aeb1705bba28f33cbad8
Ming bar,39.943533,116.467122,北京市朝阳区三里屯东三街4-6,,,1,44651625347d167bcd04efde
little creatures酒花精灵,39.941629,116.450532,北京市朝阳区工人体育场北路1号育膳房一层,eedeb5f3add2ed0251e5c51c,,1,eedeb5f3add2ed0251e5c51c
COCOBANANA酒吧(装修中),39.93481,116.451736,朝阳区工体东路15号工人体育场西门,fa835ce21321c2afe812e45c,,1,fa835ce21321c2afe812e45c
Glen吧,39.933504,116.462515,南三里屯路16号泰悦豪庭2层203,f57d11dac0ab509eb21e361e,,1,f57d11dac0ab509eb21e361e
CHARLES WHISKY BAR,39.968371,116.461842,凤凰商街S07A,2231a12f70ff40ad5d17c371,,1,2231a12f70ff40ad5d17c371
月色酒吧(三里屯店),39.941838,116.462417,北京朝阳区三里屯路8号近3.3大厦,480b24d0646e64e89cec2b56,,1,480b24d0646e64e89cec2b56
F · SPACE,39.934686,116.451961,北京市朝阳区工体西路8号楼6层,,,1,6c1c50ceba5742845abbbc0e
GOODBAIT悦饵,39.936932,116.462254,北京市朝阳区南三里屯路6号楼一层底商1-6,d00ad5d6b39fe1a3081cc785,,1,d00ad5d6b39fe1a3081cc785
京城雪茄俱乐部,39.947389,116.434785,北京市东城区东直门内大街9号,,,1,73bbaf06f563f4b92811d162
荣耀雪茄俱乐部,39.93887,116.450784,北京市朝阳区工体西路北工人体育场西2门九街内,,,1,f5fca29579bb3e2ecac3dbf3
Fez Bar(三里屯北街店),39.941966,116.461487,北京市朝阳区三里屯北街81号那里花园6层,c8b5cdefd30ed61a130daa2b,,1,c8b5cdefd30ed61a130daa2b
北京希尔顿酒店-大堂吧,39.958872,116.468902,北京市朝阳区东三环北路东方路1号北京希尔顿酒店,3098f1f0f29b97dc0e3dda9b,,1,3098f1f0f29b97dc0e3dda9b
Dandy Room,39.955077,116.461608,北京市朝阳区新源街63号院-1号,,,1,77a2b46d0139d64c72210bce
8层行政酒廊,39.947467,116.431732,东直门内大街19号(乾元酒店8层),46e7818348142814cb213d7e,,1,46e7818348142814cb213d7e
亮马外交办公大楼大堂吧,39.956557,116.469573,亮马桥东方东路19号外交办公大楼大堂,206952edd02c9f26c16c142d,,1,206952edd02c9f26c16c142d
IL BAR,39.953255,116.463878,新源南路8号院2号楼北京宝格丽酒店一层,,,1,c845065e8758e7322902e167
mojito man,39.986838,116.430329,北京市朝阳区惠新东街11号b座附近,,,1,518821632a28b4bda7c7566a
APOTHECARY,39.940696,116.461567,三里屯北路81号那里花园3层D302室,0a15c7ecce4fe3e5ed74f854,,1,0a15c7ecce4fe3e5ed74f854
阅微庄四合院文化特色酒店-大堂吧,39.9336,116.4287,北京市东城区东四四条37号,49a7bf0f4b87b98a9d9d68e4,(010)64007762,1,49a7bf0f4b87b98a9d9d68e4
2F贰楼,39.942022,116.460897,三里屯南42号楼二楼,,(010)64130587,1,b5f8bdba4876afc180a00cd8
32Bar,39.941551,116.462401,北京市朝阳区三里屯酒吧街北街32号(近那里花园),1b8e02c3c2b46e552cb96df0,(010)64168843,1,1b8e02c3c2b46e552cb96df0
Black Sun Bar,39.9428,116.481432,北京市朝阳区北京朝阳区朝阳公园南路1-8号,d5f93c0e7b78c421eddfca22,,1,d5f93c0e7b78c421eddfca22
巅吧,39.97833,116.441221,北京新云南皇冠假日酒店一层,88a9cb35be604127b5147fe0,,1,88a9cb35be604127b5147fe0
grace,39.941862,116.461191,北京市朝阳区三里屯后街同里3楼(近3.3大厦),7a3c54745360f50f223bf2be,,1,7a3c54745360f50f223bf2be
Bloom Bar,39.93349,116.450029,北京市朝阳区工体西路2号楼附近,,,1,a80e2e39a6fc89b1b34c4909
北京皇家大饭店-大堂酒吧,39.965883,116.448791,北三环东路甲6号北京皇家大饭店1层,625f32cbdf985cab54bfff3d,,1,625f32cbdf985cab54bfff3d
FANNOU HOUSE BAR,39.937194,116.46228,北京市朝阳区三里屯南路6号楼附近,b4499c8d1a1fcf80dad89153,,1,b4499c8d1a1fcf80dad89153
Jc,39.937755,116.453393,工人体育场23看台1层底商,50ba08b080e9ae968936ee13,,1,50ba08b080e9ae968936ee13
炫台酒廊,39.954167,116.46637,新源南路2号昆仑饭店1层,eb3675036362d70201ec01a1,(010)65903388,1,eb3675036362d70201ec01a1
玖久吧(三里屯SOHO店),39.938377,116.4594,北京市朝阳区工人体育场北路8号三里屯SOHOF1,cfcdea086c16ba3e1ef74da4,,1,cfcdea086c16ba3e1ef74da4
FULL HOUSE·BAR,39.937888,116.460618,北京市朝阳区工人体育场北路8号三里屯SOHOB1,,,1,b67d1fba9d4284e984330457
coceceon,39.937674,116.461186,北京市朝阳区工人体育场北路8号三里屯SOHOF1,a94a095315b90b758936eeb0,,1,a94a095315b90b758936eeb0
Kun,39.981219,116.487345,北京市朝阳区芳园西路6号院2号楼2层,,,1,c48a6f7332e633236c476037
亚洲大酒店中餐厅,39.938561,116.445847,工体北路新中西街8号,855594cee63adb19f723102f,,1,855594cee63adb19f723102f
Pi Bar,39.945116,116.459097,北京市朝阳区新东路4附近,,,1,82e754679288275f72455b85
Lush路徒酒吧,39.945461,116.461826,三里屯路三里屯北社区29号楼4单元1楼,9fc34086055173bb6849f35a,,1,9fc34086055173bb6849f35a
北京康莱德酒店大堂酒廊LOBBY,39.932829,116.467118,北京市朝阳区东三环北路29号康莱德酒店1楼,8533db131bdd082e6da3cc2b,(010)65846280,1,8533db131bdd082e6da3cc2b
amo clu,39.939007,116.463092,工人体育场北路4号北京机电院内,,,1,fc5dd614b97d4656b05c6ad7
亚洲第一派对空间,39.935476,116.450818,北京市朝阳区工人体育场西路6号,d71b79638f35586fa3acc48a,,1,d71b79638f35586fa3acc48a
北京港澳中心瑞士酒店-行政楼层酒廊,39.938833,116.442096,北京市东城区朝阳门北大街2号港澳中心瑞士酒店16层,,,1,1060ca5e8583874be01103c5
九五音乐酒馆,39.937605,116.463019,北京市朝阳区工人体育场北路4号,,,1,8055124c6058c1321df74dc3
mosaic,39.941424,116.458832,三里屯南32号1单元102室,7a216f9365f403b62b11d1ee,,1,7a216f9365f403b62b11d1ee
PRESS RELEASE,39.938651,116.461675,北京市通盈中心地下一层,0b3467932437b2efeaf8537d,,1,0b3467932437b2efeaf8537d
渡心阁,39.971236,116.453775,北京市朝阳区北三环东路西坝河东里14号实华饭店二楼渡心阁茶馆(三元西桥),3e746f6df70aeaf86e20b9a1,(010)64667266,1,3e746f6df70aeaf86e20b9a1
MIX酒吧,39.938511,116.453205,北京市朝阳区工人体育场北门内西侧,2d470f82147be2664c6d46d6,"(010)65527808,(010)65069888",1,2d470f82147be2664c6d46d6
三里屯酒吧一条街,39.941053,116.462539,北京市朝阳区东直门外大街三里屯路,f5e3bcae984bacc25e17c32f,,1,f5e3bcae984bacc25e17c32f
13拾叁先生酒吧,39.93522,116.450848,北京市朝阳区工体西路6号二层纯k旁,bd44539e687d7025c909f0a7,,1,bd44539e687d7025c909f0a7
工体Liv 酒吧,39.935119,116.450873,工人体育场西路6号二层,a3df7a1a5b4bde646e20b93b,,1,a3df7a1a5b4bde646e20b93b
ONE THIRD,39.935288,116.450821,北京市朝阳区工体西路6号,e07597014feee91cff0eb0f9,,1,e07597014feee91cff0eb0f9
实华饭店,39.971282,116.454083,北京市朝阳区北三环东路西坝河东里14号(三元西桥北侧),09185c56d26d7e44f119373d,(010)64665522,1,09185c56d26d7e44f119373d
The BRICKS爵士俱乐部,39.945054,116.45778,北京市朝阳区新东路8号首开铂郡北区北侧内广场地下一层007号,abcee93ee2b1c7a9c17da261,,1,abcee93ee2b1c7a9c17da261
D Lounge,39.937194,116.462889,工体北路4号机电研究院内滚石西门对面,37d60a46c7573e791f1d11a0,,1,37d60a46c7573e791f1d11a0
北京爱乐e酒吧,39.937493,116.450587,北京市朝阳区工体西路58号(工人体育场西门北侧),f522135f52d9d92ed8d8919b,"(010)65526223,18610946688",1,f522135f52d9d92ed8d8919b
Trinity Club,39.935144,116.450798,工人体育场西路6号糖果街区地下,,,1,8a1c9fe5b26b7b1836b06c3e
红调咖啡酒吧,39.94497,116.441339,东直门南大街4号楼2层近东方花园饭店,4bb049d9855a645e99005055,,1,4bb049d9855a645e99005055
星巴克(雍和大厦店),39.954621,116.427405,东城区安定门东大街28号雍和大厦C座1层,6ac0b30d265e7ea9a2d230dd,(010)64011035,1,6ac0b30d265e7ea9a2d230dd
Tango by Ala House,39.948594,116.453891,北京市朝阳区亮马河南路18号,,,1,7a48fbcd1a09b22230169b22
the local,39.937119,116.46369,北京市朝阳区工体北路4号,070a39efc26c56778a36ee0e,,1,070a39efc26c56778a36ee0e
Bubble BAR酒吧,39.944817,116.458092,北京朝阳区新东路8号院首开铂郡北区5号楼1-028号,c5784d560eea1e7a3c9a5ef3,(010)84185331,1,c5784d560eea1e7a3c9a5ef3
la social,39.94181,116.461657,北京市朝阳区三里屯酒吧街81号那里花园3楼Mosto餐厅背后,,(010)52086030,1,84ad371b4b454b90a8175a52
星巴克(工体北路店),39.941255,116.456338,朝阳区工人体育场北路13号北京世茂百货F1层,4557f42833ea4f43b020a8bb,(010)84059071,1,e6ee2fd2faab90512a11d1f8
三里屯酒吧街,39.940337,116.462258,朝阳区三里屯路(近三里屯Village),eef2d5289ec023be3ae4a683,,1,eef2d5289ec023be3ae4a683
星巴克(瑞士公寓店),39.939119,116.443952,东城区工人体育场北路66号瑞士公寓1-2层,5ce2637d99612148ae31e54d,(010)65513506,1,5ce2637d99612148ae31e54d
星巴克(三里屯店),39.940226,116.461389,朝阳区三里屯路19号10号楼10-1-5-10-1-6号,edd64ce137b168883ee231a1,(010)64165281,1,edd64ce137b168883ee231a1
DK LOUNGE,39.936491,116.455141,北京市朝阳区工人体育场东路工人体育场东门Ahotel旁,,,1,65dcaaed56991824fd0eb092
星巴克(新源南路店),39.95504,116.466391,朝阳区新源南路1号都汇天地购物中心B1层B18单元,80dbe7538a9d55d0128824a6,(010)84442336,1,80dbe7538a9d55d0128824a6
星巴克(霞光里店),39.962377,116.46487,朝阳区东三环北路霞光里18号佳程广场A座三层,f9fd606278987a060f0e6b56,(010)84400958,1,f9fd606278987a060f0e6b56
星巴克(东直门南大街店),39.946041,116.438906,东城区东直门外大街48号北京银座商场第L3层23号商铺,9a8761a1e326c1070bf5eb83,(010)84477308,1,9a8761a1e326c1070bf5eb83
长城饭店-大堂吧,39.950372,116.470177,北京市朝阳区东三环北路10号北京长城饭店1层,1ec5558c771042bbbe484240,,1,1ec5558c771042bbbe484240
星巴克(东方东路二店),39.956358,116.470502,朝阳区东方东路19号外交办公大楼1层F110号2层F213单元,0be730317e21e596095cb39b,(010)85315027,1,0be730317e21e596095cb39b
星巴克(北京丽都店),39.982925,116.485512,朝阳区将台路丽都广场1层,f60a15ed3ea589f5bb17e74d,(010)64376825,1,f60a15ed3ea589f5bb17e74d
星巴克(北京嘉盛SOHO中心店),39.935088,116.467028,朝阳区东三环北路甲19号嘉盛中心首层,339701aa60d90271d518b731,(010)65067281,1,339701aa60d90271d518b731
星巴克(七圣中街店),39.977443,116.442437,朝阳区七圣中街12号院爱琴海购物中心F1层,,(010)84240709,1,64695da197f16ecd4f6d46ed
MANDRILL,39.982191,116.491032,北京市朝阳区将台路商业街5号(木北造型楼下),c3813f42cfd2436c59bbbc92,(010)84356623,1,8f5dd187e3d5fa55d12dd6c5
星巴克(霄云路店),39.965657,116.474011,朝阳区霄云路甲26号北京海航大厦万豪酒店一层,55fa2c0b423c9a341ce999c3,(010)59782293,1,55fa2c0b423c9a341ce999c3
Infusion room,39.937141,116.462459,工体北路4号北京机电研究院4号楼,0a452cb90a70a4075a3ac83e,,1,0a452cb90a70a4075a3ac83e
星巴克(北京三里屯北区店),39.944165,116.461263,朝阳区三里屯路11号地下一层NLG-32a单元,6716ced89a65f8aa7dc876d2,(010)64165163,1,6716ced89a65f8aa7dc876d2
星巴克(工体北路第二店),39.938573,116.45991,朝阳区工人体育场北路8号三里屯SOHO1号商场1层1-118室,903aa7b17a4e69ae9868b418,(010)85900279,1,903aa7b17a4e69ae9868b418
星巴克(霄云路二店),39.961621,116.469255,朝阳区霄云路38号现代汽车大厦一层,81f62c97d17a25c41ce999e0,(010)64611302,1,fc1d017a70e5defd7dc876de
星巴克(京顺路店),39.973327,116.468303,朝阳区京顺路111号比如世界1层05号,1bf85b25b4063dbda0a934b8,(010)64304036,1,1bf85b25b4063dbda0a934b8
北京活力拉拉酒吧,39.938156,116.460065,北京市朝阳区工人体育场北路8号三里屯SOHO商场3-B1层311,,,1,b4848ec981277ff73a04b1b3
星巴克(曙光西里店),39.968928,116.460011,朝阳区曙光西里甲5号10号楼17-1层,bd5dd57f58916aa400ff2dfd,(010)58667129,1,bd5dd57f58916aa400ff2dfd
PH·玩家,39.93911,116.451078,北京市朝阳区工人体育场北路西北角,,,1,414ef198fb4c537c3ce23153
Knight魔术酒吧,39.940049,116.451443,北京市朝阳区工人体育场北路21号永利国际1单元621,41521bc491e8a5e8badf8faa,,1,41521bc491e8a5e8badf8faa
钼molybdenum酒吧,39.983653,116.489019,"北京市朝阳区将台路高家园一区5号楼1层底商(不在小区内,将台路上)",b03c6194abd763360b69d985,,1,b03c6194abd763360b69d985
传统的爱尔兰酒吧,39.984882,116.486743,高家园小区底商311号,dffd4642521831ab3d9a5ea5,,1,dffd4642521831ab3d9a5ea5
星巴克(北四环东2店),39.984872,116.467636,朝阳区北四环东路9号四元桥家乐福1层1-36a单元,afbe148e8ac10ca557bfff9e,(010)64772010,1,afbe148e8ac10ca557bfff9e
星巴克(亮马河大厦店),39.951107,116.471184,朝阳区东三环北路8号亮马大厦一层,606289fdbec6c654a2046456,(010)65900522,1,606289fdbec6c654a2046456
隐舍THESECRET,39.939932,116.450933,工体北路21号永利国际1单元20层2022,09c65b4de940f9901811d579,,1,09c65b4de940f9901811d579
Zhan house,39.944608,116.458039,新东路8号院3号楼1-007(悠咖啡后门旁),9b32567fc02444834e776e8d,,1,9b32567fc02444834e776e8d
the magic room魔术酒吧,39.940094,116.451233,北京市朝阳区工人体育场北路21号永利国际1单元709,,,1,02d8ca323866059f2bd7ab31
星巴克(北京兴业银行店),39.931877,116.442533,朝阳区朝阳门北大街20号兴业银行大厦一层,,(010)85306308,1,2615ca8c38b87d32734b87ef
星巴克(北京海润店),39.982351,116.489721,朝阳区机场辅路将台路甲2号海润国际公寓底商1层,6fddd7fd42b518663517dc56,(010)51358316,1,6fddd7fd42b518663517dc56
北京乐live lounge酒吧,39.937722,116.462881,三里屯南街工体北路4号院81号楼,1ec2a90bbe73cdbe3a04b15a,,1,1ec2a90bbe73cdbe3a04b15a
星巴克(蓝色港湾第二店),39.955404,116.481872,朝阳区朝阳公园6号蓝色港湾国际商区11号楼2层,,(010)59056120,1,ae4d1352ab903f4d9703199e
星巴克(国华投资广场店),39.945133,116.438886,东城区东直门南大街3号国华投资1层01单元,d8ea574bab5bd49c6e20b9dc,(010)69945963,1,d8ea574bab5bd49c6e20b9dc
星巴克(太阳宫中路第二店),39.976891,116.454511,朝阳区太阳宫中路12号冠城大厦一层,,(010)84298878,1,0d8025c2d581ee42f7b91656
星巴克(国航大厦店),39.962322,116.470133,朝阳区霄云路36号国航大厦A座1层1号,89fd4ea31d946b5ee5e96556,(010)84475636,1,89fd4ea31d946b5ee5e96556
星巴克(东三环北店),39.933777,116.467072,朝阳区东三环北路27号嘉铭中心大厦A座B1层024号,3d7bc87759af520379dbd293,(010)65003102,1,3d7bc87759af520379dbd293
瑞幸咖啡(柳芳金泰大厦店),39.966076,116.440008,北京市朝阳区西坝河南路1号4号楼金泰大厦5层,,18612291551,1,a0b8ca86139e92aaebe58289
luckincoffee(中央公园广场店),39.938075,116.483797,朝阳区六里屯甜水园街中央公园广场A7座B1层152号,,4000100100,1,40866ce4b7851f85db131830
星巴克(盈科中心第二店),39.938245,116.464972,朝阳区工人体育场北路甲2号裙房01层103A单元及02层202A-203A单元,,(010)65392536,1,5503c038ca4263d34d554760
大丈夫居酒屋,39.932723,116.459251,工人体育场北路55号楼一层29-31号二层29-30号,9056b8f30093b3b807026f68,(010)65865099,1,9056b8f30093b3b807026f68
达芬奇Davinci酒吧,39.940227,116.45176,北京市朝阳区工人体育场北路永利国际2单元1612号(工体北门对面),f421963304a6aa3cd81318d9,,1,f421963304a6aa3cd81318d9
沁酒吧,39.955874,116.478182,北京市朝阳区好运街C2(成都一家人火锅左手边地下2层),40f04bc7eda8efaeb52655cb,,1,40f04bc7eda8efaeb52655cb
BAR ROOST,39.954994,116.45579,北京市朝阳区新东路新源里19号格纳斯主题酒店1层,,,1,b463d878462d1cafd618b7ad
狗窝 magic bar,39.939799,116.451483,北京市朝阳区工人体育场北路21号永利国际1单元1805室,3ae24ce3df86563e95ca0704,,1,3ae24ce3df86563e95ca0704
luckincoffee瑞幸咖啡(歌华大厦店),39.954706,116.430617,东城区青龙胡同1号歌华大厦B座,,18601357313,1,e5740fcc38a4c106c51e51a6
南街酒吧,39.937927,116.463484,北京市朝阳区工体北路三里屯南街北京机电院4号院内,,,1,5b25f446367268f310293552
MASON酒吧,39.945249,116.458073,新东路8号地下一层,7c9405a3d56b2040f62310a7,,1,7c9405a3d56b2040f62310a7
luckincoffee(通盈中心店),39.938396,116.461798,朝阳区南三里屯1号楼通盈中心2层,,"4000100100,18601357302",1,ea46c7f79198c4f2b23c81c6
同志酒吧,39.934302,116.450039,北京市朝阳区三里屯工体西路目的地酒吧,,,1,fc0e97e3f7d7c57c2806cec3
兰桂坊(三里屯店),39.940158,116.462241,北京市朝阳区三里屯北街66号,2e00c5dde96e7d05d7851f56,,1,2e00c5dde96e7d05d7851f56
诺金酒店大堂吧,39.982183,116.48733,北京市朝阳区将台路甲2号诺金酒店一层大堂吧,bf7ac2324f7a66a29e95dee2,,1,bf7ac2324f7a66a29e95dee2
CAFE FLATWHITE(塔园外交公寓店),39.950951,116.456505,北京朝阳区新东路1号塔园外交公寓6号楼(近加拿大大使馆),fd13a3f2ec339ce3b1077dde,(010)85321992,1,fd13a3f2ec339ce3b1077dde
HARRYS BAR,39.942362,116.450119,春秀路1号,,,1,26db2d2eb881d38f4c3a59e3
The Corner,39.941608,116.461006,三里屯北街南路43号(近三里屯酒吧街),,"(010)64177793,13621271201",1,8f7f8444950931cac91b953a
CHIZHANG LATTE NIGHT CLUB,39.937949,116.45214,北京市朝阳区工人体育场北路50号楼3层,,,1,a2706fa5b35f7b30e215f958
元大都酒吧街,39.982723,116.432866,元大都城垣遗址公园内,50f17edac220b5ade5e965f3,,1,50f17edac220b5ade5e965f3
巴伐利亚露台啤酒花园,39.937639,116.457314,DK1308皇冠自酿啤酒坊4层露台,aaa6b1ce1e323bb71b11d576,,1,aaa6b1ce1e323bb71b11d576
法诺威士忌酒吧(三里屯店),39.937323,116.461802,北京市朝阳区西店镇三里屯南路6号,4504fbbbc456ae989868b4fa,,1,4504fbbbc456ae989868b4fa
霄云街酒吧,39.967099,116.473008,北京市朝阳区霄云路15号,35a1061ee7fa060240d63ecb,,1,35a1061ee7fa060240d63ecb
北京新云南皇冠假日酒店钢琴酒廊,39.978331,116.441206,北京市朝阳区东北三环七圣中街12号新云南皇冠假日酒店一层(太阳宫桥东北角),129ee00504d409c44d776e74,(010)64298888,1,129ee00504d409c44d776e74
皇家大饭店酒吧,39.966168,116.449076,北三环东路甲6号北京皇家大饭店,fa0c378891c123b33586f4a8,,1,fa0c378891c123b33586f4a8
Ink,39.937778,116.463135,三里屯路33大厦5层电梯口处,,,1,f5a670ced96db9274d2fdf65
半山酒吧,39.973151,116.487913,将台东四环北路6号院滨河花园16号楼底商,,,1,0b1f70665c6bd8b646e27483
卓别林酒吧,39.942045,116.447697,北京市东城区新中街18号,d9a0440dba44156a3a13fdcd,17746560732,1,d9a0440dba44156a3a13fdcd
星巴克(太阳宫凯德嘉茂店),39.976895,116.454686,朝阳区太阳宫中路12号太阳宫凯德嘉茂一层01-44-45号,,(010)84150785,1,7652e443936d6cbad0ff23aa
橡木酒吧,39.980779,116.487542,北京市朝阳区芳园西路6号院2号楼负一层,,,1,b4d74463dabd920eb1077daf
鎏金酒吧,39.940298,116.45083,北京市朝阳区工人体育场北路21号永利国际一单元1917室,,,1,f9911db782fb2b20ca1b9539
半山酒吧SKYFALL,39.972864,116.487812,东四环北路6号1区15号楼1层1-15底商,,,1,61a0562755d35d13c356ac11
YeezeeBar|壹间酒吧,39.948868,116.450571,北京市东城区东直门外大街南二里庄19号百富怡大酒店三层东侧,,,1,f596e2b6543c4838fb2213d5
奕美淳酒屋,39.940462,116.451268,"北京市朝阳区春秀路永利国际2单元1111(工体北门斜对面,MANCOFFED对面)",,,1,197f5e1090661cc49222e08f
京奇缘酒吧,39.936358,116.46255,北京市朝阳区工体北路4号院68号楼B1层,,,1,af7f5af10c82995616a19052
TUN BAR,39.9364,116.463208,工体北路4号三里屯南街,87e2f174db9f6e38c3364495,,1,87e2f174db9f6e38c3364495
PeKinG  Bar,39.942547,116.458012,新东路首开铂郡南区4号楼5单元1-027号,,,1,5ed2c94761de91e022022093
亿多瑞站,39.981844,116.486492,朝阳区芳园西路6号(丽都广场对面),35debf29f2a1295da6da3915,"(010)64378331,(010)64378334",1,35debf29f2a1295da6da3915
奥8AR酒吧,39.981247,116.489204,北京市朝阳区芳园西路2号(将台路口西南200米),c00c0482b1e71c18f92213b1,,1,c00c0482b1e71c18f92213b1
威佳酒吧,39.938163,116.457452,三里屯中国红街3号楼14层,82b6cd42770aca54f4e73bed,,1,82b6cd42770aca54f4e73bed
渔阳饭店-大堂酒吧,39.951701,116.454367,北京市朝阳区新源西里中街18号渔阳饭店1层,cc788fde8759af9388fc0666,,1,cc788fde8759af9388fc0666
悦Lounge Bar,39.943561,116.483868,朝阳公园西门8号公馆院内,,,1,f4fea53d792be4ddc909f056
印普酒吧,39.942458,116.448109,北京市东城区新中街乙12号,,,1,5aa59c31256a037bd1f49e86
Share Club,39.938635,116.462776,工体北路甲6号中宇大厦7楼,5b25f446211e17f3112935f6,,1,5b25f446211e17f3112935f6
雍景台酒店-酒吧,39.950103,116.452957,东直门外小街2号雍景台酒店B1层,a497192c1b5fa9582911d145,,1,a497192c1b5fa9582911d145
演艺酒吧,39.941974,116.460897,三里屯北街43号同里大厦,,,1,274435c3d25350b2593ac816
BOKOQ coffee,39.937276,116.44265,东城区朝阳门北大街8号富华大厦F座1层,242b204b8fb74cb10f0e6b01,"13801250395,(010)65542235",1,242b204b8fb74cb10f0e6b01
Wemore·未末酒吧,39.940571,116.450874,北京市朝阳区工体北路21号永利国际一单元1126,,,1,56dac915ad532a386268587d
乡谣酒吧(朝阳公园路店),39.956478,116.478288,北京市朝阳区朝阳公园路1-22号,a0ad85182ef8f330095cb398,,1,a0ad85182ef8f330095cb398
北京燕莎中心凯宾斯基饭店-行政酒廊,39.95496,116.470977,北京市朝阳区亮马桥路50号凯宾斯基饭店1楼,16fba90dbf59050e8b2fb55d,,1,16fba90dbf59050e8b2fb55d
路德酒吧,39.940461,116.45126,北京市朝阳区工体北路21号永利国际购物中心B1层,,,1,d771d7d6026790c13517dcd3
诺富特三元酒店-10号线酒吧,39.966808,116.462059,北京市朝阳区曙光西里甲5号18座诺富特三元酒店,da32e12889f90897260bd0ce,(010)58296666,1,da32e12889f90897260bd0ce
青蓝大厦-大堂吧,39.93917,116.435808,北京市东城区东四十条24号青蓝大厦1层,6012bf7faf98659af5c59c41,,1,6012bf7faf98659af5c59c41
行政酒廊(东直门南大街店),39.943978,116.441609,东直门南大街6号中纺大厦2层东方花园饭店,,,1,cf71e64482bfdc4746e274de
HEITACAFEBAR咖啡酒吧,39.942923,116.455376,幸福二村四巷与幸福村中路交叉口北100米,15b2ca80cf058b45ca1b95ba,,1,15b2ca80cf058b45ca1b95ba
观财酒吧,39.940089,116.451659,工人体育场北路永利国际一单元330,,,1,71aff18b76fe7893a4c7564c
乘Tea House,39.952683,116.471556,朝阳区麦子店街37号盛福大厦一层100号,,13911536719,1,0972b8a050b145ea2902e161
顽啤猴精酿,39.937384,116.51644,北京市朝阳区青年路29号院华纺易城5号楼1号商铺,51a606db7b692c640ab93a61,,1,51a606db7b692c640ab93a61
陈音乐玩家空间,39.986824,116.505473,北京市朝阳区酒仙桥路4号万红路798艺术区南一门A26,1d303e11b692b8659d82ea21,,1,1d303e11b692b8659d82ea21
液店(朝青店),39.93804,116.522504,朝阳区青年路27号院2号楼2-1(华纺易城东区对面),,,1,d419e48edd20b4a2a2a934f3
江之岛,39.935239,116.508007,八里庄北里129号院9号楼1至2层107,,,1,a68b6075aede75e06240a9f4
樽吧,39.935004,116.5225,北京市朝阳区青年路29号院22号楼11号,,,1,8e361da6281e12ffd3ff2398
WINETAIL酒吧,39.944381,116.501358,北京市朝阳区东四环北路88号院,c7f144e3f299564f0869d90c,13501103581,1,c7f144e3f299564f0869d90c
XIAN Bar,39.974807,116.498737,北京市朝阳区酒仙桥路22号东隅酒店1楼,3821c168449db33ecf06a406,(010)84149810,1,3821c168449db33ecf06a406
Bora Bora,39.937386,116.521276,青年路29号院3号楼102号,b8ad9866f261d21b9e9d688f,"13651124436,13011066010",1,b8ad9866f261d21b9e9d688f
星巴克(北京颐堤港中心店),39.976471,116.498595,朝阳区酒仙桥路18号颐堤港商场L1-72号,8291ba6465d8f73bc1f1cf85,(010)84260986,1,8291ba6465d8f73bc1f1cf85
星巴克(金隅嘉品店),39.957472,116.554281,朝阳区东坝中路38号金隅嘉品1层,8691a70dcf79245a364aae09,(010)65430512,1,8691a70dcf79245a364aae09
Free men酒吧,39.939149,116.523469,北京市朝阳区青年路156号,,,1,1f532fc0262ff7262ab97c32
瑞幸咖啡(达美中心店),39.943538,116.522617,朝阳区青年路7号院达美中心1号楼1层103A室,306ccbc3799bca773fe231e8,4006692002,1,306ccbc3799bca773fe231e8
星璀文化,39.987362,116.50411,北京市朝阳区酒仙桥路2号北京798艺术区F区内,2f8b66286856b6e25d0d02d5,,1,2f8b66286856b6e25d0d02d5
九鹿酒吧,39.935053,116.520514,北京市朝阳区朝阳北路101号,,,1,84b960a5bf731bbc9868b45f
将台艺宫酒店-大堂吧,39.976966,116.496123,酒仙桥路甲12号,b85a87b5009f35f3cac3db50,,1,b85a87b5009f35f3cac3db50
星河湾酒店-大堂酒吧,39.932523,116.532788,北京市朝阳区四季星河路6号北京星河湾·四季会酒店1层,ff046bc4b9620259c42ba1f0,(010)85529988,1,ff046bc4b9620259c42ba1f0
行宫啤酒花园(暂停营业),39.938128,116.514593,石佛营东路中康国际酒店东100米,,,1,64286f331eed62eed8d89199
桑德兰咖啡酒吧,39.969279,116.509596,朝阳区驼房营南路8号新华科技大厦a座111室,9cabceebec5dd7b1c72ba1fb,,1,9cabceebec5dd7b1c72ba1fb
蜂巢自提柜,39.93421,116.61283,常营镇富力阳光美园5号楼北门,,,1,6244807d58e3925f8bb9888c
luckincoffee(北辰福第V中心店),39.93317,116.607059,朝阳区常惠路6号楼1层104号北辰福第V中心D座,,4000100100,1,99a503774487146c75e5b6d0
酒仰酒吧,39.932121,116.610889,北京市朝阳区常营中路2号院甲2号楼51号常楹天街购物中心东门十字路口东北角,,,1,303b013af17ff6eaf503b8af
澳华阳光葡萄酒主题餐厅,40.039487,116.41827,北京市朝阳区红军营南路天乐园C区1座1-8号(近安立路),764672e502da64b495ec84ef,"(010)84935519,(010)84936759",1,764672e502da64b495ec84ef
国家会议中心大酒店-大堂吧,40.007899,116.394458,北京市朝阳区北辰西路8号院1号楼国家会议中心大酒店,624fe8e7ca68300e15a19086,(010)84372008,1,624fe8e7ca68300e15a19086
丰巢自提柜,40.008596,116.420079,北京市朝阳区大屯路亚运村大屯安慧北里逸园甲16号龙都国际公寓,,,1,61556d04bcd5298eb34c4966
百乐门88号,40.011814,116.409408,北京市朝阳区慧忠北里214号,253bad8f3c1b5eda82a12e48,,1,253bad8f3c1b5eda82a12e48
亚奥国际酒店-大堂吧,40.007188,116.378295,北京市朝阳区大屯路甲1号亚奥国际酒店1楼,6c1d9e8ab83e13a09222e0b6,(010)64874433,1,6c1d9e8ab83e13a09222e0b6
星巴克(奥村店),40.015357,116.387987,朝阳区林萃东路2号2号院甲3号楼一层F106区域,b0415bb4821fa703c5effbbd,(010)84377378,1,b0415bb4821fa703c5effbbd
星巴克(北辰西路店),40.005453,116.394409,朝阳区北辰西路8号3号楼B座北辰世纪中心首层109单元,d7fd2ad361f9864d0accdd82,(010)84370795,1,d7fd2ad361f9864d0accdd82
星巴克(飘亮阳光广场店),40.004254,116.415907,朝阳区安立路68号飘亮广场1层,3434860cb90f38f3a20464aa,(010)59856181,1,3434860cb90f38f3a20464aa
星巴克(北辰东路第三店),39.997947,116.413122,朝阳区北辰东路8号,7a30d8533e79e2f1a9f7298f,(010)84971720,1,7a30d8533e79e2f1a9f7298f
星巴克(北京天畅园店),40.039459,116.422411,朝阳区北苑路34号天畅园7号楼1层108号,a43f5cf928efc2a9270bd0e2,(010)84828823,1,a43f5cf928efc2a9270bd0e2
星巴克(北辰东路第二店),39.997044,116.412832,朝阳区北辰东路8号16号楼一层101单元,,(010)84978072,1,28b0b115d2d614748a2fb579
北五环咖啡,39.99994,116.397534,天辰东路11号国家游泳中心北二层,c3ea22b28de617cf1ef74d3f,(010)84153091,1,c3ea22b28de617cf1ef74d3f
星巴克(湖景东路店),40.006411,116.400525,朝阳区湖景东路9-11号新奥购物中心地下一层B1-101号,,(010)84376352,1,c973e038c78687da1c389448
北京盘古七星酒店-酒吧,39.999903,116.392897,北四环中路27号,48681593923909e6354aaef6,,1,48681593923909e6354aaef6
朋琳阁酒吧,40.00161,116.412193,北京市朝阳区奥运村慧忠路名人公寓2号楼,b703e96bd77642e38e1a89a6,,1,b703e96bd77642e38e1a89a6
luckincoffee(北科大鸿博园店),39.994688,116.364063,海淀区学院路30号北京科技大学校鸿博园内,,,1,c9ca0fb109118719167643aa
名人国际大酒店-大堂吧,40.002172,116.413426,安立路99号名人国际大酒店,5d455c74880c8cbb631c67b3,,1,5d455c74880c8cbb631c67b3
luckincoffee(北科大逸夫楼店),39.997555,116.363434,海淀区学院路30号北京科技大学逸夫楼内,,4000100100,1,d62914f18f3562c195ca07a7
国玉大酒店-酒吧,40.001523,116.408769,亚运村慧忠里19号国玉大酒店1层,070f92b1fe254a494afc8dba,,1,070f92b1fe254a494afc8dba
国奥村花园酒店-酒吧,40.015309,116.387017,林翠东路1号院甲1号楼,2c6a735f072806ae364aaeec,,1,2c6a735f072806ae364aaeec
北京紫玉渡假酒店-行政酒廊,40.020536,116.415982,紫玉东路1号,ffb68c1b6cc61271e5e9659b,,1,ffb68c1b6cc61271e5e9659b
北京紫玉渡假酒店-酒吧,40.020536,116.415982,紫玉东路1号,f0a00ce2b5e0fa020b1cc799,,1,f0a00ce2b5e0fa020b1cc799
thatsit精酿啤酒屋,39.996726,116.42786,北京市朝阳区奥运村街道小营中路115号三空间小区5号楼底商,,,1,e5c8ea3af2e17dca4e5547b6
清潭洞马扎酒屋(望京店),40.003554,116.484809,朝阳区阜安西路合生麒麟社8号楼底商,ae26470f2955a0e33de2313d,18888803685,1,ae26470f2955a0e33de2313d
创啤社,40.002322,116.484168,朝阳区望京街4号2808室,54f4a2a945efd26dd3ff23a3,,1,54f4a2a945efd26dd3ff23a3
白桦林酒吧,40.002485,116.470755,北京朝阳区湖光中街甲6号港旅大厦4楼(近南湖南路北口),165ab483f353f37915a190a4,,1,165ab483f353f37915a190a4
隐HIDE BAR,40.007848,116.475589,北京市朝阳区望京星源国际B座4楼3A06,,18601928525,1,0f194890130f3452593ac86a
丰巢自提柜,40.010398,116.476155,望京明苑209号楼下,,,1,a4d130674c4d2872b2077d6d
TStar coffee,40.011166,116.477403,望京西园河荫中路3号一层,80526ac6540a1c3a3913fd28,(010)64717871,1,80526ac6540a1c3a3913fd28
任意电表箱里,40.039105,116.446507,来广营朝来绿色家园广华居12号楼2单元一层,,,1,d7d771d5b6ecd5d907026fd7
丰巢自提柜,39.999037,116.443398,育慧东路2号世纪宝鼎A座,,,1,7bd9951301eb7667f32d8398
隐HIDE BAR,39.993842,116.4275,北四环东路108号乙5号楼603室,9f345e8f92728e621fe999a0,,1,9f345e8f92728e621fe999a0
星巴克(惠新东街店),39.993372,116.430879,朝阳区惠新东街4号3号楼1层101单元,7fce2cff8cf6069516c9056e,(010)84298776,1,7fce2cff8cf6069516c9056e
九霄俱乐部,40.002611,116.484379,合生麒麟新天地地下一层,,,1,69509323b255e3c12811d1be
星巴克(望京鹏景阁店),40.003414,116.473765,朝阳区望京湖光中街1号鹏景阁首层,fd007c5e7b4b1075a9f729b8,(010)84724218,1,fd007c5e7b4b1075a9f729b8
GDM咖啡酒吧(对外经贸店),39.991601,116.437988,育慧南路芍药居北里317-6号,dffd631c691c1aa539221cad,,1,b017a4aabb53b36f2fb17e8a
星巴克(望京凯德店),39.99868,116.475552,朝阳区广顺北大街33号凯德MALL望京L1层01-28号,afa4c5e2151049cd25e0a076,(010)64716432,1,afa4c5e2151049cd25e0a076
星巴克(阜通东大街店),39.995523,116.48752,阜通东大街6号院3号楼1层1-101号,6424ab445ac2307c7069d398,(010)84785712,1,6424ab445ac2307c7069d398
星巴克(望京诚盈中心店),40.026667,116.472621,朝阳区来广营西路诚盈中心3号楼1层,04137a57f32b15c771210bdf,(010)85926771,1,04137a57f32b15c771210bdf
星巴克(阜通东大街二店),40.002821,116.486685,朝阳区阜通东大街1号院望京SOHO6号楼1层,dbad7f628a1a9d8480a00c8e,(010)64759183,1,dbad7f628a1a9d8480a00c8e
星巴克(北四环东路店),39.996418,116.439195,朝阳区北四环东路73号远洋未来广场1层31单元,,(010)84445652,1,8884c6111088e72be6e9652b
星巴克(亚运村华堂店),39.994315,116.4276,朝阳区北四环东路108号千鹤家园5号楼1层F1-1001单元,,(010)84860275,1,d3954bf22c9a4c91283a9f54
星巴克(望京西路店),39.999993,116.463339,朝阳区望京西路41号梦秀商场地上一层,8bbd28bf47b9dcfe89b9887d,(010)84164307,1,8bbd28bf47b9dcfe89b9887d
梅斯棒球酒吧(团建年会聚会店),40.007736,116.473461,南湖东园122号博泰国际商业广场2层S3号商铺,74145d55e37cbae7fb2d613f,,1,74145d55e37cbae7fb2d613f
ish酒吧,40.003729,116.483418,朝阳区阜通西大街10-12号,88d744156c79a5f6ab059d4c,,1,88d744156c79a5f6ab059d4c
意盏茶楼,40.000784,116.475444,广顺北大街辅路望京四区424号楼2楼,,(010)64737088,1,10ec1ba3e1472479ad045717
luckincoffee(望京SOHO店),40.002866,116.486546,北京市朝阳区阜通东大街1号院6号楼望京sohoT2B座1层2126室,,4000100100,1,05dceabfa95ad6684007c147
DE PLUS COFFEE(望京SOHO店),40.002122,116.488701,北京市朝阳区望京SOHO塔一2层1209,,(010)64796551,1,c21a3477bd232094ebe582a5
星巴克(麒麟社店),40.00253,116.484298,朝阳区望京街4号,,(010)57389233,1,d2af269bfbb2b84b28201a5a
Single Malt Club,40.008516,116.485823,北京市朝阳区望京东园2区慧谷阳光201号楼1楼(近阜安西路),fa01e9371ac80053764ff1be,(010)64709191,1,fa01e9371ac80053764ff1be
星巴克(阜安路店),40.004444,116.488881,北京市朝阳区望京东园一区120号新荟城F1,21504111e69c3b312fb96d68,(010)52896102,1,21504111e69c3b312fb96d68
星巴克(望京华彩店),40.016736,116.475098,朝阳区广顺北大街16号3号楼望京华彩商业中心一层A150单元,d5ff20b9ff655a70373a7198,(010)59780037,1,d5ff20b9ff655a70373a7198
单一纯麦威士忌俱乐部酒吧,40.008429,116.485725,望京东园2区慧谷阳光201号楼1楼(近阜安西路),b703e96b3c8339e38f1a8915,,1,b703e96b3c8339e38f1a8915
吉春五月茶楼,40.007712,116.469135,南湖北路南湖中园130号2楼,a5ef680f224dddceb8df8fae,(010)64749315,1,a5ef680f224dddceb8df8fae
luckincoffee(宝能中心店),39.993947,116.485393,朝阳区阜通东大街12号楼1层101室,,4000100100,1,e29d63920c4d4bbc1e1d119e
Coffee Box(望京店),39.997768,116.479264,朝阳区东亚望京401号楼C座104室,b1dac4466cf702c328d7ab14,,1,b1dac4466cf702c328d7ab14
luckincoffee(东亚望京中心店),39.997821,116.479247,朝阳区广顺南大街望京园401号楼1层111室,,"4000100100,18618203032",1,f37bc07a2168296a0482c25f
比尔包装马车,40.005647,116.485066,北京市朝阳区望京西园312号负一层,,,1,8eedbcf54485982d6d20b9da
沸雪酒吧,39.996112,116.487616,北京市朝阳区阜通东大街6号院2-102号附近,,,1,825db0586002f57cf5c59ca3
兰溪宾馆-酒吧,39.993245,116.436372,北京市朝阳区育慧南路1号,daaf330eac41b45db34c49be,,1,daaf330eac41b45db34c49be
OOPS西餐酒吧,40.004333,116.496571,远安路望京东园七区保利中央公园8号楼8-5号,49ce3a4fc091c72416a1904e,(010)84766255,1,49ce3a4fc091c72416a1904e
卡梅尔小镇酒吧(798店),39.992571,116.498275,北京市朝阳区音响南路798国际艺术交流中心南侧隔壁,e6ce2cc2aec47a5b43ab9a2d,,1,e6ce2cc2aec47a5b43ab9a2d
星巴克(酒仙桥路第二店),39.992135,116.498199,北京市朝阳区酒仙桥2号院内11所39号楼,bc6438ba7c64f5e428d7abbf,(010)84303686,1,7b4a56c3e2be1041882fb5a2
公羊啤酒吧 Ram Brewpub,39.98907,116.499705,798艺术区七星西街1号,877c89a5cd12adf2ab0dd898,,1,877c89a5cd12adf2ab0dd898
元色酒吧,40.001372,116.512461,北京市朝阳区S50(东五环路)崔各庄乡草场地村280号,f321161742e33c3a581093ae,,1,f321161742e33c3a581093ae
星巴克(望京东园店),40.00596,116.493462,朝阳区宏泰东街绿地中心c座1层,abae43ec474787adca09f0cc,(010)64701955,1,abae43ec474787adca09f0cc
星巴克(赛特奥特莱斯店),40.042302,116.512066,朝阳区香江北路28号北京赛特奥莱F2层2-023号,0ce65c2dfb5d8d402c4733b8,(010)84357710,1,0ce65c2dfb5d8d402c4733b8
星巴克(望京东路店),40.008624,116.495405,朝阳区望京东园四区6号楼北望金辉大厦一层105单元,,(010)64390586,1,6cda78bcfdfca57088b98821
星巴克(望京东园二店),40.002057,116.498615,朝阳区望京东路保利国际广场T1座1层101单元望京保利国际广场T1一层101单元号,d79cf9947076b5826f3e1b1a,(010)84164687,1,d79cf9947076b5826f3e1b1a
捌道面NOODLEBAR,39.990505,116.501471,北京市朝阳区酒仙桥北路4号院798艺术区四号路D06尤伦斯艺术商店对面,a6e8d6f3a3c5dfcb9fec2b01,18514028798,1,a6e8d6f3a3c5dfcb9fec2b01
星巴克(酒仙桥路第四店),39.988885,116.496892,朝阳区酒仙桥路6号360大厦2号楼A座,e35c895281d0f949c2f1cf35,(010)56615192,1,e35c895281d0f949c2f1cf35
俱乐部酒吧,40.038212,116.529301,孙河镇京顺路香江北路一号香江花园俱乐部,,,1,312b076aebcceecfc61b751b
GT CLUB,40.023029,116.573041,金港北一路与金港北二路交叉口东100米,,,1,8b6e454e5c47f70e7f29bdcb
海燕音乐啤酒花园,40.066056,116.423237,北京市昌平区龙德广场东门,,,1,ff7ec69fb65c633ad6b74e43
暖吧WarmBar,40.060247,116.416226,北京市朝阳区立水桥地铁A口对面奥北南区2号楼2层,,,1,45403800a868cbcd6e20b939
丰巢自提柜,40.06279,116.416199,东小口镇中滩6号院合立方小区1号楼,,,1,6b607947d7ca261d5e0d020c
北京国际温泉酒店大堂吧商务沙龙,40.072271,116.363072,回龙观镇枫丹丽舍西路1号,dd0186beec9af3e5d8ecedfa,(010)64958838,1,dd0186beec9af3e5d8ecedfa
星巴克(西小口路店),40.052856,116.362964,海淀区西小口路66号中关村东升科技园B区6号楼C座一层101室,3be5ecdfb00184ed02897243,(010)69614662,1,3be5ecdfb00184ed02897243
星巴克(龙德广场二店),40.065061,116.422088,昌平区立汤路186号院号龙德广场家乐福2层,,(010)84360768,1,261291f44889795094ec8458
馨梦东方娱乐会馆,40.086058,116.415001,天通苑北街道天通苑西三区北门,b5d316a1c56c074ce5e965d8,,1,b5d316a1c56c074ce5e965d8
暖bar酒吧,40.060253,116.416228,北京市朝阳区立水桥西路立水桥地铁A口奥北南区2号楼2层B210号,,,1,4e1630883e2ce6b33904b13b
乐天虫音乐酒馆,40.083478,116.445825,昌平区太平庄东路天通苑北三区5号音乐广场院内(五号KTV旁),,,1,8055e1dcaf85ea5c88f15dda
Craft beer,40.047844,116.434715,春华路紫绶园4号101室,03b3dfb38226befd59bbbc10,,1,03b3dfb38226befd59bbbc10
星巴克(清河营南街店),40.052717,116.439276,朝阳区清河营南街7号4号楼北苑华贸城1层126-127号,1bb4abd00740152532f71d34,(010)84931351,1,1bb4abd00740152532f71d34
布朗布朗咖啡酒吧,40.053717,116.437929,北京市朝阳区清苑路华贸城华贸天地商业街B1楼,e644a7711bd0cdc63686f4e6,"18810030332,13521635545",1,e644a7711bd0cdc63686f4e6
music餐吧酒吧,40.071377,116.43902,昌平区太平庄中街中国建设银行天通东苑储蓄所西北侧(天通仁和医院斜对面),5395c0c9f1a8e40edc1e527a,,1,5395c0c9f1a8e40edc1e527a
醉好精酿酒吧,40.060722,116.442914,北京市朝阳区水岸中街5号,,,1,e2fe568c05b9c604fa42b2cb
德国酒馆 BrauHaus,40.093421,116.543731,北京市顺义区安泰大街6号院5号楼105室德国酒馆,93759758c462d8884f6d4627,(010)53319090,1,93759758c462d8884f6d4627
星巴克(祥云东方苑店),40.094911,116.542799,顺义区临空经济核心区安泰大街9号院10号楼102号,f9841b0c839d06c1e856fa60,(010)61445901,1,f9841b0c839d06c1e856fa60
星巴克(日祥广场店),40.068826,116.5538,顺义区榆阳路日祥广场807号,637df60a7b86676b40afe64d,(010)80464360,1,637df60a7b86676b40afe64d
COSTA COFFEE(中粮祥云店),40.095977,116.542559,北京市顺义区安泰大街9号院8号楼1层,cbbf95dd494615ca38e4a68f,(010)80477161,1,cbbf95dd494615ca38e4a68f
星巴克(祥云东方苑二店),40.092822,116.543844,顺义区空港街道安泰大街6号院11号楼107号,,(010)87141613,1,3306feffe4ce44f3c61b759e
星巴克(欧陆时尚店),40.072826,116.554118,顺义区裕祥路99号一层L105-L106单元,bb1b5b1ecb7168027dc87638,(010)80460100,1,bb1b5b1ecb7168027dc87638
Jamaicablue Coffeeshop(优山美地店),40.084031,116.527949,北京市顺义区榆阳路4号优山美地俱乐部1层,5fd4da9f05dacbb12fb96daa,(010)80413301,1,5fd4da9f05dacbb12fb96daa
The Swan With Tow Necks,40.068251,116.552621,北京市顺义区榆阳路东50米,1b5e87437363a6ef601c67e7,,1,1b5e87437363a6ef601c67e7
绿洲酒吧,40.084031,116.527717,榆阳路4号,002b1295f0d779dce5073802,,1,002b1295f0d779dce5073802
威士忌酒吧,40.092738,116.544657,空港街道安泰大街6号院中粮祥云国际生活区南区11号楼阿咪啄啄一楼,cab3f416bd5b2d7cc909f08a,,1,cab3f416bd5b2d7cc909f08a
布隆伯格1308德国酒吧(中粮·祥云小镇南区店),40.093206,116.543506,北京市顺义区安泰大街9号中粮·祥云小镇南区F1,,,1,72959845ce44de2026e0a013
SIX酒吧,40.053933,116.59833,首都机场西平街1号,f7d587abac16072ed42ce235,,1,f7d587abac16072ed42ce235
98CLUB,40.053176,116.601845,北京市朝阳区首都机场南路3号附近,78c757732ad94acfc8213d0e,,1,78c757732ad94acfc8213d0e
星巴克(丽苑街店),40.05936,116.56902,顺义区天竺镇丽苑街15号27号楼102-103单元,60faae13ee765a802d473371,(010)84167825,1,60faae13ee765a802d473371
星巴克(北京首都国际机场1店),40.086654,116.595387,朝阳区首都国际机场1号首都国际机场航站楼一层,a59814f7b98adc6e25d2bb2d,(010)64540916,1,a59814f7b98adc6e25d2bb2d
星巴克(北京首都国际机场2店),40.084898,116.600256,朝阳区首都国际机场2号首都国际机场航站楼一层,47452b8bdd698d0ea7c756cd,(010)64598130,1,47452b8bdd698d0ea7c756cd
星巴克(北京首都国际机场八店),40.073548,116.61915,顺义区首都机场路首都国际机场T3航站楼D区2层,e69b6b8d18e5d57af7231021,(010)64531932,1,e69b6b8d18e5d57af7231021
街电(蓝度BluesBar酒吧),40.074189,116.575675,北京市顺义区天柱东路4号润通大厦A座,,,1,0d30b3f9ccf81374aecb665c
太空酒吧,40.05526,116.597144,北京市朝阳区小天竺路9号北京国都大饭店,7b1f623b0ec510fc08f5eb18,(010)64565588,1,7b1f623b0ec510fc08f5eb18
尼采音乐酒馆(温都水城店),40.109422,116.380122,北七家镇宏福大道55号中戏南200,402cb65c5d87781ac91b95d3,,1,402cb65c5d87781ac91b95d3
湖湾酒店-酒吧,40.111611,116.376787,北七家镇王府街55号,0aef095d4d5d859914b54b6c,,1,0aef095d4d5d859914b54b6c
春晖园温泉度假酒店-酒吧,40.136462,116.498616,北京市顺义区高丽营镇于庄春晖园温泉度假酒店,,,1,f723e620864fc0e38f1a89dd
狼爱上羊音乐酒馆(后沙峪店),40.12302,116.562802,北京市顺义区S305(顺平路),,,1,28e7756e770e78aa250bd052
星巴克(国门智慧城店),40.124358,116.565555,顺义区安平街3号国门智慧城一层105单元,,(010)80497534,1,cc5685dadc1c0f122e4733fc
吉祥1088酒吧(方糖店),40.108715,116.564653,"北京市顺义区后沙峪裕民大街3号北京方糖东侧底商1088(京密路后沙峪地铁,后沙峪联通)",,,1,3ae82291d8c46d00afee7a9b
草莓酒吧,40.118243,116.616307,中轴路宏远航城广场F座,,,1,bd2baba24ad0898d4e2fdfa3
