name,lat,lng,adderss,street_id,telephone,detail,uid
星巴克(北关西路店),39.741642,116.145599,房山区良乡北关西路14号华冠购物中心一层,371602792ae707fc38e4a666,(010)69384187,1,371602792ae707fc38e4a666
咖啡屋(西门店),39.738023,116.142176,北京市房山区良乡西潞东里甲1号楼2层X-04,927058287203052c276e9853,(010)56237137,1,927058287203052c276e9853
尚品咖啡,39.732138,116.148107,房山区拱辰南大街91号(与南关西路交口西南角),80237aca65534647c0364455,(010)60354801,1,80237aca65534647c0364455
铭记咖啡,39.729759,116.129819,房山区西潞街道苏庄三里共创大厦103,,(010)58417009,1,9b8cdb25d3fcd224fa42b218
星巴克(政通南路店),39.752102,116.147963,房山区通政南路2号院龙湖房山天街1层,,(010)61351520,1,2c30b74bafec2bfc3686f4d3
西堤岛,39.729839,116.164633,东羊庄村18号-14大学城购物中心3层,cd99ea427070ef3fc7f02511,(010)63341355,1,cd99ea427070ef3fc7f02511
卡督夫咖啡,39.720141,116.130682,北京市房山区翠柳大街辅路,,,1,89ed9fcd17a04c899f82eab7
小萌心屿,39.73124,116.178813,良乡东区十六号路首开·熙悦睿府书香10号院6号楼103,,"(010)60353118,13260209807",1,8b42a70bcfd61dd9f7e73b9a
森林咖啡,39.731608,116.178727,书院南街10号院1号楼1层101,,"18513312001,18611911928",1,f0af89009197ffb4fa0cad3e
光合时间创客咖啡,39.749151,116.186179,北京市房山区辰光东路16号院5号楼光合创意大楼一层大厅,,13810804063,1,807e88b07de62ad9b320a8f8
卯田咖啡厅,39.759628,116.216497,长泽南街中粮万科半岛广场2层同乐汇卯田空间内,29d59006a2c9f1fc3b04b100,13581588698,1,29d59006a2c9f1fc3b04b100
Mu Coffee,39.728746,116.175751,北京市房山区长虹东路辅路,,,1,e1d968bb547e62662002207a
咪咪咖啡吧,39.728762,116.172697,阳光南大街115号,,,1,83c5c0b6a76c68f607fef506
那间咖啡(大兴分店),39.733803,116.346616,大兴区兴丰大街三号,d97f8dcdbdf26adc28b97cb4,"(010)60215240,18513413615",1,d97f8dcdbdf26adc28b97cb4
星巴克(大兴天键广场店),39.758696,116.322141,大兴区枣园路26号大兴天键广场1层,,(010)61240871,1,eba3d3e181ebdd702a02e18d
咖啡一色,39.753131,116.338071,"兴华大街波普中心4栋131号(近清源路地铁站,北京印刷学院北300米)",974907543810a088bea24092,,1,974907543810a088bea24092
栗子咖啡(兴华大街店),39.7542,116.338039,大兴区兴华大街二段波普中心3号院3号楼底商115号,,(010)57253131,1,70acad760121d8aec909f0e1
醇在亦周咖啡店,39.743517,116.334572,富强西路131号,1768b21be147ce17b5147fa1,18513856167,1,1768b21be147ce17b5147fa1
MO CLUB,39.754784,116.338075,"北京市大兴区兴华大街二段3号院2号楼1层110室(波普中心东门北侧,巴蜀阁南侧)",cf45e840c2c0394a4f6d461f,,1,cf45e840c2c0394a4f6d461f
星巴克(大兴泰禾店),39.719201,116.326219,大兴区新源大街30号1号楼1层1088-1090号,,(010)53918390,1,9b5d8073eac912da1b94c608
喵宫主猫咪咖啡馆,39.754918,116.337564,兴华大街3号院附近,,,1,b29857dd09aae2c34f3a590e
洗车咖啡小镇(途虎永华路店),39.730252,116.315598,北京市大兴区永华路22号,603c58e3911e357c00ff2d4f,,1,603c58e3911e357c00ff2d4f
星巴克(天星街店),39.763093,116.166862,房山区天星街1号7号楼绿地缤纷城F1层,4dfee1e959c65f1643ab9a24,(010)52594162,1,4dfee1e959c65f1643ab9a24
南宫温泉咖啡厅,39.811466,116.160428,王佐镇福宫路39号南宫温泉度假酒店2楼,c52ab9e8d6359297be4842bc,"(010)83315566,(010)83393928,(010)83393926",1,c52ab9e8d6359297be4842bc
星巴克(悦盛路店),39.769104,116.193187,房山区悦盛路6号首创奥特莱斯F1层F1-B06号,e1c4d65154cb0eaa430245e2,(010)60356869,1,e1c4d65154cb0eaa430245e2
麦咖啡(昊天大街得来速餐厅),39.77257,116.171628,哑巴河村218-18号京周路,1972487f3571a1d4eb12e424,(010)81311472,1,1972487f3571a1d4eb12e424
星巴克(欣宁大街店),39.793945,116.334072,大兴区西红门镇欣宁大街15号北京荟聚西红门购物中心L1层,5c56502d99fb2ef3c4f50d65,(010)50931855,1,5c56502d99fb2ef3c4f50d65
漫咖啡(鸿坤广场店),39.797759,116.346216,北京市大兴区欣旺北街8号鸿坤广场1层,742bffaeeb794ed3d1f49ece,(010)51077980,1,742bffaeeb794ed3d1f49ece
星巴克(金星西路店),39.770181,116.340647,大兴区金星西路3号,ff304319715a835d09b93a0d,(010)53948665,1,ff304319715a835d09b93a0d
星巴克(宏福路店),39.796968,116.346291,北京市大兴区西红门宏福路鸿坤生活广场一层,de6f0ec4668d92c9f60e77ea,(010)60292130,1,de6f0ec4668d92c9f60e77ea
bruno caffe(绿地缤纷城店),39.769875,116.340419,北京市大兴区兴华大街与金星西路交叉口东北角绿地缤纷城F1,e8a1bf7aabe5710bae080f15,(010)80222687,1,e8a1bf7aabe5710bae080f15
巨门咖啡,39.779341,116.32773,北京市大兴区领海商业中心57号楼,c5b7d6ba0f7d90973f9a5e49,13811442733,1,c5b7d6ba0f7d90973f9a5e49
绿野仙踪茶艺馆,39.776898,116.323614,北京市大兴区兴盛街一段120,593850fbbeb80f44de1e52b0,(010)60231228,1,593850fbbeb80f44de1e52b0
创亿咖啡厅,39.76435,116.352258,西红门金苑路2号1幢2层216室,6139603d7b85e057f50e775e,13240202275,1,6139603d7b85e057f50e775e
转角咖啡,39.781749,116.327651,北京市大兴区兴业大街香海园3号楼1层8室,510cbba7a86fc312d92f287b,13120012008,1,510cbba7a86fc312d92f287b
99stepsCoffee(康庄路店),39.763227,116.332577,北京市大兴区康和园162,2f481a6886a33512fbdc857d,18911031895,1,2f481a6886a33512fbdc857d
麦咖啡(西红门店),39.79617,116.336243,北京市大兴区西红门镇瑞海家园一区1号楼一层及二层部分(麦当劳内),67af8273578a49fb28d7ab71,(010)60259355,1,67af8273578a49fb28d7ab71
luckincoffee瑞幸咖啡(鸿坤广场店),39.796192,116.353326,北京市大兴区宏福路西红门鸿坤广场B座102室,,,1,a5d767624a2cd4b99868b431
创客咖啡简餐,39.768079,116.357266,金星路12号院2号楼1层(奥宇集团楼内),ad396adff56d9cadfbf0cb30,(010)60212083,1,ad396adff56d9cadfbf0cb30
MYGirl coffee,39.796202,116.331793,宏福西路荟聚西红门购物中心2层,6ab986378b321910ede4a592,(010)59062145,1,6ab986378b321910ede4a592
鑫利源咖啡店(槐树岭店),39.866752,116.178557,北京市丰台区槐树岭4号院,c3718590cf34c31cf4eafc7c,(010)83869615,1,c3718590cf34c31cf4eafc7c
星巴克(南四环西路店),39.83307,116.292817,丰台区南四环西路188号,a011e62f8f400c9c246e98fb,(010)63729601,1,d5d62d0482f0f09ff6e73b22
星巴克(西四环南路店),39.84412,116.291715,丰台区西四环南路103号资和信百货商场第一层1024单元,0cb6d548172029772fb90817,(010)83203068,1,0cb6d548172029772fb90817
Dream Bar.醉梦,39.873806,116.284215,北京市丰台区西四环南路55丰台体育中心西12号看台,06a1e9450099a9d7df1e52a8,,1,06a1e9450099a9d7df1e52a8
晏coffee,39.830693,116.287544,北京市丰台区外环西路26号院8号楼,,,1,03457e320540dc6f12882404
圣地苑宾馆-咖啡厅,39.866262,116.293606,北大街3号圣地苑宾馆,a52a7e78af171321932ca3a0,(010)63843337,1,a52a7e78af171321932ca3a0
宛平旮旯咖啡,39.856037,116.233474,北京市丰台区卢沟桥城内街甲48号,4548d87a1d1deefb931fc946,13910200398,1,4548d87a1d1deefb931fc946
灵咖啡,39.839615,116.24956,晓月中路晓月苑七里1号楼三单元101底商,76124dcabc695c0ffd0eb0a7,18500198310,1,76124dcabc695c0ffd0eb0a7
GODFATHERCOFFEE,39.843942,116.290607,西四环南路103号3号楼1层103,79c19dab81734362f82d61bf,,1,79c19dab81734362f82d61bf
物外咖啡,39.832682,116.294545,总部公馆C座1012,,,1,915fe5f02b842d58843304e9
IRON CAFE&CLUB,39.831926,116.287274,北京市丰台区海鹰路6号院26号楼一层,,18310103676,1,ef64880dbc82897500ec01b6
百咖汇,39.833157,116.288279,科学城海鹰路8号2号楼1层1012室,afcb9e84dc1d2d564d6d461a,13683335435,1,afcb9e84dc1d2d564d6d461a
星巴克(北京丰北路咖啡店),39.872831,116.299804,丰台区丰北路甲79号华堂商场1层1-001单元,c2a73e3b4434478d4151c0b9,(010)63801101,1,c2a73e3b4434478d4151c0b9
漫咖啡(汉威国际广场店),39.827857,116.302728,南四环西路186号汉威国际广场四区8号楼1层,,(010)63795179,1,7135f191cb38bc297f29bd7e
星巴克(丰科路万达广场店),39.830522,116.304416,丰台区五圈路万达广场F1层1056号,,(010)52806313,1,8bdd76117c0bfa591894c6ea
漫咖啡(永旺梦乐城店),39.824926,116.298894,北京市丰台区丰葆路88号永旺梦乐城F1,0b3eb2c444c10db45abbbc18,(010)83326263,1,0b3eb2c444c10db45abbbc18
星巴克(南四环西路第二店),39.833382,116.328691,丰台区南四环西路76号花乡奥莱物业2号楼一层02111商铺,,(010)83798670,1,33547a2052e078f47dc876d0
星巴克(北京丽泽桥恒泰咖啡店),39.8722,116.312038,丰台区丰台北路18号院恒泰广场一层,dee82be90e0c4038fa42b29d,(010)63708711,1,f383cda4d0248d9be115f92e
上岛咖啡(丰管路店),39.864366,116.30554,北京市丰台区丰管路君颐润华酒店西侧2楼,23db989d8f1a2c254afd3fdb,(010)57270808,1,23db989d8f1a2c254afd3fdb
咖啡之翼(丰台诺德店),39.832911,116.307361,北京市丰台区汽车博物馆西路诺德中心2期10号楼1层105,,(010)53321468,1,2056ed6795dba3300f0a7020
星巴克(西铁营店),39.86655,116.361648,西铁营中路1号万达广场F1层,0a59265438b6bf46e81e97b9,(010)83557911,1,0a59265438b6bf46e81e97b9
瑞幸咖啡(诺德中心店),39.835446,116.306212,北京市丰台区南四环西路128号院2号楼1层105,,,1,f7d135cb98e3cc7ef603b87c
星巴克(丰葆路店),39.823835,116.298777,丰台区丰葆路88号院永旺梦乐城1层,,(010)83816426,1,6a5c8b91b91a75fec42ba18f
帝欧咖啡厅,39.840651,116.301601,丰台区恒富中街5号院2楼,4edf9fbf5e98e18dcc06a452,(010)63798979,1,4edf9fbf5e98e18dcc06a452
咖啡奶茶街,39.830955,116.351165,北京市丰台区新发地长途客运站东门南侧,dad8b375f9b31a3588db7339,,1,dad8b375f9b31a3588db7339
漫猫咖啡,39.872488,116.314523,丰台区丰台北路恒泰中心写字楼A座一层,,18701325626,1,31a8ff477fa9adcb593ac80e
咖尔法咖啡(汉威国际店),39.827394,116.301545,汉威国际广场E地块5号楼01层A单元,57ed13e5eae113fc1d5800fc,(010)56201331,1,57ed13e5eae113fc1d5800fc
helloStranGer咖啡厅,39.846033,116.328938,北京市丰台区芳菲路88号院-北门底商,8cb000a836114bd9f942b2a6,,1,8cb000a836114bd9f942b2a6
luckincoffee(诺德中心店),39.83557,116.306227,丰台区南四环西路128号院2号楼1层105号,,"4000100100,4006692002,18612291561",1,6a8e807fd9689c36c16c14c9
尚品茶楼茶艺咖啡,39.85179,116.358514,北京市丰台区镇国寺北街草桥欣园C区三层,784109eff04116e65d17c364,(010)67566990,1,784109eff04116e65d17c364
南城会馆,39.860871,116.316837,丰管路16号9号楼,fa318010a015fd6b96ca0705,,1,fa318010a015fd6b96ca0705
北京IBI咖啡,39.843427,116.299634,北京市丰台区科兴路7号国家级企业孵化器,,,1,ca3b8f015ec02cd1e5e96598
贝玛咖啡公社,39.82647,116.298931,南四环西路188号18区10号楼号楼恒通九鼎一层,bff0c425af026e6af7e73b79,(010)52227175,1,bff0c425af026e6af7e73b79
星巴克(汉威国际广场1店),39.826656,116.301565,丰台区南四环西路186号一区1号楼,,(010)83816399,1,d494a4ae0011621f71210bf7
星巴克(五圈路店),39.830854,116.307719,北京市丰台区华夏幸福创新中心A座底商,,(010)52806313,1,44ba89e1758e8d80c4f50d55
木子瑜伽会馆木子咖啡厅(益泽路),39.871486,116.316021,西三环南路55号顺和国际财富中心2005室,,(010)57528171,1,7595b432f732cbf3f33cba3d
DFS COFFEEDINING,39.849739,116.321716,张家路口121号首都经济贸易大学第一餐厅,7c1e9af8bf17cafc43e19208,,1,7c1e9af8bf17cafc43e19208
Luckin Coffee瑞幸咖啡(汉威国际店),39.834322,116.30153,北京市丰台区汉威国际广场1区M层(地下一层)108号,,,1,c35e5acea4e4c631ae080fcd
众创空间,39.843427,116.299634,南四环西路巴庄子139号神州科技园,,,1,a5f1eb7d85a884158f1a89b9
聚匠咖啡,39.838302,116.301848,北京市丰台区新村街道宝隆公寓6号楼大门东侧,,,1,affcb97c13b525eb2b02e1af
漫磨咖啡,39.833296,116.307469,北京市南四环诺德中心二期9号楼1层,,,1,9a717cf6aa57e86d9e9d6803
宜园咖啡,39.844097,116.354671,北京市丰台区花神街西门内北3号,44a656443aab51007bf796ac,,1,44a656443aab51007bf796ac
多百特咖啡厅(龙江奔达店),39.856652,116.332102,北京市丰台区南三环西路117号龙江奔达加油站内,,,1,568c86be5bb88a2e715e808d
迪欧咖啡(怡海店)-停车场,39.840512,116.301573,丰台区恒富中街9号,13a1b3123b9713a3b817e7a5,,1,13a1b3123b9713a3b817e7a5
轩咖啡,39.834523,116.308079,丰台区南四环西路126号,,,1,4a38bdb5fb036481eedfcaf9
i.coffee,39.904399,116.12894,北京市门头沟区经济开发区上园路甲10号洪源智能工坊(写字楼一层),,"18618354585,13671220997",1,28c33834cc41ad5f7c29bdd2
西山创客咖啡,39.902461,116.13703,北京市门头沟区莲石湖西路98号院,6d9aeed74dacbc63b8bd635b,(010)60805990,1,6d9aeed74dacbc63b8bd635b
星巴克(首钢店),39.914575,116.177299,北京市石景山区石景山路68号晾水池东路(三高炉北侧),,(010)88296062,1,8c618beceae1340ab34c4912
3.14 coffee,39.90944,116.217159,北京市石景山区京原路1号院一层1号,90661114f9b98a2326d2bb96,"(010)57111716,15910913936",1,90661114f9b98a2326d2bb96
星巴克(阜石路第一店),39.929441,116.178519,石景山区阜石路300号喜隆多新国际购物中心F1层,43fca392a631a32002897284,(010)53021090,1,43fca392a631a32002897284
漫猫咖啡(古城公园西街),39.917118,116.199043,北京市石景山区古城南路5号,7784c549e5ddfa52d92f28bf,(010)88809695,1,7784c549e5ddfa52d92f28bf
喜鹊.magpie,39.910284,116.231099,北京市石景山区鲁谷路北方中惠国际中心B座底商,e72e4c1728e8e28128b97c45,(010)53697526,1,e72e4c1728e8e28128b97c45
憩约咖啡厅,39.925978,116.21452,北京市石景山区八角东路12号京成商厦2层210,,18600292155,1,a258a7fe3d2229a09e82ea26
京燕饭店咖啡厅,39.913567,116.210292,北京市石景山区石景山路29号京燕饭店B层(八角游乐园),d6b537e420fe9fab82a12e47,18301179780,1,d6b537e420fe9fab82a12e47
北京怡园星光咖啡屋,39.92407,116.194219,北京石景山区古城北路81号(石景山消防支队对面),1e9662eeeb298e176f3e1bd1,(010)88259386,1,1e9662eeeb298e176f3e1bd1
i7咖啡,39.911731,116.190103,石景山区城通街26号院2号楼2层8-42号,,18601280902,1,5bbcee0480459ba62d473342
7豆咖啡厅,39.914102,116.196294,北京市石景山区石景山路星座大厦一层底商(古城地铁站A口停车场内),,(010)68818966,1,e7e7879310a0caaaf7e73b9f
瑞幸咖啡,39.925197,116.212485,时代花园南路17号院茂华大厦一层大厅,,,1,fd8131a8acda6263c4f02510
MAAN CAT COFFEE,39.917063,116.198908,北京市石景山区古城南路5号附近,,,1,0b9ae08d54ddc9f4c5effb2b
时光永恒,39.928473,116.199838,杨庄中区21号楼3单元1层底商,,,1,63e83d7dff57ca338b2fb549
一品茗茶,39.929268,116.181578,北京市石景山区金顶南路喜隆多东200米汇利丰花鸟鱼古玩茶城东楼二层18号,6e12bfa6b978975828201a95,13811815587,1,6e12bfa6b978975828201a95
肯德基现磨咖啡馆（丰台路口店）,39.878463,116.287257,西四环南路8号-1号楼首层及二层,c7eca12b2fbd222ee115f9ff,(010)83828300,1,c7eca12b2fbd222ee115f9ff
星巴克(五棵松卓展店),39.919925,116.285006,海淀区复兴路69号3号楼卓展购物中心1层,,(010)88199278,1,c60c648f33e450621329357e
时差空间咖啡,39.910091,116.242959,北京市石景山区石景山路2号台湾百大馆3层,c017d94c54d50568bda240c6,"(010)68667707,(010)52898777",1,c017d94c54d50568bda240c6
星巴克(石景山万达广场店),39.911923,116.232713,石景山区石景山路乙18号院4号楼石景山万达广场购物中心2层,08a0c6c22edd0f00adb22a80,4008206998,1,08a0c6c22edd0f00adb22a80
星巴克(北京鲁谷远洋店),39.909366,116.258693,石景山区玉泉路59号院1号楼远洋沁山水1层A001单元,ee5935a620c30df3f503b83c,(010)88632549,1,ee5935a620c30df3f503b83c
上岛咖啡(台湾街店),39.910129,116.246839,鲁谷路2号,669775d034441c42fd0eb05e,(010)58482908,1,669775d034441c42fd0eb05e
HOLLYS COFFEE(五棵松华熙店),39.91532,116.283726,北京市海淀区西四环中路辅路五棵松华熙商场中区,,(010)68150886,1,a96408b4a5fcb4e32e47335e
星巴克(大成路店),39.895052,116.271593,丰台区大成南里三区13号翠微百货一层,251374c96992b726a11de953,(010)68260728,1,251374c96992b726a11de953
星巴克(五棵松第二店),39.919438,116.284836,海淀区复兴路69号卓展购物中心5楼,,(010)88199321,1,8ec964b435f1f5ce085cb3af
老山咖啡馆(鲁谷店),39.909482,116.2529,北京市石景山区鲁谷路6号,,"(010)68809764,13070188480",1,c2fa5d448042bac8d13ce3db
卿晨咖啡,39.91599,116.285054,北京市海淀区复兴路69号2号院华熙LIVE·hi-up商业街东区G09(五棵松华熙LIVE东区坡道上南侧),,(010)68159786,1,be01b58eb03de2df2202626b
卉沅咖啡(翠微店),39.920966,116.28588,北京市海淀区万寿路街道五棵松北路紫金长安小区17号楼底商卉沅咖啡,34dbf4ec4754b89a0f0e6bc4,,1,34dbf4ec4754b89a0f0e6bc4
Basic Element Coffee(五棵松),39.919606,116.282014,玉渊潭南路西口东北角公园内(卓展购物中心西侧),4cb5fc0ef65e1c86c9c3db32,13717570350,1,4cb5fc0ef65e1c86c9c3db32
新宇咖啡,39.919533,116.270822,北京市海淀区永定路55号武警总医院往北50米,a98d237f2265cfd9f11937f6,(010)68271515,1,a98d237f2265cfd9f11937f6
唯咖啡,39.907055,116.258982,北京市石景山区玉泉路63号远洋时代广场2层215号,504aee6a50d9d206bda2404e,"(010)68657970,13601276460",1,504aee6a50d9d206bda2404e
星巴克咖啡(永定路咖啡店),39.911067,116.271498,海淀区永定路88号,496d519bdf7f192cb6147f16,(010)56057683,1,496d519bdf7f192cb6147f16
蓝轩咖啡,39.928765,116.295266,北京市海淀区阜成路52号,81d6a509be923a596e20b950,(010)88131220,1,81d6a509be923a596e20b950
Niiice Cafe(永定路航天二院店),39.923613,116.268181,金沟河路10号院1号楼,73680133fc02dee5d618b7e6,,1,73680133fc02dee5d618b7e6
康馨酒店大堂吧,39.913293,116.284545,海淀区复兴路28号康馨酒店1楼(近五棵松地铁站),f9fd606254ca06060e0e6b80,,1,f9fd606254ca06060e0e6b80
苗英慧茶馆,39.925,116.286165,万寿路街道金沟河东路东金和嘉园6号楼,b9f250d11f201f22d12dd63f,(010)88267028,1,b9f250d11f201f22d12dd63f
曼特宁咖啡(鲁谷路店),39.908843,116.251787,北京市石景山区鲁谷路74号中国瑞达大厦1层M101,1ac034fd69dfe1534107c1f6,"18612876126,18201293828",1,1ac034fd69dfe1534107c1f6
瑞幸咖啡,39.882041,116.258426,小屯路149号北京城乡超市一层,,,1,be72239e27ccee5b25e0a01b
timesart,39.916593,116.284543,北京市海淀区,,,1,7b5b8b3edde8c3b222f01721
天利酒店-咖啡厅,39.896074,116.276077,大成路7号,1ae098e52a508d5fb320a8a8,(010)68693388,1,1ae098e52a508d5fb320a8a8
成龙咖啡,39.920032,116.283217,五棵松北路卓展购物中心5楼耀莱影院内,,,1,2501f0d40609c8a985420efc
定个时光(万达广场店),39.912069,116.232303,石景山路乙18号万达广场2层,,,1,1ebab5069b9f843196f08c38
星巴克(朗琴国际大厦店),39.894202,116.348316,西城区广安门外大街168号天虹百货商场1层101-1号,9ee6b0dc41a610f2e856faf3,(010)63381606,1,9ee6b0dc41a610f2e856faf3
星巴克(万丰路店),39.88888,116.30422,丰台区万丰路68号和谐广场1层,488274187ee93da0c17da27c,(010)63254312,1,488274187ee93da0c17da27c
星巴克(羊坊店路店),39.905018,116.32846,海淀区羊坊店路18号光耀东方广场一层103单元,261d9a8f181b11948c1a894d,(010)57536322,1,261d9a8f181b11948c1a894d
上岛咖啡(玉渊潭南路店),39.917264,116.33741,北京市海淀区玉渊潭南路3号,a7c56ee024c056aaa3acc4d8,(010)68575598,1,a7c56ee024c056aaa3acc4d8
星巴克(三里河东路店),39.913543,116.350994,西城区复兴门大街15号长安商场F1层,03de675cb05cf7a6932ca391,(010)68056720,1,03de675cb05cf7a6932ca391
星巴克(翠微路店),39.918612,116.309732,海淀区翠微路12号凯德Mall1层101-06-44-K12B号,3fac3aeaa1d89c551b11d517,(010)88633651,1,3fac3aeaa1d89c551b11d517
星巴克（北京复兴门外咖啡店）,39.912428,116.35752,西城区复兴门外大街A2中化大夏1楼,540c728ea74b22bea5da3954,(010)68568009,1,540c728ea74b22bea5da3954
清香林茶楼(万寿路店),39.918423,116.301782,海淀区翠微南里21号楼,eb367503900ea40201ec01bc,(010)68274954,1,eb367503900ea40201ec01bc
上岛咖啡(华源四里店),39.886205,116.324518,北京市丰台区太平桥路15号,025f77251fa931ed29fc48a1,(010)63252172,1,025f77251fa931ed29fc48a1
白云驿站咖啡厅,39.906908,116.35295,北京市西城区白云观街北里6号(近融泽府),035306d9fa51e6002811d1ea,"15011179172,13810709885",1,035306d9fa51e6002811d1ea
唐拉雅秀·溪廊咖啡厅,39.913723,116.34999,北京西城区复兴门外大街19号唐拉雅秀酒店3楼(首都博物馆对面),4ce10ce660a6f0b8441a326d,(010)58576616,1,4ce10ce660a6f0b8441a326d
漫猫咖啡,39.895037,116.343316,北京市西城区广安门外大街182号,,(010)63262032,1,1a0833cfc49b49ca047ce85f
星巴克(翠微广场店),39.914432,116.311732,北京市海淀区复兴路翠微广场购物中心地上一层110号商铺,b724a62b08e43e435f0d0286,(010)68265331,1,b724a62b08e43e435f0d0286
星巴克(复兴路店),39.914355,116.30302,海淀区复兴路51号凯德晶品购物中心1层,15a2783323005ae8aa0dd8b3,(010)68267219,1,15a2783323005ae8aa0dd8b3
星巴克(北京西站第一店),39.901038,116.32819,丰台区莲花池东路118号北京西站通廊7-1号,,(010)51931281,1,67a5cd8376252f8d45e2740f
花间驻咖啡馆,39.900484,116.352149,北京市西城区天宁寺前街甲3号天宁一号创意园区内32号,,17301099112,1,2b838dcff15b50ebc27da2bb
星巴克(建威大厦店),39.914228,116.359599,西城区南礼士路66号建威大厦一层,4eb3b5332517096c4302455e,(010)68018027,1,4eb3b5332517096c4302455e
萤火虫咖啡屋,39.907604,116.359204,北京市西城区西便门外大街10-9号,b388f9fdbd93c058b35c6aca,(010)68019891,1,1020060f101c9bbf1994c6a9
瑞幸咖啡(Lucking coffee),39.887741,116.354926,北京市西城区南滨河路甲27号,,,1,f9518839bd2c9ca02d47331e
金点咖啡酒吧,39.875322,116.30041,西局西街300号邦泰宾馆1层,7849f89b0431fb0872455b73,,1,7849f89b0431fb0872455b73
有时咖啡,39.881291,116.299819,北京市丰台区万丰路316号万开中心一层,16ed3da104a9a4cb018972cb,18310901800,1,16ed3da104a9a4cb018972cb
costa咖啡店,39.883608,116.320903,北京市丰台区太平桥街道西三环南路14号院首科大厦a座一层大厅costa咖啡店,,(010)63337470,1,d2c8b46b507d1dfbaeb22ac5
新兴茶馆,39.904196,116.308384,海淀区翠微路25号,3a2b6cbd48c78c5b6168584b,(010)68218812,1,3a2b6cbd48c78c5b6168584b
元咖啡(新知店),39.929432,116.31149,北京市海淀区阜成路甲28号,,,1,42851353fe36df060d3dda9a
逸派咖啡店,39.894742,116.360763,北京市西城区广安门内大街338号,2dcdbd54a780df94373a7102,(010)83529999,1,2dcdbd54a780df94373a7102
为他茶楼,39.885226,116.357223,西城区广安门南街30号19幢,,(010)63518878,1,669d726510699a8082a12e70
花园咖啡厅(北营房中街),39.93013,116.356165,北京市西城区阜成门外大街甲9号国宾酒店1楼,34059f975098624d71455b5e,(010)58585588-8690,1,34059f975098624d71455b5e
中国科技会堂-咖啡厅,39.914165,116.338967,长安街复兴路3号中国科技会堂1楼,8d390c065f06ea728bdb73d9,(010)68518822,1,8d390c065f06ea728bdb73d9
深圳大厦-大陆咖啡厅,39.895839,116.35401,北京市西城区广安门外大街1号北京深圳大厦1楼(广安门桥),5c2dc21d81ade41d6ec02cb0,(010)63271188-68,1,5c2dc21d81ade41d6ec02cb0
环翠咖啡厅,39.930933,116.360601,北京市西城区北礼士路98号金都假日饭店1楼(近阜成门外大街),844a750e255600a063685884,(010)68338822,1,844a750e255600a063685884
平月茶馆(万寿宾馆店),39.91885,116.298751,万寿路甲12号万寿宾馆A座1层,74c933fb0644f6239e82ead4,(010)68230088,1,74c933fb0644f6239e82ead4
杰西咖啡(白云时代大厦店),39.903934,116.346316,北京市西城区莲花池东路甲5号白云时代大厦1楼(近莲花池东路),b1c556e853d07f15b426554d,(010)63408780,1,b1c556e853d07f15b426554d
那波利咖啡厅,39.91166,116.352199,北京西城区真武庙路1号中国职工之家大饭店2楼,e889a74446a197ac8605bf41,,1,e889a74446a197ac8605bf41
星港咖啡,39.903589,116.329819,北京市海淀区莲花池东路31号中裕世纪大酒店大堂一层(西站北广场对面),b7021bf8701cbee3f5e73b83,13683037551,1,b7021bf8701cbee3f5e73b83
MiMi CAFE(新年华购物中心店),39.882903,116.332343,北京市西城区马连道路25号新年华购物中心F2,d3f9decd88e1a16407fef5da,,1,d3f9decd88e1a16407fef5da
黛玉阁,39.877629,116.360906,北京市西城区南菜园街12号,b388f9fdb7ccc658b35c6a09,(010)63516349,1,b388f9fdb7ccc658b35c6a09
休闲时光,39.915372,116.314583,复兴路甲23号北京城乡购物中心写字楼1层,f5f38bc97c771e6289f15de9,,1,f5f38bc97c771e6289f15de9
咖啡茶吧(北京西站店),39.901448,116.327371,北京市丰台区莲花池东路118号北京西站F2,,,1,3c8ac618bbb3076d86330416
万寿宾馆-阳光咖啡厅,39.918488,116.298794,万寿路甲12号万寿宾馆A座2楼(距万寿路站约565米),28d06cbb5b7252a91e5800ea,(010)68132266,1,28d06cbb5b7252a91e5800ea
金色茶苑,39.899676,116.359076,西城区西便门内大街85号,d6cbafe712a40679912ca36c,16601103579,1,d6cbafe712a40679912ca36c
养云香吧湘水明珠茶艺,39.91947,116.354144,二七剧场路东里新22-12号,1473a725ece75856c17da25e,(010)68056666,1,1473a725ece75856c17da25e
泊咖啡,39.928669,116.350272,阜成门外大街24号京滨饭店一层东侧,,,1,5ef2105f6293f48b22f0174e
首都博物馆-咖啡厅,39.911876,116.348486,北京西城区复兴门外大街16号首都博物馆B1楼,22e11407a86ba6add5b74e76,,1,22e11407a86ba6add5b74e76
NESCAFE,39.90002,116.328281,莲花池东路118号F2层11-N3,,,1,101a1b8d8e5df37e626858d5
炸鸡啤酒(北京西站店),39.886616,116.327154,华源四里甲5号楼1层14号-F01A4,c395277da2340ccece04ef74,13911069225,1,c395277da2340ccece04ef74
瑞幸咖啡,39.931388,116.305086,北京市海淀区裕惠大厦b座负一层瑞幸咖啡,,,1,f9b1f1108c0caa9e31f71d18
阳光咖啡吧,39.905792,116.352104,白云观街北里七号长安白云大酒店一层,,,1,9768873f071efbee3f9a5e15
北京啡道咖啡店,39.88885,116.335226,马连道路10号世纪茶贸中心A座3单元603室(近马连道家乐福),7d6cf0a2d4419c1bc356acf6,"15811333180,(010)63310383",1,7d6cf0a2d4419c1bc356acf6
京门咖啡厅,39.909591,116.327292,北京市海淀区羊坊店东路京门大厦B座,01406f9dd7a0136af82d6148,(010)51862877,1,01406f9dd7a0136af82d6148
莲韵咖啡,39.89209,116.32215,太平桥西里旁电力医院门诊2层,362bfc34d327c163b11e369c,(010)63502878,1,362bfc34d327c163b11e369c
摩漫特咖啡厅,39.903427,116.326086,北京市海淀区羊坊店路21号瑞海大厦2层2021室,a413707c4cbad4083f9a5e79,15311208810,1,a413707c4cbad4083f9a5e79
广安门咖啡,39.889227,116.357828,枣林前街145号,4de0b24d428220eef7b91648,,1,4de0b24d428220eef7b91648
寰岛博雅咖啡厅,39.915859,116.300979,万寿路寰岛博雅1楼,,,1,b006224f48aade389ee32185
泰迪咖啡厅,39.925452,116.315311,北京市海淀区甘家口街道西三环中路11号大中电器泰迪熊咖啡厅,,,1,74f2d4060ea6b40a3b13fdbc
玩啤精酿,39.89164,116.333896,北京市西城区马连道路6号院4号楼1层,5f4398f77082dfae283a9f26,"13811222536,13581895072",1,5f4398f77082dfae283a9f26
北京希尔顿逸林酒店-咖啡厅,39.894485,116.347079,广安门外大街168号,6cb4665c7588e26bc61e5184,"(010)63381800,(010)63381888",1,6cb4665c7588e26bc61e5184
蜜语之间新西兰·岩烧乳酪,39.903635,116.342685,莲花池东路北小马厂6号(华天大厦一层),,"13683008072,18513303646",1,2c5632ce170565dcb8bd6378
天泰宾馆-咖啡厅,39.915354,116.357692,南礼士路头条1,e1bb619acceaaf8fd42ce25a,(010)56739999,1,e1bb619acceaaf8fd42ce25a
北京华顺隆商贸有限公司中化大厦丹纳斯咖啡厅,39.912555,116.357801,北京市西城区复兴门外大街A2号中化大厦1层,9a59c930a0a91c4b30621223,(010)67318353,1,9a59c930a0a91c4b30621223
怡己咖啡,39.920695,116.360181,金融大街乙9号金融街行政公寓一层,,,1,ba13032393c64f71e215f9d5
啡法集会,39.900075,116.315912,海淀区吴家场路1号院甲1号楼101-C1-012(近西三环中路),88c0d5fea1f454544c6d46d2,15810838466,1,88c0d5fea1f454544c6d46d2
红酒咖啡西餐,39.898972,116.331974,北京市丰台区太平桥街道广莲路大方饭店北门,,,1,43e2220321f15a497adbd2db
万寿宾馆A座-大堂吧,39.918424,116.298664,北京市海淀区万寿路甲12号万寿宾馆A座,4697f4b6e9dda2ea78f79616,(010)68132266,1,4697f4b6e9dda2ea78f79616
d051的奇妙咖啡之旅,39.909395,116.359123,文艺路工会巷天银大厦A座对面,cdea98bfad8daeeaeddfca4a,,1,cdea98bfad8daeeaeddfca4a
咖啡厅(北京儿童医院门诊),39.918611,116.36126,南礼士路56北京儿童医院门诊6F层,,,1,24655c6b6158f7128605bf9b
luna咖啡(马连道店),39.883361,116.334104,北京市西城区马连道明日五洲酒店酒店一层内,,,1,2b11fdad3d134ee1fd0eb04e
STAR COFFEE,39.757954,116.495268,北京市大兴区博兴十路,,,1,ce4225f9bd381718eb56fa95
百尚酒店咖啡厅,39.758931,116.55171,百尚生活广场四楼,8fc0bf4fabc7ee722102629c,,1,8fc0bf4fabc7ee722102629c
咖啡一色,39.736696,116.557962,北京市通州区马驹桥镇辛四路联东U谷西区二号院,,,1,e763c433b82f773959bbbc3c
纸积木咖啡馆,39.807112,116.424183,北京市丰台区长征宾馆一层,a5caf0245e97b72f4d5547cb,18810061716,1,a5caf0245e97b72f4d5547cb
咖啡茶座,39.798382,116.403821,北京南苑机场航站楼内,,,1,bcef228b7ae9a585e4e9658f
星巴克(星光影视基地店),39.778676,116.369829,大兴区北兴路2号1幢星光影视园A座,734b284aa7c6bcbeb2077d6f,(010)60224277,1,734b284aa7c6bcbeb2077d6f
星巴克(旧宫万科店),39.811401,116.466664,大兴区旧宫忠凉路1号院号1号楼住总万科广场一层L1001-L1002号单元,d990bd86d4acdb4f1b94c6d2,(010)60845092,1,d990bd86d4acdb4f1b94c6d2
旧宫上岛旧宫咖啡厅,39.815299,116.461582,北京市大兴区旧宫镇科技路12号,cb4fd146d0883c419c9d68e0,(010)87960933,1,cb4fd146d0883c419c9d68e0
COSTACOFFEE(航天万源广场店),39.809197,116.429985,北京市丰台区东高地万源西里航天万源广场一层07-F1-030铺位,,(010)88030165,1,f0df4008dc89bfb307026f10
述咖啡(旧宫店),39.811699,116.460378,旧宫镇富力盛悦居22号楼106号,,,1,2c03c899b7a58272fe0eb06f
欧度空间,39.799031,116.458857,隆庆路4号院1号楼2层201,,(010)67991052,1,27019b44b58a7ef0c27da248
柒cafe,39.812175,116.488655,北京市大兴区文化园西路企业文化园西园(临近亦庄桥地铁站),,,1,a8af5a4bcd5c61ccf60e779f
漫咖啡(亦庄店),39.810066,116.500713,大兴区文化园西路林肯公园25号楼111号,1f14cc0507b1f22ddc1e521b,,1,1f14cc0507b1f22ddc1e521b
星巴克(荣华南路店),39.788389,116.52387,大兴区经济技术开发区荣华南路15号院1号楼101-011室,ce4e5106ed9fa56846e27478,(010)67854452,1,ce4e5106ed9fa56846e27478
星巴克(文化园东路店),39.817438,116.509914,大兴区经济技术开发区文化园东路6号亦庄创意生活广场F1层,d991e116314d884c1e3894e3,(010)67859135,1,d991e116314d884c1e3894e3
澳利咖啡(中央公馆店),39.802725,116.499129,北京市经济技术开发区天华园一里四区10号楼1至2层2107,df797d02e254dd30276e98cd,(010)67896091,1,df797d02e254dd30276e98cd
COSTA COFFEE(北京华联购物中心店),39.810796,116.507994,北京市大兴区荣华中路8号北京华联F1,dac7a0994c4bd2f4b6147f2b,,1,dac7a0994c4bd2f4b6147f2b
咖啡陪你(亦庄力宝店),39.810175,116.508152,荣华中路8号院力宝广场8号楼一层109号,cf9434a3cdd109340b1cc7ea,"(010)57862131,13051663650",1,cf9434a3cdd109340b1cc7ea
紫陌啡语(亦庄店),39.812144,116.499693,经济技术开发区文化园西路8号院45号楼1层102,741d83721d20c04926d2bba2,"(010)67899107,13264055823",1,741d83721d20c04926d2bba2
星巴克(朝林广场店),39.799168,116.512393,大兴区荣华中路19号朝林广场A座一层,8de9c59d41806226d3ff2392,(010)67857761,1,8de9c59d41806226d3ff2392
McCafe(马驹桥店),39.766641,116.551783,北京市通州区马驹桥米拉小镇新海路1号麦当劳内,9c089cf75aecca25441a32a9,(010)56877587,1,9c089cf75aecca25441a32a9
星巴克(文化园西路店),39.811811,116.500901,大兴区经济技术开发区文化园西路6号17号楼一层101-1单元,a5ecebcd8864cc2a72210b21,(010)67864302,1,a5ecebcd8864cc2a72210b21
味纯私房菜(中冀斯巴鲁店),39.790925,116.524301,北京市大兴区荣华南路16号中冀斯巴鲁C座2楼,,"(010)59767288,13301367999",1,a4dec0d5862626db36b06cd6
e咖众创空间,39.805079,116.543811,亦庄经济技术开发区科创七街29号(OBE互联网创新园院内),a10ea1a9ea6617461d580066,"(010)67856388,18201412936",1,a10ea1a9ea6617461d580066
隆盛咖啡(荣昌东街),39.790094,116.531946,经济技术开发区荣昌东街7号,1aae145620d255e43686f40d,,1,1aae145620d255e43686f40d
探梦空间,39.802927,116.49251,境界家园29号楼3101,,,1,299207e3e964535607fef53b
莱恩棒球酒吧,39.791759,116.505117,地盛西路BDA国际广场E座品味大厦8层,,,1,fae5fc32b23b7e578936ee26
亦咖,39.787333,116.52812,北京市大兴区景园北街2号52-1,773897c78f1a1dc68bf15d57,,1,773897c78f1a1dc68bf15d57
觅蜂coffee,39.808796,116.509488,北京市大兴区经济技术开发区荣华中路10号1幢A座亦城国际中心A座一层,,(010)67872322,1,3856b0222bb8e3a509b93a3d
星巴克(同济南路店),39.791142,116.536816,大兴区亦庄经济技术开发区同济南路1号院,,(010)57388157,1,68bc17797b55d957f6c59cf1
星巴克(大族溢彩城店),39.799322,116.51933,大兴区荣华南路2号院大族广场1层F1-37号,,(010)67837840,1,437daae21a4fd4da7369d3d0
蘑蘑其朵美式爆米花(亦庄创意生活广场),39.817093,116.509522,文化园东路6号亦庄创意生活广场F1层,,,1,8b0c43604343f43814c8f6d4
星巴克(大族溢彩城2店),39.798414,116.518089,大兴区荣华南路2号院大族广场T2三层,,(010)67850831,1,4994e4a1c1597f0aaecb661b
青春咖啡,39.785853,116.507524,经济技术开发区地盛南街1号青春产业园1层,b1636c35ba3f8440c13644a0,,1,b1636c35ba3f8440c13644a0
WI  COFFEE仙度氏咖啡体验店,39.810795,116.5087,北京经济技术开发区力宝华联商场南门诗礼庭6号楼202(平安典当行楼上),9b335812351028f91676436c,,1,9b335812351028f91676436c
格兰云天国际酒店汇宾阁,39.78624,116.524479,大兴区荣华南路15号(中航技广场10号楼格兰云天国际酒店一层),,(010)67897888,1,e4abf6d087dc29db120daa98
代文瑞咖啡,39.772766,116.539833,北京市大兴区经济技术开发区西环南路18号汇龙森c座109,,,1,58b21f54df6e28db9e95de3a
亦庄创投汇IC咖啡,39.790305,116.531043,经济技术开发区荣昌东街隆盛大厦C座2层,f2bf634fb5e6250604026f96,,1,f2bf634fb5e6250604026f96
橙子水晶酒店咖啡厅,39.817176,116.554054,北京市通州区科创五街东创大厦橙子水晶酒店内,,,1,147a694bd5cd44948bf15d90
STARBUCYS COFEE,39.812477,116.502129,林肯公园B区,,,1,9cf34d8e3508c4b338e4a61c
Coffeehouse咖啡厅,39.80827,116.512213,大兴区红大北路7号,,,1,af49824752db0b6d4f3a591e
咖啡之翼(亦庄店),39.785363,116.564299,北京市通州区北京经济技术开发区经海三路经开壹中心底商109,5bbdd102264259e04e2fdf39,17701340521,1,5bbdd102264259e04e2fdf39
锋创咖啡厅,39.788413,116.575337,经海路锋创科技园5号楼一层,1bd03f035ae1e0ac3a13fd44,(010)56228766,1,1bd03f035ae1e0ac3a13fd44
costa(京东大厦店),39.792581,116.56918,北京市通州区亦庄经海路与科创十一街路口B3一楼,6a88149be1478a5e6f3e1bfb,,1,6a88149be1478a5e6f3e1bfb
京东商城集团总部-咖啡厅,39.792345,116.5698,北京市通州区京东大厦B座1楼,,,1,3f3c56a904ac09b60e3dda12
星巴克咖啡,39.765043,116.590147,北京市通州区,,,1,497f5698348cb5f1f7eafcae
星巴克(大红门西路店),39.850991,116.391604,丰台区大红门西路26号11号商业楼首层L1-01单元,550fd5f907f8eb60931fc9c6,(010)56530792,1,550fd5f907f8eb60931fc9c6
上岛咖啡(公益西桥店),39.840218,116.378013,北京市丰台区名流未来大厦F2,2527be1ed9ef27aa4bfc8df8,(010)87570202,1,2527be1ed9ef27aa4bfc8df8
星巴克(北京南站三店),39.871575,116.385282,丰台区永外大街12号北京南站换乘层中区商业,9ab8722e9f7e90e8fa0cada8,(010)83100361,1,9ab8722e9f7e90e8fa0cada8
星巴克(槐房西路店),39.820632,116.373574,丰台区南苑西路39号槐房万达广场一层1083号,5c7d616223a8922e95f08cbd,(010)67987897,1,5c7d616223a8922e95f08cbd
星巴克(百荣世贸商城店),39.866201,116.403078,东城区永定门外大街101号百荣天海国际商贸城一层,,(010)67260681,1,060b51835dc916740bccddb3
肯德基现磨咖啡馆（洋桥银泰店）,39.850731,116.392239,北京市丰台区大红门西路19号,bdce2907abf3ca97fa42b27f,(010)56530673,1,bdce2907abf3ca97fa42b27f
上岛咖啡(景泰路店),39.870078,116.419981,北京市东城区景泰路安乐林路10号,9ff5a7dd1dd99242fb22134a,(010)67243653,1,9ff5a7dd1dd99242fb22134a
上岛咖啡(右安门店),39.87306,116.371309,右安门外大街右外大厦4层,bd5c33fe37de93d743ab9af9,(010)57743492,1,bd5c33fe37de93d743ab9af9
花舍咖餐(光彩路店),39.856388,116.421566,丰台区光彩路贾家花园3号院20号楼(光彩体育馆附近),e308284844db98a6b24c49ee,"(010)87822264,(010)87822254",1,e308284844db98a6b24c49ee
星巴克(北京南站第二咖啡店),39.870684,116.385914,永外车站路12号北京南站B1层,42427c9006586c3df82d6167,(010)83108397,1,42427c9006586c3df82d6167
STARBUCKS北京南站第一咖啡店,39.870348,116.386606,丰台区永定门外大街北京南站2层,ed12f7fd09060fbbd8ecedc0,(010)83108677,1,ed12f7fd09060fbbd8ecedc0
costa咖啡店,39.840177,116.376297,北京市丰台区南四环中路城南嘉园14号北京华联F1,2e8cf7374834ea18d4851f36,(010)58310885,1,2e8cf7374834ea18d4851f36
太平洋咖啡(北京南站店),39.872086,116.385476,北京市丰台区永外大街12号北京南站F2,07da85d3c608c660843304a2,,1,07da85d3c608c660843304a2
旺果咖啡,39.874836,116.380207,北京丰台区开阳路1号瀚海花园大厦1楼(开阳桥南),b292b3aa89014e4fbe48425f,(010)83973808,1,b292b3aa89014e4fbe48425f
COSTA COFFEE(万达广场店),39.819932,116.374557,北京市丰台区南苑西路39号万达广场F1,6db4ba47e8d51614276e98a1,(010)67987693,1,6db4ba47e8d51614276e98a1
星巴克(北京南站第五店),39.872003,116.385684,北京市丰台区永外大街12号北京南站北进口内测东部通道区域地上一层,60c14167cb48e3f833169b58,(010)83106951,1,871fa012172dcc835cbe86f6
星巴克(北京南站第六店),39.870582,116.386947,丰台区永外车站路12号北京南站B1层,,(010)83106096,1,fb7cfaea8347c582ca1b9546
回音廊咖啡厅,39.86786,116.42091,丰台区定安东里1号中成天坛假日酒店1楼(近赵公口桥),31f9101b51859aa026e0a01e,,1,31f9101b51859aa026e0a01e
千客楼咖啡茶餐厅,39.844936,116.421983,北京市丰台区光彩路66号彩虹城一区底商,34e48508889adafbd8d8917d,(010)87866867,1,34e48508889adafbd8d8917d
咖啡茶馆,39.845516,116.391278,马家堡东路121号七克拉美食广场院内7号楼1620室,19cd6c6e862f5c6eca1b95db,"13366406836,17319257585",1,19cd6c6e862f5c6eca1b95db
上岛咖啡(北京南站店),39.871999,116.38561,北京市丰台区永外大街12号北京南站F2,93df0dc37f232a32892fb5ee,(010)83106669,1,93df0dc37f232a32892fb5ee
CAFFEBENE(北京南站店),39.871585,116.386051,永定门外大街北京南站2层,6a125314b5184c73cf06a4e3,,1,6a125314b5184c73cf06a4e3
luckincoffee(搜宝商务中心店),39.86065,116.374552,丰台区南三环西路16号2号楼B1层103号西区16号,,4000100100,1,d1c50ec190009ae517c8f6c6
墙上的咖啡,39.873359,116.366145,右安门外玉林里1号1幢1层105,,13910297773,1,bf76547cfea5267572455b00
zocoffee,39.874362,116.372478,北京市丰台区右安门外大街2-5,,,1,9c945ec12c6b75520482c2cf
河南商务酒店-咖啡厅,39.869669,116.398857,西罗园一区甲2号,3da3f5678bdb53ee72210b15,(010)87869688,1,3da3f5678bdb53ee72210b15
36杯免费咖啡厅,39.862197,116.403228,北京市丰台区南苑路3号附近,,,1,ed5508a529ef14dd3517dc66
星巴克(紫芳园店),39.868037,116.446068,北京市丰台区方庄路7号商铺方庄紫芳园四区3号楼一层7号,,"(010)87211072,(010)87211193",1,da38355cd84d14158b2fb535
星巴克(方庄通润商务会馆店),39.872292,116.432365,丰台区方庄路璞瑅公寓紫芳园四区3号楼底商7号商铺,9bd0e4d5f5ec436e81288abb,(010)87211072,1,9bd0e4d5f5ec436e81288abb
星巴克(石榴中心店),39.847954,116.428699,丰台区榴乡路88号24号楼1层102室,,(010)56762241,1,b3fac3726d226a2f4251c075
星巴克(成寿寺路店),39.862747,116.453461,丰台区南三环东路成寿寺路2号北京分钟寺阳光新生活广场一层A129号,5554aaac9ee976c088fc06e6,(010)67606685,1,5554aaac9ee976c088fc06e6
群咖啡(方庄店),39.867984,116.447109,北京市丰台区紫芳园四区3号楼119号,bc997ddd4b895a1077026941,(010)87617155,1,bc997ddd4b895a1077026941
COSTA COFFEE(方庄时代live店),39.871634,116.441821,方庄环岛东侧方庄时代商场一层(哈根达斯旁边),,(010)67607440,1,55c15c87dd3123f37bf7964c
猫小咖猫主题咖啡厅,39.866132,116.469307,十八里店十里河商业街1610号,,,1,6fcc455a93ab48a5774ff1b1
Cloudiya Coffee,39.851358,116.434111,北京市丰台区宋家庄路69号西南70米,,"(010)87653003,15901118090",1,1359368e945f0051734b872f
luckincoffee(石榴中心店),39.847614,116.429665,丰台区榴乡路石榴中心10号楼1层101-4号,,4000100100,1,972b943c2d861340e6e965f4
Puntocafe,39.871243,116.468294,东三环南路98号1幢1层105室,bca86002eb86d7b10bccdd98,,1,bca86002eb86d7b10bccdd98
北京天天家酒店-咖啡厅,39.863741,116.478592,周家庄134号北京天天家酒店1层,6dc7328c245d442f2102208d,(010)67488899,1,6dc7328c245d442f2102208d
创客空间,39.871102,116.468903,十八里店东三环南路98号高和蓝峰大厦22层,a109acaebe0585f5223bf292,,1,a109acaebe0585f5223bf292
瑞幸咖啡,39.847196,116.42962,北京市丰台区石榴庄路1号,,,1,64b17c73e3849baab23c815d
星巴克咖啡(北京久敬庄路咖啡店),39.825328,116.429574,大兴区旧宫镇久敬庄路临1号,,(010)67066836,1,4d3ff1955c204cb2931fc91f
西江月茶室,39.869915,116.445967,北京市丰台区方庄路紫芳园三区1号楼01室(近紫芳路),e6ee2fd2e59cef512a11d181,,1,148f5c82602ea886b6147f99
皮咖啡,39.861171,116.443121,北京市丰台区南方庄乙56号,,"18515811158,13691022303",1,5a74f9cbffade209b45f1e3d
COWO酷沃竞选创业咖啡,39.863668,116.435975,北京市丰台区蒲黄路48号,,,1,787e16a0ff300e85c27da2d6
Cloundiya Coffee,39.851351,116.434129,北京市丰台区宋庄路71号院8号西北70米,,"(010)87653003,15901118090",1,3899b010c4aec081f50e77d2
时光北因我岸咖啡屋,39.842173,116.472939,南四环东路十八里店南桥西北角元汉堂大厦东楼九层,,,1,5ad01c2e50507f66d3ff23f4
微觅vimi啤酒便利店,39.873146,116.436746,北京市丰台区方庄环岛红剑综合停车楼16-9号,,(010)87677866,1,a68132e3dc75750242e19286
迪欧,39.860596,116.490343,北京市朝阳区周庄路308号北100米,,,1,13a47d69852485738605bf9a
咖啡庄园咖啡设备4s店,39.847801,116.479855,十八里店南桥居然酒店用品城1-003,,,1,0ffd508a6a0888fe2b11d147
咖啡零点吧,39.851453,116.433976,宋庄路71号院1号楼扑满山1号楼1层,,,1,87353b98c6091898ce04ef7c
仟枫咖啡酒店用品一站式采购(朝阳王四店),39.874643,116.543283,王四营桥东新东郊批发市场东区一层B017-018B025-026,d14d556b6e5d320a167643cf,18911212981,1,d14d556b6e5d320a167643cf
亿品皇咖啡(新东郊商城店),39.874164,116.541487,北京市朝阳区京哈高速新东郊商城1层,,"(010)56250711,15811438011",1,7c0c32429cc46fe42dfaa7e3
威士特咖啡(新东郊商城店),39.874829,116.543437,京哈高速新东郊商城1层,,,1,c8f9975fe8bda70e250bd029
大尊咖啡,39.874426,116.543034,北京市朝阳区王四营新东郊商城东一门咖啡一条街B13-15,,,1,0619785646392e3ac6f025f9
贵族味道,39.852199,116.581628,大鲁店北路9号,932a49db5ed69a21cd04efe6,18514813862,1,932a49db5ed69a21cd04efe6
野不羁,39.862452,116.565977,北京市朝阳区黄厂路1号院易心堂文创园13B栋一层捌零玖零音乐产业园对面,,17777826426,1,9beea7c887b62f8ee0110330
BERRY BEANS咖啡,39.900791,116.398718,朱家胡同7号,0a9248bca81d613d744ff18b,(010)83197503,1,0a9248bca81d613d744ff18b
星巴克(北京坊店),39.904332,116.403278,西城区煤市街廊房头条13号院3号楼1-3层,,(010)63156703,1,b0229e1d47e43ea72806ceaf
漫咖啡(崇文门店),39.903138,116.419,祈年大街18号院1号楼兴隆国际大厦1层,29c2c396c2c5d45794ec840c,(010)67019086,1,01eade73516ac5c09e82eae5
莲coffee,39.929872,116.369533,北京市西城区阜成门内大街185号白塔之光3层,f2879383db79650b79b55c03,(010)66551588,1,f2879383db79650b79b55c03
咪咕咖啡(北京西单店),39.91582,116.37741,北京市西城区华远街11号置地星座E座,29ddf504ef1b5b42d618b7f5,(010)52692909,1,29ddf504ef1b5b42d618b7f5
1901咖啡(西四店),39.928917,116.384742,北京市西城区西安门内大街101,31f9101b60d1e9a026e0a032,(010)66160335,1,31f9101b60d1e9a026e0a032
星巴克(金树街店),39.923146,116.368206,西城区金城坊街金融街公寓F座9-11号,7a2554c8df05f29fafee7ad9,(010)66220225,1,7a2554c8df05f29fafee7ad9
星巴克(北京东方广场三店),39.915373,116.419334,东城区东长安街1号北京东方广场东方新天地商场平台层P-W18-10号,,(010)85187651,1,0e4fc64e1d5cb992d2f49e64
熊煮咖啡BEARBREW,39.931086,116.370323,北京市西城区白塔寺东夹道26号,0171c3e67c776a6f364aaed6,17612282405,1,0171c3e67c776a6f364aaed6
METAL HANDS(前门店),39.904989,116.407823,东城区西打磨厂街228号,,,1,ca6bff9ff94fce79bda240eb
星巴克(万博苑店),39.877876,116.371102,西城区右安门内大街72号万博苑7号楼王府井购物中心1层,f57aa0c53e2686874d776e44,(010)83570692,1,f57aa0c53e2686874d776e44
漫咖啡(银泰店),39.923019,116.418349,北京市东城区王府井大街88号,d2aa09d7f4b8ac381329356c,(010)59785848,1,d2aa09d7f4b8ac381329356c
星巴克(前门大街店),39.904636,116.404167,东城区前门大街1-1号,d5464cf8d62a7c4efda77854,(010)63027966,1,d5464cf8d62a7c4efda77854
星巴克(英蓝国际店),39.926326,116.364273,西城区金融大街7号英蓝国际金融中心首层F111-F112单元,7c5e480b169061adacb22ab8,(010)66555918,1,7c5e480b169061adacb22ab8
北京金融街丽思卡尔顿酒店大堂吧,39.92116,116.370201,金城坊东街1号丽思卡尔顿酒店1层,922b3d29d1c75a773a04b18b,,1,922b3d29d1c75a773a04b18b
星巴克(北京王府井店),39.920371,116.416027,东城区王府井大街253号王府井百货大楼首层,24d05508601155b61288245c,(010)65129138,1,24d05508601155b61288245c
星巴克(西单大悦城二店),39.917419,116.378834,西城区西单北大街131号大悦城(西单店)F1层101-XZL号,7d5f3a0a6dc863522cb90847,(010)58312897,1,7d5f3a0a6dc863522cb90847
星巴克(永定门店),39.876754,116.396185,东城区永定门西滨河路8号院7楼中海地产广场101东塔02单元,92467dd40384c0ac843304fe,(010)57837720,1,92467dd40384c0ac843304fe
星巴克(大栅栏店),39.903924,116.400664,西城区大栅栏街道弓字胡同10号,b078dad61170502828201aab,(010)63132022,1,b078dad61170502828201aab
星巴克(北京庄胜崇光店),39.90179,116.382006,西城区宣武门外大街8号北京庄胜崇光百货新馆B1层,3c0ea7c5510b5685fbf0cbcd,(010)63104865,1,3c0ea7c5510b5685fbf0cbcd
星巴克(西单北大街第二店),39.916096,116.379766,西城区西单北大街133号西单君太百货二层,a475b7931fbb8651f4e73bc5,(010)66014090,1,a475b7931fbb8651f4e73bc5
星巴克(金宝大厦店),39.92229,116.426245,东城区金宝街89号金宝大厦写字楼一层04号,edd64ce1378568883fe23155,(010)85221661,1,edd64ce1378568883fe23155
星巴克(新东安店),39.921023,116.418487,北京市东城区王府井大街138号北京apmB1,8f1bceaa3551bf1b2fb96dd9,(010)65255710,1,8f1bceaa3551bf1b2fb96dd9
星巴克(北京金街咖啡店),39.915983,116.41682,东城区王府井大街301号新燕莎金街购物中心一层MF105-1-MF105-2商铺,478bdcd1b2e182c544e27427,(010)65699190,1,478bdcd1b2e182c544e27427
星巴克(天坛东路店),39.892659,116.426868,东城区天坛东路46号红桥市场1层001单元,3a1bae3d74327a3443ab9a93,(010)67113708,1,3a1bae3d74327a3443ab9a93
太平洋咖啡(前门店),39.901168,116.404778,北京市前门大街64号2层,52160ad36ea4a3aa8c1a8962,(010)65115341,1,52160ad36ea4a3aa8c1a8962
福叁咖啡馆,39.902348,116.398386,北京市西城区杨梅竹斜街71号,,,1,34b66097bef6655d30169b39
星巴克(西单北大街店),39.919882,116.380786,西城区西单北大街110号巴黎老佛爷百货F2层,0db0d230133a8a0b364aae76,(010)63211220,1,0db0d230133a8a0b364aae76
咔咖,39.909184,116.382333,北京市西城区油坊胡同28号,0aabbe5603df5bcac4f02514,(010)59739258,1,0aabbe5603df5bcac4f02514
星巴克(北京王府井二店),39.918522,116.416283,东城区王府井大街269号1号楼B1层-102号商铺,,(010)65255196,1,0bf445193ffcd34f8605bf11
星巴克(北京百盛店),39.914575,116.365455,西城区复内大街101号百盛购物中心复兴门店北楼F1层,b533ea4af3948a584f6d465e,(010)66037275,1,b533ea4af3948a584f6d465e
COSTA COFFEE(东方新天地店),39.91533,116.422694,东长安街一号东方广场东方新天地1F层A501,2621fe33111aa495a1a93487,(010)85189650,1,2621fe33111aa495a1a93487
阿亿咖啡(宣武门西大街店),39.905921,116.372228,北京市西城区宣武门西大街乙103-2号,9fbfeef24838775cece4a5e8,(010)66018799,1,9fbfeef24838775cece4a5e8
inCOFFEE咖啡体验店,39.890792,116.38388,菜市口大街6号院4-10号,684a1daf29e1367d43ab9ad5,(010)83985382,1,4268e115bdb3cd4610293501
袈蓝公社咖啡厅,39.896167,116.390857,北京市西城区南新华街177号-31层,,,1,be71ac0f8a251b17028972b5
星巴克(北京新世界店),39.904558,116.424536,东城区崇文门外大街3号新世界百货崇文店综合馆F1层,38c324496588b6964d776ee6,(010)67087068,1,38c324496588b6964d776ee6
肯德基(珠市口餐厅),39.897589,116.406285,东城区珠市口大都市街南八幢一层西侧,,(010)67071280,1,27c58048571e4dd8631c6780
COSTA COFFEE(金隅店),39.906012,116.366541,北京市西城区宣武门西大街129号金隅大厦101-103室,e36fc65865302610213bf230,(010)66417934,1,e36fc65865302610213bf230
1920cafe(虎坊桥店),39.8962,116.390816,南新华街177号4号楼105室,7a3575579d0f65b12b201aae,(010)83171920,1,7a3575579d0f65b12b201aae
蜜咖啡(广义街店),39.896287,116.362942,广安门内广义街乐凯大厦一层七号线广内站A口信息大厦鸿毛饺子北侧20米,3b3d2ad5e5d2be93c2f1cf20,,1,3b3d2ad5e5d2be93c2f1cf20
有术cafe,39.931042,116.366597,北京市西城区宫门口二条14号(北京鲁迅博物馆),,(010)66495755,1,260d69b3af6090a1a7c75664
星巴克(富卓大厦店),39.900265,116.381567,西城区宣武门外大街28号富卓大厦一层,2ef2651889da1d870b1cc7a8,(010)63185381,1,2ef2651889da1d870b1cc7a8
八角楼咖啡,39.930072,116.408589,景山前街10号,764672e5efb517b494ec845a,,1,764672e5efb517b494ec845a
NAMOC COFFEE,39.931384,116.415615,五四大街1号,13149e265ddd36bd4e6d46b4,(010)64014987,1,13149e265ddd36bd4e6d46b4
星巴克(复兴门内店),39.911845,116.37046,西城区复兴门内大街28号,c98982ba554459f76f3e1b76,(010)66055752,1,c98982ba554459f76f3e1b76
COSTA COFFEE(西单华威店),39.917676,116.380852,"北京市西城区西单北大街130号西单华威商城1楼(近西单华威商城,汉光百货,西单大悦城)",ae51e5c88f96f893e9f85390,(010)66010866,1,ae51e5c88f96f893e9f85390
CAFFEBENE(东四店),39.92978,116.423755,北京市东城区东四南大街甲11号,2f171fb961683dfbb6f42f19,(010)85110620,1,2f171fb961683dfbb6f42f19
致璞手工甜品咖啡店,39.930128,116.377013,阜成门内大街89号二层,ade5250ecdc60954d518b79b,(010)66156672,1,ade5250ecdc60954d518b79b
悦咖啡(天安门店),39.904468,116.405,东城区前门大街2号,b03033a2361017fe70210b76,(010)63329880,1,b03033a2361017fe70210b76
梅园书屋1923咖啡,39.930447,116.41164,五四大街28号,5e74d938a3fe2dbe764ff188,"13269173533,13121828786",1,5e74d938a3fe2dbe764ff188
嘉年华餐厅,39.884608,116.383837,陶然亭路12号京都瑞成大厦1层,b6a98f4eae482d0a364aae81,(010)83526676,1,b6a98f4eae482d0a364aae81
老房子1918咖啡厅,39.894874,116.396118,万明路11号东方饭店附楼1楼(近天桥茶馆),083a55fabe429060256e98b3,,1,083a55fabe429060256e98b3
和茶茶馆(陶然亭店),39.884864,116.392244,西城区陶然亭路2号一瓶小区9号楼底商109号(近陶然亭公园、一瓶小区、朱雀门、建设银行、克丽缇娜),2d41faeff21d8d8dd7b74e5f,(010)83953536,1,2d41faeff21d8d8dd7b74e5f
美思咖啡(牛街礼拜寺店),39.890622,116.370417,牛街20号楼1楼101,,(010)63587370,1,1e4525c719c03d7b57bfffbb
星巴克(太平桥大街咖啡店),39.92297,116.371727,西城区太平桥大街18号丰融国际2层203室,f41ac403777ab79214948eab,(010)66533400,1,f41ac403777ab79214948eab
诗意栖居咖啡馆(南池子店),39.920755,116.40926,北京市东城区南池子大街15号(故宫旁),bff8fa7de48300b9c8213d4d,13810792894,1,bff8fa7de48300b9c8213d4d
COSTA COFFEE(国瑞购物中心店),39.903644,116.42588,北京市东城区崇文门外大街18号国瑞购物中心F1,f4ef22f9e4bd112d79b55c6f,(010)67138002,1,f4ef22f9e4bd112d79b55c6f
星巴克(西单汉光百货商场店),39.915352,116.382378,西城区西单北大街汉光百货一层,7388dffd72b70df2d3ff230d,(010)66017188,1,7388dffd72b70df2d3ff230d
星巴克(西城远洋大厦店),39.911678,116.366554,西城区复兴门内大街158号远洋大厦首层G03A号,d4034eb3656edeefc036445e,(010)66416538,1,d4034eb3656edeefc036445e
COSTA COFFEE(北京长安兴融店),39.910764,116.367875,西城区闹市口大街1号长安兴融中心4号楼,4b881bba81312e8e7dc8768e,(010)58529279,1,4b881bba81312e8e7dc8768e
图吉纳咖啡,39.931263,116.425084,东四头条7号,ccfb9e85c62585f0e5e96550,(010)64037933,1,ccfb9e85c62585f0e5e96550
Elegance Coffee,39.89163,116.404538,北京西城区天桥南大街1号天桥艺术大厦A座1楼(中国版权保护中心办事大厅旁),e59d92f4b9cddb7dfa0cadaf,,1,e59d92f4b9cddb7dfa0cadaf
星巴克(北京新世界商场二店),39.902931,116.424037,崇文门外大街5号北京新世界商场青春馆B1层010009B号,60c4b50b8600aaa26fc02ca2,(010)67088033,1,60c4b50b8600aaa26fc02ca2
胜西奥咖啡,39.931194,116.386348,北京市西城区西什库大街31号6号楼106,5b436ee78c9daf71e3110395,(010)66115930,1,5b436ee78c9daf71e3110395
卡尔法咖啡(崇文门店),39.900818,116.424929,东城区崇文门外大街11号新成文化大厦A座102室(近地铁5号线磁器口站),1bf85b25b4223dbda1a93454,(010)67080330,1,1bf85b25b4223dbda1a93454
COSTA COFFEE(金树街店),39.922771,116.370731,北京市西城区金城坊街1号,96583922a90d1c01bd4842d2,(010)66290663,1,96583922a90d1c01bd4842d2
星巴克(崇文门外第一店),39.904133,116.426336,东城区是崇文门外大街18号国瑞城地下二层,341c35defb4d83a7e6073854,(010)67117065,1,341c35defb4d83a7e6073854
Esquires Coffee(富凯大厦店),39.920599,116.365986,金融大街19号富凯大厦1层大厅(月坛南桥),bcf3f246f0b996edd1f49eff,(010)66573878,1,bcf3f246f0b996edd1f49eff
PLAY书吧COFFEE,39.906846,116.380303,西城区宣武门内大街抄手胡同64号(繁星戏剧村内),580b538b2649de34d92f284a,010-66060698,1,580b538b2649de34d92f284a
王府井咖啡厅(华侨大厦店),39.929742,116.417789,北京市东城区王府井大街2号华侨大厦1楼,fbd169f981b270e79703195b,(010)65136666,1,fbd169f981b270e79703195b
COSTA COFFEE(凯晨世贸店),39.912044,116.371176,西城区复兴门内大街28号凯晨世贸中心中座一层C002(近民族饭店),593850fba1127244df1e52ce,(010)66019633,1,593850fba1127244df1e52ce
太平洋咖啡(金融街购物中心店),39.921778,116.367354,北京市西城区北京市西城区金城坊街2号金融街购物中心B1,befdb29209fb06f8861541aa,(010)66220271,1,befdb29209fb06f8861541aa
CAFFEBENE(天桥店),39.892073,116.404506,西城区天桥南大街1号天桥艺术大厦A座天桥南大街1号天桥艺术大厦B座1楼(中国版权保护中心办事大厅旁)楼(中国版权保护中心办事大厅旁),120924143795bde83a04b12e,"(010)83165005,(010)68003887-7336",1,120924143795bde83a04b12e
星巴克(崇文门外第二店),39.902921,116.425671,东城区崇文门外大街40号搜秀城一层,f0a25ca655481ef48f55ec67,(010)87108917,1,f0a25ca655481ef48f55ec67
costa咖啡厅,39.921871,116.371221,北京市西城区金融街街道丰汇园11号楼丰汇时代大厦一层西大堂costa咖啡厅,a60a030fee25dd1126e0a004,(010)58362636,1,a60a030fee25dd1126e0a004
太平洋咖啡(卓著中心店),39.923946,116.368441,北京市西城区武定侯街6号,f7d7a147c68aa858b5f42f25,(010)66290078,1,f7d7a147c68aa858b5f42f25
天顺庄茶馆,39.884828,116.393,陶然亭路2号一瓶写字楼四层,d222a25de3f43cc445e274c9,(010)83953153,1,8d1aad0ca5e8ec489d82eabc
北京饭店-莱佛士-作家酒吧,39.915085,116.415627,东长安街33号北京饭店莱佛士饭店1楼,bd4df479ac083ee72efaa7ab,,1,bd4df479ac083ee72efaa7ab
小样咖啡,39.884004,116.378758,经济日报社集团10号楼东方财富证券一楼,,"13146606001,15900000966",1,5766d51f6454361a4c6d466d
尚座精酿,39.90613,116.374782,北京市西城区佟麟阁路95号尚座大厦地下一层,9e4242de605fcffce6073889,13901393555,1,9e4242de605fcffce6073889
Soloist coffee co,39.922357,116.369832,北京市西城区金城坊街3号2层,cb99f60205e876983be4a674,(010)66061622,1,cb99f60205e876983be4a674
艾利根咖啡,39.891505,116.404558,天桥南大街1号天桥艺术大厦A座1楼(中国版权保护中心办事大厅旁),ae16bda1d204c21e0482c20d,(010)83165005,1,ae16bda1d204c21e0482c20d
国家大剧院-咖啡厅,39.911245,116.3962,国家大剧院1层公共空间东西两侧,a5097bfaca96a77af03cba52,(010)66550502,1,a5097bfaca96a77af03cba52
星巴克(灯市口天客隆店),39.925246,116.420731,东城区灯市口大街33号天客隆一层,,(010)65687017,1,98990ef3e92034182bd7ab71
Ikecafe,39.914358,116.377945,西城区华远街8号,62681e26e0469aeba8f72937,,1,62681e26e0469aeba8f72937
COSTA COFFEE(太平洋保险大厦店),39.923877,116.372522,太平桥大街28号太平洋保险大厦B座首层,d36fc8bea3492b4e734b87fb,(010)66016885,1,d36fc8bea3492b4e734b87fb
太平洋咖啡(国瑞购物中心店),39.905,116.425782,北京市东城区崇文门外大街18号国瑞购物中心F1,9866173d1aa6503c970319e5,(010)67113153,1,9866173d1aa6503c970319e5
民族饭店-磨坊咖啡厅(复兴门店),39.913865,116.373522,北京市西城区复兴门内大街51号民族饭店1层,2cc3c8e8a0a923cf4d2fdf62,(010)66014466,1,2cc3c8e8a0a923cf4d2fdf62
Noodle Bar,39.905308,116.423737,北京市东城区崇文门外大街3-18号贝尔特酒店1楼,c269b8a50f9178fc7ab55c29,(010)67081188,1,c269b8a50f9178fc7ab55c29
easy cafe,39.926709,116.365817,金融大街5新盛大厦1层,04c04c244914f95809a8d47d,(010)66553200,1,04c04c244914f95809a8d47d
欣妮咖啡厅,39.924496,116.419683,北京东城区灯市口大街88号天伦松鹤大饭店1楼,8d96925c003ce15cc0f1cf85,(010)58168999,1,8d96925c003ce15cc0f1cf85
爱科生活,39.914566,116.377994,复兴门内大街45号院东门,f6422d60bdc8074b97031939,,1,f6422d60bdc8074b97031939
咖啡厅,39.921292,116.425171,金宝街90-92号励骏酒店2层,d4f0e4135179cea583a00c26,010-85113388,1,d4f0e4135179cea583a00c26
星巴克(王府井大街店),39.921575,116.417786,东城区王府井大街138号新东安广场B1层B111-B112号,,4008206998,1,36eeab9b8a9cf83533621209
art&coffeestore,39.896029,116.390802,南新华街177-51920号,,,1,a27df2930bd7fa2a2afc4897
侨园饭店-咖啡茶吧,39.8759,116.383306,开阳路6号侨园饭店2号楼1层,649331ea9e217723b75f1e8b,(010)63038861,1,649331ea9e217723b75f1e8b
泓林小舍,39.91202,116.379845,宣武门内大街17号光大银行旁,02e6c4fadb87324f16c9053d,,1,02e6c4fadb87324f16c9053d
北京饭店-阳光咖啡厅,39.915246,116.41666,东城区东长安街33号北京饭店A座1楼(近王府井大街),c21db9e5e7dba69a00ff2d55,(010)65137766-1373,1,c21db9e5e7dba69a00ff2d55
恒奥咖啡厅,39.928573,116.369703,锦什坊街26号恒奥中心1层,96303e48f1af85bbeddfca88,(010)66066236,1,96303e48f1af85bbeddfca88
松鹤咖啡厅,39.92453,116.419675,北京市东城区灯市口大街88号天伦松鹤大饭店,923ffd004ad77aaed92f2873,(010)65138822,1,923ffd004ad77aaed92f2873
楼庭苑咖啡,39.914808,116.372829,复兴门内中京畿道17号楼民委招待所底商平房楼,87e4512f37f2dd577adbd226,18910951295,1,87e4512f37f2dd577adbd226
贵都大酒店-咖啡厅,39.895842,116.374015,广安门内大街217号贵都大酒店3层,108b1cea65017cb53586f410,"(010)51979888,(010)51979888-7500",1,108b1cea65017cb53586f410
荣宝斋咖啡书屋,39.901622,116.390632,北京市西城区琉璃厂西街4号,c7f7a0e7c3dfa4f374026989,(010)83162427,1,c7f7a0e7c3dfa4f374026989
国博咖啡馆,39.911356,116.407928,北京市东城区东长安街16号天安门广场东侧中国国家博物馆内,,(010)65119186,1,17b2773c38debec174e5b680
驿舍·咖啡·餐吧,39.918163,116.366675,金融大街甲26号金阳大厦1层(中国移动),,,1,d09479faf5c5686188f15d5f
北京王府井希尔顿酒店-行政酒廊,39.92077,116.419884,北京市东城区王府井东街8号王府井希尔顿酒店顶层,7870995d865b31f9b2077dd5,(010)58128888,1,7870995d865b31f9b2077dd5
麦咖啡(崇文门店),39.904012,116.424383,崇文门外大街3号新世界商场旁,976b75bfd9694077c42ba1b4,,1,976b75bfd9694077c42ba1b4
CAFFEBENE(王府井店),39.921997,116.417266,王府井大街淘汇新天2层2009号,5618664e5840e3cb96ca07d5,(010)65595658,1,5618664e5840e3cb96ca07d5
王朝广场咖啡吧,39.924029,116.418039,北京市东城区王府井大街50号天伦王朝酒店3层,453791c348992e29b8bd632d,,1,453791c348992e29b8bd632d
凡咖啡,39.89938,116.415004,北京市东城区珠市口东大街11号甲11号一层111室,fd9e17fdd71b6c700c0a7017,(010)53525001,1,fd9e17fdd71b6c700c0a7017
红墙咖啡厅,39.915194,116.413639,东长安街35号北京贵宾楼饭店2层,,,1,159b9ec27d41b110e81e9768
常青园咖啡厅,39.917516,116.382474,北京西城区西单横二条甲3号广州大厦1楼,23116913887e95e4734b875f,(010)58559988,1,23116913887e95e4734b875f
瑞幸咖啡(君太百货店),39.915919,116.379594,北京市西城区西单北大街133号北京君太百货B1,,,1,bdd2c06488a2494075e5b67d
瑞幸咖啡(丰铭国际大厦店),39.924113,116.374855,北京市西城区丰盛胡同20号丰铭国际大厦B座第1层101单元,,,1,6d9bc23afbd345035ed4fe7d
文咖馆,39.922936,116.372505,太平桥大街丰融园15号楼底商34号,,18513459639,1,a52fa677b5c670d515764362
新侨饭店-咖啡厅,39.907743,116.423319,北京市东城区崇文门西大街1号北京新侨诺富特饭店2层,8ab0dfc4f37c340fd8eced32,(010)65133366-2001,1,8ab0dfc4f37c340fd8eced32
陶然大厦-咖啡厅,39.876386,116.394909,马家堡路1号陶然大厦1层,f4bce9a5061f46b46240a9e6,,1,f4bce9a5061f46b46240a9e6
珍仕果鲜榨果汁吧,39.916791,116.379499,西单北大街131号西单大悦城购物中心2层,091e583ce0f9cefc2202203e,(010)66183162,1,091e583ce0f9cefc2202203e
都季餐厅咖啡厅,39.917533,116.413459,华龙街与南河沿大街交叉口东北50米,,,1,ac3ec52b619257a62b201a94
国博茶艺馆,39.911155,116.407692,北京市东城区东长安街16号天安门广场东侧中国国家博物馆内,,,1,c83b82fb554bd5dd76e5b6e5
KUMA Cafe,39.921192,116.419067,北京市东城区王府井大街138号北京apmF3,,(010)65599521,1,624a042173867056eb1e9716
北京贵宾楼饭店-喷泉酒吧,39.915191,116.413639,北京东城区东长安街35号北京贵宾楼饭店3楼,12013bc6f6b0a0b3246e98f4,(010)65137788,1,12013bc6f6b0a0b3246e98f4
蜜语芝间(新燕莎金街购物广场店),39.915956,116.416998,北京市东城区王府井大街301号新燕莎金街购物广场B1,,,1,2339a456f88be81028201a47
中国美术馆-内咖啡厅,39.931489,116.416097,东华门街道五四大街1号,,(010)64014987,1,8549b7b055a88c0979b55ca8
图兰朵(崇文门店),39.904362,116.426029,北京市东城区西花市大街国瑞城紫金台D座6层,,,1,f2877fe0180cac2be8e582ec
猫爪咖啡Paws Coffee,39.90455,116.379491,宣武门外大街甲1号环球财讯中心C座B1层,,,1,039ca4c51287ca03a1046410
星巴克(泰康国际大厦店),39.923676,116.36898,西城区武定侯街2号泰康大厦1层,,(010)66290609,1,d01377bbd879d0264d2fdfe6
旅舍咖啡,39.929868,116.369614,北京市西城区阜成门内大街181号,,,1,38057c69ef8788f893114cb4
Pentalounge面吧,39.90533,116.423634,崇文门外大街3-18号贝尔特酒店1楼,c417b6d0c4972b601c3894c4,,1,c417b6d0c4972b601c3894c4
北京丽晶酒店-茶室,39.922266,116.425253,金宝街99号北京丽晶酒店,6205291a99e7ac81077ce83c,,1,6205291a99e7ac81077ce83c
木棉花酒店-咖啡厅,39.921359,116.411882,东华门大街16号,eedac8d86adf0b4baecb6679,"(010)65259988,(010)65289512",1,eedac8d86adf0b4baecb6679
东方饭店咖啡厅,39.894481,116.395954,北京市西城区天桥街道万明路11号东方饭店咖啡厅,,,1,a4f04e199f2fd778f82d61fd
漫耳MANER COFFEE,39.898912,116.422005,北京市东城区珠市口东大街2号丰泰大厦一楼110室,,18210213769,1,fa04d099771c2f14c6effb57
星巴克(金融大街店),39.924743,116.365661,西城区金融大家甲9号金融街中心1-101号,,(010)66023479,1,409be82671fd6dd99868b4ce
coffee,39.905994,116.390198,北京市西城区宣武门外大街2附近,7da4ea7bdf22b96aa2d230b2,,1,7da4ea7bdf22b96aa2d230b2
宣武门商务酒店-咖啡厅,39.905111,116.38143,宣武门东大街24号宣武门商务酒店2层,0ad0eae6e9d5bd19bca82248,(010)63014499,1,0ad0eae6e9d5bd19bca82248
星座不求人,39.920292,116.418579,北京市东城区王府井大街新东安商场APM103a地下1层B103B,,,1,ae7072e56134b78b9e9d684b
山水宾馆-咖啡厅,39.916476,116.378176,北京市西城区皮库胡同45号山水宾馆1层,5b967a2fb31f3515ca1b9598,(010)66063388,1,5b967a2fb31f3515ca1b9598
bakery cafe(新世界百货店),39.903143,116.423729,北京市东城区崇文门外大街3号新世界百货F1,ca90de3a9be43dec1e1d1182,,1,ca90de3a9be43dec1e1d1182
咖啡猫,39.918137,116.380966,西单北大街120号西单商场(西单北大街店)B1层,a480fa4db8a6f7e4a11de981,,1,a480fa4db8a6f7e4a11de981
星巴克(金融大街店),39.924743,116.365661,西城区金融大家甲9号金融街中心1-101号,,(010)66023479,1,409be82671fd6dd99868b4ce
coffee,39.905994,116.390198,北京市西城区宣武门外大街2附近,7da4ea7bdf22b96aa2d230b2,,1,7da4ea7bdf22b96aa2d230b2
COSTA COFFEE(首都机场店),39.913099,116.364411,北京市西城区复兴门内大街101号百盛购物中心复兴门店南楼(正门)3层,ddbdc1cdd98861a39d9d6881,,1,ee822a6ed29d7b70704b875c
WalkerOne(大悦城店),39.915911,116.379672,北京市西城区西单北大街133号北京君太百货1层,f3c2373ca823d54bd22dd644,,1,e7ed033c513935f1901fc949
漫点仁政生活馆,39.902988,116.382818,北京市西城区,,,1,fbaf668e5baf2a59a80dd80e
宣武门商务酒店-咖啡厅,39.905111,116.38143,宣武门东大街24号宣武门商务酒店2层,0ad0eae6e9d5bd19bca82248,(010)63014499,1,0ad0eae6e9d5bd19bca82248
星座不求人,39.920292,116.418579,北京市东城区王府井大街新东安商场APM103a地下1层B103B,,,1,ae7072e56134b78b9e9d684b
山水宾馆-咖啡厅,39.916476,116.378176,北京市西城区皮库胡同45号山水宾馆1层,5b967a2fb31f3515ca1b9598,(010)66063388,1,5b967a2fb31f3515ca1b9598
bakery cafe(新世界百货店),39.903143,116.423729,北京市东城区崇文门外大街3号新世界百货F1,ca90de3a9be43dec1e1d1182,,1,ca90de3a9be43dec1e1d1182
咖啡猫,39.918137,116.380966,西单北大街120号西单商场(西单北大街店)B1层,a480fa4db8a6f7e4a11de981,,1,a480fa4db8a6f7e4a11de981
茗苑咖啡厅,39.908916,116.414086,东交民巷甲23号东交民巷饭店,,,1,7328fcd81f5cf2822fb17efa
D灰尘ISTRICT 9,39.923274,116.426824,北京市东城区,,,1,01fe5d87889296469cec2bae
TASTY HOUSE,39.921561,116.415863,东安门大街与王府井西街交叉口东50米,,,1,7fa36c8ec0b45b7aca09f024
卯咖啡,39.905199,116.395098,北京市西城区前门西河沿街186号,,(010)57094588,1,51daeb66b0dba83a9d9d688d
庭院时光,39.921262,116.380896,北京市西城区东斜街70号附近,,(010)66016072,1,a05c2e41705e24da2d4733f7
THE1511咖啡,39.903278,116.419283,北京市东城区东兴隆街47号,acc333410882929e715e807d,,1,c532dbda0c495632bda240c5
漫时光（魏公村店）,39.905851,116.425024,北京市东城区崇文门外大街3号新世界百货F1,,,0,24e830c9b7dc309b1de999a5
悦阁咖啡厅,39.917725,116.425608,北极阁三条与新开路胡同交叉口东北100米,ea2ba76daa0fe511441a32d8,,0,d0cfb0991110225e97031940
SAT(良乡S),39.919274,116.370175,北京市西城区太平桥大街111湘西大厦,c6c2bc38be42abc780a00cae,,1,8bda3fab53eafe6140e1924a
亿品皇咖啡(新东郊商城店),39.907221,116.37491,北京市西城区,1e7cc0c99edf6510b020a824,,0,9cf9fb730acd4bfc41d63e4e
星巴克(北京建外现代城店),39.910989,116.465916,北京市朝阳区东三环中路39号建外SOHO5号别墅1户,b7bfcb2ba4994352f32d8365,(010)58690273,1,b7bfcb2ba4994352f32d8365
漫咖啡(华贸店),39.917086,116.488301,北京市朝阳区建国路89号17,6eb641bdf482fabf3b221cdf,(010)65307381,1,6eb641bdf482fabf3b221cdf
千禧大酒店-大堂吧,39.922646,116.465835,北京市朝阳区东三环中路7号财富中心千禧大酒店1楼,0bcd58005e3899c85cbe861f,(010)85876888,1,0bcd58005e3899c85cbe861f
Friends‘ Cafe老友记主题店,39.925822,116.46108,朝外大街乙6号朝外SOHOA座6层0616室,aa40108b9d8d210cc5effb51,"(010)64070336,18601191315",1,aa40108b9d8d210cc5effb51
漫咖啡(广渠门店),39.898337,116.452344,广渠门外大街名敦道7号楼,cd7fed8e8f21c6a30869d92e,(010)87513628,1,70cd51230706fc8af7e73bc7
星巴克咖啡(嘉里中心第二咖啡店),39.919579,116.466338,朝阳区建国门外大街光华路1号嘉里中心商场2层111-2层204号,931850930e0c0baac9291565,(010)85298355,1,931850930e0c0baac9291565
云巢咖啡(首城国际店),39.897028,116.4751,广渠路36号首城国际6号楼底商百环大厦东侧,21dfcaa58b0782c5f503b801,(010)57484138,1,21dfcaa58b0782c5f503b801
星巴克(华贸店),39.914889,116.487165,朝阳区建国路79号华贸购物中心2层217-218号,25b3176ceadf254b87154184,(010)65305766,1,25b3176ceadf254b87154184
星巴克(中粮广场店),39.913077,116.436016,东城区建国门内大街8号北京中粮广场C座G130-132号,c866e14c8c6d46f7d7851fe9,(010)65674460,1,6b23beadb523d0191b11d5cf
星巴克(国贸四店),39.916637,116.466994,朝阳区建国门外大街1号国际贸易中心商城地下一层SB126-SB127号铺位,,(010)65050369,1,9314d6437ed67a7243e192c1
星巴克(东三环南路店),39.898462,116.466981,朝阳区东三环南路1号佳龙大厦101室,795bb4ef3068857fbfa82208,(010)67730519,1,795bb4ef3068857fbfa82208
花舍咖餐厅(广渠门店),39.900592,116.446268,白桥大街28号鸿润酒店1楼(近广渠门桥),3f9337d61622e8aaf7231054,(010)67166998,1,3f9337d61622e8aaf7231054
星巴克(温特莱店),39.918817,116.483097,朝阳区西大望路1号温特莱中心一层,d1641a74348aafbfc4f0255a,(010)65387097,1,d1641a74348aafbfc4f0255a
星巴克(北京万达广场店),39.914928,116.47954,朝阳区建国路93号新世界彩旋百货1层,7388dffd71140af2d2ff23f0,(010)65812558,1,7388dffd71140af2d2ff23f0
星巴克(北京银泰店),39.913043,116.4647,北京市朝阳区建国门外大街2号北京银泰中心B1层,db4b43148a8b4220d518b722,"(010)85171608,(010)85171658",1,db4b43148a8b4220d518b722
觅咖啡(双井店),39.904841,116.466429,北京市朝阳区双花园南里三区19-1号,1929bb8687b263818d77274e,(010)53369939,1,1929bb8687b263818d77274e
星巴克(北京西大望路第一店),39.899602,116.483352,朝阳区西大望路15号外企大厦B座1层,1140d73bcc33ca2309b93a28,(010)87723654,1,1140d73bcc33ca2309b93a28
星巴克(朝阳门SOHO店),39.928408,116.439242,东城区南竹杆胡同1号朝阳门SOHOB1-123号,ab5a57ef0715627c9222e0ef,(010)85197812,1,51f4a4d358509aa6f82213a4
星巴克(名敦道店),39.898806,116.454295,东城区广渠门外南街6号名敦道3号楼1层,6d21064da8f14e575bf6becc,(010)87224941,1,6d21064da8f14e575bf6becc
星巴克(芳草地大厦店),39.925738,116.455774,朝阳区东大桥路9号北京侨福芳草地D座1层,466a416abce804bd01294f9a,(010)85618515,1,466a416abce804bd01294f9a
星巴克(国贸第三咖啡店),39.918347,116.465091,朝阳区建国门外大街1号3号院二层3L215铺位,1b1e6792da1c06b3931fc95b,(010)85351834,1,1b1e6792da1c06b3931fc95b
星巴克(呼家楼店),39.926124,116.467315,呼家楼1号京广中心商务楼1层,7b235e0335d617e6764ff1da,(010)65973907,1,7b235e0335d617e6764ff1da
星巴克(国贸第二店),39.916647,116.466783,朝阳区建国门外大街国贸商城二层的NL205号铺位,e48d38ee7e26fcc7354aae1f,(010)65057909,1,e48d38ee7e26fcc7354aae1f
SEE YOU COFFEE(世外桃源店),39.926631,116.491393,北京市朝阳区东四环中路37号-西门,a8f03a4da70c305c6f3e1bfd,13911786221,1,a8f03a4da70c305c6f3e1bfd
i Coffee,39.894801,116.488497,北京市朝阳区西大望路珠江帝景B区152A,3331c953f66708b12fe67bab,(010)53350258,1,3331c953f66708b12fe67bab
星巴克(乐成中心店),39.899771,116.46887,朝阳区东三环中路22号乐成中心1层,,(010)67723170,1,f42a14e863727aafaaf0cd34
星巴克(丰联广场店),39.929626,116.445504,朝阳区朝阳门外大街丰联广场一层,c973f61d0eb6132ff40e7788,(010)65880503,1,c973f61d0eb6132ff40e7788
蜗牛咖啡馆(国贸店),39.912033,116.465711,朝阳区东三环中路建外SOHO东区6号楼0662E号,586a6140e536dc9a2cb17e47,18611527899,1,586a6140e536dc9a2cb17e47
星巴克(凯恒店),39.929779,116.439029,东城区朝阳门内大街2号凯恒中心B座1层04单元,69fcd6df9b5b7636ca291562,(010)85197361,1,69fcd6df9b5b7636ca291562
星巴克(新闻大厦店),39.913575,116.428377,东城区建内大街19号新闻大厦1层,122ef0c286ca4698fbdc851a,(010)65240649,1,122ef0c286ca4698fbdc851a
星巴克(北京富力家园店),39.90179,116.46747,朝阳区东三环中路63号富力大厦1层148单元,c879fa0195525553c909f057,(010)59037472,1,c879fa0195525553c909f057
星巴克(北京站第一店),39.909479,116.433737,北京市东城区毛家湾胡同甲1号北京站F2,,(010)51015915,1,af376890e20a72117ab55c41
小野咖啡,39.906008,116.490417,北京市朝阳区百子湾路16号-后现代城B区4号楼B座,1bf39fb7a4d4a17978f796eb,(010)67775467,1,1bf39fb7a4d4a17978f796eb
东方小驻COFFEE SHOP,39.875952,116.478394,北京市朝阳区松榆南路38号院2号楼底商,b9aac1da7cd321be5b109339,(010)56264811,1,b9aac1da7cd321be5b109339
每日烘焙咖啡,39.895728,116.488921,广渠路28号225-1室,,"18610647759,(010)58631116",1,64a0d59a40c27cf499005000
COSTA COFFEE(丰联广场店),39.929303,116.445286,北京市朝阳区朝阳门外大街18号丰联广场F1,dfc112d8996c57ae902ca32d,(010)65889892,1,9f12da23ae37c83e940319e3
星巴克(金宝汇店),39.921442,116.427414,北京市东城区金宝街88号金宝汇购物中心F1层,8dfbb97c8618487df4e73baa,(010)65136020,1,8dfbb97c8618487df4e73baa
星巴克(北京LG大厦店),39.913225,116.455463,朝阳区建国门外大街乙12号北京双子座大厦首层L118号,a12baa4092dc284fe956faa1,(010)65686282,1,a12baa4092dc284fe956faa1
星巴克(财富购物中心店),39.923065,116.46491,朝阳区东三环中路7号财富购物中心一层,,(010)65309173,1,4f4bf3c36b56d7ad74026989
星巴克(世贸天阶店),39.922034,116.457815,北京市朝阳区光华路9号世贸天阶中心A座一层L123号,33fbfa832d8957d80bf5eb4d,(010)65871579,1,33fbfa832d8957d80bf5eb4d
上岛咖啡(劲松店),39.888454,116.467257,北京市朝阳区劲松三区华腾大厦首层,f3c2373ca900d24bd32dd6a1,(010)87730071,1,f3c2373ca900d24bd32dd6a1
星巴克(建国路店),39.913154,116.482038,朝阳区东三环中路39号建外SOHO5号别墅01户,dc449fab6654b155bbbd63b4,(010)58690273,1,dc449fab6654b155bbbd63b4
17Cafe,39.924361,116.462587,北京市朝阳区朝阳门外大街6号院新城国际1号楼101b,860942bde326c0f0c16c140c,18600149523,1,860942bde326c0f0c16c140c
星巴克(朝外悠唐店),39.927674,116.446727,朝阳区三丰北里2号楼悠唐购物中心1层,15e1e85ebc7b8abb5810935c,(010)85728421,1,15e1e85ebc7b8abb5810935c
星巴克(东三环北路第三店),39.926896,116.470136,朝阳区东三环北路38号院1号楼1层101-7室,,(010)85280910,1,fb29e54ae635a93848cc4a9d
星巴克(金地中心店),39.914856,116.480708,朝阳区建国路91号金地中心L2层L201店铺,192291364570e5766d20b915,(010)85903358,1,192291364570e5766d20b915
巴克咖啡(万通中心店),39.925191,116.462916,朝阳区朝阳门外大街甲6号一层2011-2012号商铺,2aeb6f33157dd077dc1e52e8,(010)59070313,1,2aeb6f33157dd077dc1e52e8
COSTA COFFEE(中环世贸店),39.912669,116.463864,朝阳区建国门外大街甲6号中环世贸中心D座一层,c8b5cdefef00da1a130daad9,(010)65630616,1,c8b5cdefef00da1a130daad9
Cafe Flatwhite(建国门外交公寓店),39.917196,116.445179,朝阳区秀水街1号建国门外外交公寓13号楼,e93761f64ea1be15233bf2a1,(010)85326775,1,e93761f64ea1be15233bf2a1
luckincoffee(SOHO现代城店),39.913018,116.48216,建国路88号7-10号楼1至2层0504(SOHO现代城C座0504),,4000100100,1,010ad391e713ef26b54f54d7
No1酒吧,39.926708,116.447711,朝外市场街22号,c57aee3bd8265c0832870ab9,"15500966988,(010)80456956",1,c57aee3bd8265c0832870ab9
麦隆咖啡(北京双井店),39.899639,116.469071,北京市朝阳区东三环中路乐成中心F1,,(010)67704360,1,293507629d886ea1abf0cd63
星巴克(赛特购物中心店),39.913314,116.44836,朝阳区建国门外大街22号赛特购物中心B1层,3da907f37ce2f94ab220a8a1,(010)65155228,1,3da907f37ce2f94ab220a8a1
闹公馆(Now Mansion),39.90615,116.49017,朝阳区百子湾路百子园4号楼,b9d07bec51b7a6799222e084,13911970695,1,b9d07bec51b7a6799222e084
Moka Bros摩卡站(双井店),39.899532,116.469495,北京市朝阳区东三环中路22号楼一层1-108号,,,1,8fb0d9b4ae522557a5da3956
luckincoffee(东方梅地亚店),39.918253,116.479793,朝阳区光华路4号院2号楼1层105,,4006692002,1,f7a1317d339219f24354d738
COSTA COFFEE(北京SKP店),39.915491,116.48535,北京市朝阳区建国路87号北京SKPF5,d1b538e449aea87ac6effb21,(010)85990869,1,d1b538e449aea87ac6effb21
生活客咖啡馆,39.900681,116.442178,花市东街南里东区12号楼底商,9ee681eae29ba2ff9222e04e,17600711507,1,9ee681eae29ba2ff9222e04e
SWANNA COFFEE,39.922833,116.461472,北京市朝阳区朝阳门外大街6号院-16-103,,18510897099,1,46aa45dc6c7b7b5bc1f1cf89
那儿咖啡(新城国际店),39.923071,116.46289,北京市朝阳门外大街6号新城国际公寓11号楼101店铺,50f7d1468f8cf8dd72210b4d,010-65970607,1,50f7d1468f8cf8dd72210b4d
星巴克(朝外二店),39.927668,116.445446,北京市朝阳区朝外南街悠唐生活广场北门附近,992ddbe663eb18ce230262d2,(010)85728421,1,992ddbe663eb18ce230262d2
星萌女仆主题咖啡厅,39.92451,116.459117,朝阳区东大桥路8号SOHO尚都北塔B136-B180,000254502eb877544bcc4a29,,1,000254502eb877544bcc4a29
太平洋咖啡(银河SOHO店),39.928231,116.439471,北京市东城区南竹竿胡同一号朝阳门SOHO二期B101商铺,21abbd9b278676b186420e4f,(010)65174829,1,21abbd9b278676b186420e4f
COSTA COFFEE(远洋光华店),39.92074,116.461529,景华南街5号远洋光华国际中心C座1楼(辉盛阁国际公寓对面),49a02a7a07bc5d592a201aa8,(010)85906090,1,49a02a7a07bc5d592a201aa8
星巴克(建国路二店),39.913202,116.471243,朝阳区建国路112号惠普大厦1层,,(010)65682385,1,54eb7036f83fe158acee7a66
星巴克(新族大厦店),39.915974,116.447942,朝阳区日坛路6号新族大厦首层,e71013e7639bac2597031957,(010)65954675,1,f4a33da9b2a4fc103110afa1
时光漫步客房咖啡厅,39.886615,116.477719,农光东里路农光东里小区11号楼,129558a396b10fdaa2a934f1,(010)67390380,1,129558a396b10fdaa2a934f1
星巴克(金汇路世界城店),39.923632,116.458478,朝阳区金汇路世界城商业街9号,8ce119ffee32afbcece4a596,(010)85907651,1,8ce119ffee32afbcece4a596
星巴克(东三环中路店),39.902436,116.467095,北京市朝阳区东三环中路63号北京富力中心1层,,(010)59037426,1,b9349c7af6dd501b0b69d953
luckin coffee(尚都国际店),39.925354,116.457885,朝阳区东大桥路8号尚都国际中心一楼,2b7fa9361242f84d901fc949,4000100100,1,2b7fa9361242f84d901fc949
CraftSecret精秘TaproomCoffee,39.906219,116.490416,朝阳区百子湾路16号后现代城B区4号楼C单元102号底商,,18600282887,1,a34dd4a672dbe41c48cc4aa3
luckincoffee(老番街店),39.927204,116.447893,朝阳区朝外市场街怡景园北里3号楼,,4000100100,1,438ade542c486c9af4b9164f
luckincoffee(建外SOHO店),39.911812,116.467275,朝阳区建外SOHO东区A座0101F,,4000100100,1,7693effb2f4d40924054d762
costa咖啡店,39.919803,116.461289,光华路7号一层105/106单元(近世纪财富中心),0702410b8ffe2ae901897235,(010)65614599,1,0702410b8ffe2ae901897235
COSTA COFFEE(中海广场店),39.916266,116.463432,北京朝阳区建国门外大街光华东里8号院中海广场中楼1楼F1-9号,ef773a0f97f8472d230220a8,(010)59772388,1,ef773a0f97f8472d230220a8
水街咖啡(财富中心店),39.921674,116.465534,北京市朝阳区东三环中路财富中心公寓A座翼楼W203室,aa546a2e246f355a581093ef,18514007178,1,aa546a2e246f355a581093ef
COFFEE HOLIC咖啡厅,39.925683,116.461752,朝外SOHOC座1层中心位置0169-1,4ec374819d5bd93ef62310ab,010-58690551,1,4ec374819d5bd93ef62310ab
瑰丽酒店怡庭大堂吧,39.926625,116.467343,北京市朝阳区朝阳门外大街1号京广中心1-23层,b584f7affdbcabbc593ac82d,"(010)65360085,(010)65978888",1,b584f7affdbcabbc593ac82d
Coffee1727咖啡店(奥运餐厅),39.87965,116.487277,工业大学奥运餐厅1层(近北工大美食园),ac6d7e8b805578d03904b17e,(010)57721833,1,ac6d7e8b805578d03904b17e
中国大饭店-咖啡苑,39.916152,116.466348,北京市朝阳区建国门外大街一号(国贸中心)中国大饭店F2层,e85e25272649914a94f08ca1,(010)65052266,1,e85e25272649914a94f08ca1
巢NEST(百子湾路),39.906573,116.482705,北京市朝阳区百子湾路29号(近CBD),dee5c2efba3766d1cf04ef88,(010)67768845,1,dee5c2efba3766d1cf04ef88
蜗牛咖啡馆,39.904938,116.462797,北京市朝阳区双花园南里三区5号楼1层101,f914eb115aab102cc9c3db89,"(010)56228270,18611527899",1,f914eb115aab102cc9c3db89
RE,39.910216,116.459672,景恒街建外SOHO西区15号1501室,1f83a67e7e8f810a03ec01c6,(010)59003719,1,1f83a67e7e8f810a03ec01c6
COSTA COFFEE(京汇大厦店),39.912423,116.469712,建国路乙118号京汇大厦1层,b1c556e853ed7f15b52655a0,(010)65688020,1,b1c556e853ed7f15b52655a0
luckin coffee(银河soho店),39.926008,116.439324,北京东城区南竹竿胡同2号1幢银河sohoC座2层30212,ec2d3562cd0dc7ddc9fa5f09,(010)85179080,1,ec2d3562cd0dc7ddc9fa5f09
星巴克(环球金融中心店),39.924449,116.465636,朝阳区东三环中路一号环球金融中心首层W102号,fad9073d2707581ab45f1ee4,(010)59817829,1,fad9073d2707581ab45f1ee4
悠唐皇冠假日酒店-C6咖啡厅,39.927955,116.445473,北京市朝阳区朝外大街三丰北里3号(近悠唐生活广场),28e700f165f24f18085cb3f3,(010)59096688-3219,1,28e700f165f24f18085cb3f3
星巴克(爱思开大厦店),39.913384,116.46349,朝阳区建国门外大街甲6号1幢SK大厦2层,0557519c6459458ad22dd6f4,(010)85670237,1,0557519c6459458ad22dd6f4
易爵咖啡工作室,39.91111,116.459764,北京市朝阳区东三环39号建外SOHO16号楼,9a3c3e53624b605b49fd3f76,"(010)58692635,13810606186",1,9a3c3e53624b605b49fd3f76
瑞幸咖啡(鸿豪商业中心店),39.926595,116.447622,神路街39号美天厨房二楼,,,1,554f1e9b94eb7f63621809f3
星巴克(世茂大厦店),39.913314,116.477725,朝阳区建国路甲92号北京世茂大厦首层102单元,cd9d05dd6b380eaf85420e51,(010)85809015,1,076b5b443037d826eedfcacb
0.1g Coffee,39.911214,116.478047,北京市朝阳区惠河北路郎家园6号郎园ViNTAGE3号楼1层,0ff9d7d9c4df65a30e0e6bbe,13651390670,1,0ff9d7d9c4df65a30e0e6bbe
luckincoffee(民生大厦店),39.926684,116.469264,朝阳区东三环北路38号院4号楼民生大厦商业一层L113室,,4000100100,1,52f113dbdfede791ad080f98
太平洋咖啡(华润大厦店),39.918909,116.440472,北京市东城区建国门北大街8号华润大厦1层,7ce0a68efa832f1b30169b74,(010)85192997,1,7ce0a68efa832f1b30169b74
太平洋咖啡(长安街店),39.915405,116.437079,建国门内大街7号光华长安大厦2座1楼02号,eb36750313e1271b00ec01cc,(010)65180278,1,eb36750313e1271b00ec01cc
新鲜7豆叔精品烘焙咖啡(体验店),39.910948,116.46,北京市朝阳区东三环中路39号院16号楼1层,40cfe64c0460654e102935d9,(010)59002258,1,40cfe64c0460654e102935d9
Idag咖啡馆,39.905706,116.47447,北京市朝阳区百子湾路32号院4号楼1层,a017bc03c7685630735e808e,(010)58769680,1,a017bc03c7685630735e808e
luckincoffee(朝阳门SOHO店),39.928476,116.439385,东城区朝阳门内大街东二环南竹竿胡同1号,,4000100100,1,b9e99056bcc902b188fc06fa
星巴克(华贸二店),39.917542,116.487909,朝阳区建国路89号北京华贸19号楼一层102单元,c6b82b942249827fa10464e0,(010)65307016,1,c6b82b942249827fa10464e0
意曼多(芳草地店),39.925259,116.45576,东大桥路9北京侨福芳草地购物中心2层05/28,ae5730af3f7748b85cd4fedc,(010)85631085,1,ae5730af3f7748b85cd4fedc
GREYBOX COFFEE(芳草地店),39.924842,116.455852,东大桥路9号北京侨福芳草地购物中心L1层L1-AB1,,,1,27636772cc06440b374aae0a
太平洋咖啡(复星国际店),39.92963,116.462178,朝阳北路237号楼1层105,4642844abdf690c0c9fa5fc3,(010)85715885,1,4642844abdf690c0c9fa5fc3
老记茶馆(朝阳门店),39.926712,116.433224,北京市东城区朝内南小街8号1楼,,(010)58646140,1,3dea4fc3e33388e4f02d83ed
GREYBOX COFFEE(华贸购物中心店),39.915073,116.48835,北京市朝阳区建国路81号华贸购物中心F1,06600495d6717c7116a1907f,18710068224,1,06600495d6717c7116a1907f
星巴克(世贸天阶第二店),39.922583,116.458255,朝阳区光华路9号世贸天阶南街B1层B152号,,(010)52061047,1,7cc0705a897741083fe231d5
私磨咖啡馆(夕照寺店),39.894882,116.447289,夕照寺街14号4号楼富瑞苑大厦1层108号,7a8601c59d8dde4838e4a677,"(010)87188115,13311516063",1,7a8601c59d8dde4838e4a677
湖畔咖啡厅,39.881479,116.452691,朝阳区潘家园南里19号康源瑞廷酒店1楼,b703e96bd71442e38e1a8984,(010)59097633,1,b703e96bd71442e38e1a8984
八度空间咖啡馆,39.90259,116.478231,北京朝阳区百子湾南二路76号乐成国际5号楼3A(近双井家乐福),6ed3083ac1c969ae2a3a9f85,(010)87724645,1,6ed3083ac1c969ae2a3a9f85
LUXE(国贸写字楼2座店),39.916661,116.46714,北京市朝阳区建国门外大街1号国贸写字楼2座F1,,,1,3e35ed6d6ed9588954bfff65
星巴克(宝钢大厦店),39.913485,116.452716,朝阳区建国门外大街丙12号宝钢大厦1层,5fa8983666fa2c575bf6be43,(010)57610191,1,5fa8983666fa2c575bf6be43
花舍咖餐厅(昆泰店),39.928177,116.448313,北京市朝阳区朝阳门外大街26号朝外ＭＥＮ雅宝商城1层,cac5fc76ae9c9bea2cb96d03,(010)85654328,1,cac5fc76ae9c9bea2cb96d03
太平洋咖啡(CBD国际大厦店),39.910231,116.458771,北京市朝阳区永安东里16号CBD国际大厦1-2层西侧,6bfed673010a43c531870a6a,(010)65663035,1,6bfed673010a43c531870a6a
瑞幸咖啡(雅宝大厦店),39.921047,116.443355,北京市朝阳区雅宝路6号雅宝大厦,,,1,fcf6da57eb2a1ff3770269a5
CHAAN轻食(世界城店),39.923327,116.459373,朝阳区金汇路8号楼1层101内E136B、E138单元,19b4e6dc54be7315a4c756c0,(010)85597578,1,19b4e6dc54be7315a4c756c0
长富宫饭店-咖啡厅,39.913548,116.444431,建国门外大街26号,49d9593891162a5ac61e51ce,"(010)65125555-61,(010)65125555-64",1,49d9593891162a5ac61e51ce
STRASBOURG思特堡(建国门店),39.915548,116.445259,北京市朝阳区秀水街1号北3层,13077f136cc255e17dc8765b,"13810400336,(010)85323955",1,13077f136cc255e17dc8765b
天堂咖啡厅,39.900476,116.435681,北京东城区广渠门内大街41号雍贵中心C座1楼103室(近南花市大街),34dc2a2f2b0c5a1d83a00c7d,,1,34dc2a2f2b0c5a1d83a00c7d
伊斯兰布尔咖啡馆,39.91598,116.449283,北京市朝阳区秀水南街B7号国际大厦和北京友谊商店北侧,c21db9e5e900a09a00ff2d00,13718324288,1,c21db9e5e900a09a00ff2d00
有闻记者之家(咖啡厅),39.912986,116.483568,建国路88号SOHOA座3712,f22d11f05d07445dec74f8fd,18518538805,1,f22d11f05d07445dec74f8fd
Unconditionallovecoffee,39.90551,116.475712,"北京市朝阳区百子湾路32号苹果社区北区今日美术馆22院街底商3号楼A座3-012(店内设有低消人均30,谢谢)",eb88a1aeffcf727de5073836,(010)58263652,1,eb88a1aeffcf727de5073836
Hey!Coffee咖啡便利店,39.925405,116.460721,朝阳门外大街乙6号朝外SOHO-D座0112室,4e21e44f2fc689fbfadc8541,"(010)59009001,18511988302",1,4e21e44f2fc689fbfadc8541
记者俱乐部酒吧,39.91684,116.446731,建国门外大街21号北京国际俱乐部饭店1楼(近日坛路),c61bd30571480d71c37da2a1,,1,c61bd30571480d71c37da2a1
基路书店咖啡,39.92532,116.461235,朝外大街乙6号朝外SOHO-B座三层023(东大桥地铁),3f45803b8aab256e26e0a0a5,(010)57279373,1,3f45803b8aab256e26e0a0a5
品逸阁咖啡(现代城店),39.913178,116.482002,建国路88号SOHO现代城C座一层0501商铺(地铁大望路站),ecf2eba8cfe13cffbca82227,,1,ecf2eba8cfe13cffbca82227
食客满源咖啡厅,39.910309,116.462101,北京朝阳区东三环中路39号建外SOHO西区10号楼3楼1038室(近国贸地铁站),108b1cea95970cb53486f4be,(010)58693488,1,108b1cea95970cb53486f4be
踢呀主题咖啡厅,39.912926,116.481408,大望路地铁SOHO现代城D座1910室一层(大望路地铁B口和C口),53cef674fc6fad1abca822a1,13031128144,1,53cef674fc6fad1abca822a1
KIWI Coffee,39.926381,116.439941,北京市东城区南竹杆胡同2号1幢1层,42b89ad7ae72d5d7d42ce25f,18511431505,1,42b89ad7ae72d5d7d42ce25f
泰妃苑自助餐咖啡厅,39.914606,116.461553,建国门外大街3号,e96b4420e2cc404082288a72,(010)65002266,1,e96b4420e2cc404082288a72
连咖啡coffeebox(百子湾店),39.906167,116.491916,北京市朝阳区百子湾路16号百子园5号楼B单元101号,9f5d5f678413aa67bb17e7ab,4000605000,1,9f5d5f678413aa67bb17e7ab
快快,39.890482,116.471122,朝阳区南磨房路39号院1号楼乐澜宝邸商铺1112号,,,1,ffd575a39345287d744ff1fa
首都图书馆-咖啡厅,39.876134,116.470247,东三环南路88号首都图书馆B座2层,95dd459fa2d27b6f9a00506e,,1,95dd459fa2d27b6f9a00506e
将士,39.925446,116.461429,朝外大街乙6号一层0151,bc950fa9d869f8fae5073864,"18511720214,(010)59000232,15701282825,(010)58691699,4000527027",1,bc950fa9d869f8fae5073864
兰花台咖啡厅,39.913537,116.444425,建国门外大街26号长富宫饭店1层大厅,,,1,91b612fa5288271b88f15dd5
帕斯库奇咖啡(贵友大厦店),39.914628,116.457557,北京市朝阳区建国门外大街甲5号贵友大厦102,ee210d660f2c81ea9900502a,,1,ee210d660f2c81ea9900502a
Coffee Box咖啡(团结湖店),39.929346,116.472956,北京市朝阳区朝阳北路219号,f341f6e12d7d456daeb22a41,4000605000,1,f341f6e12d7d456daeb22a41
猫屎咖啡(丰联广场店),39.929243,116.445171,北京市朝阳区朝阳门外大街18号丰联广场F1,3ae7894ba58c049740ab9a44,(010)58302088,1,3ae7894ba58c049740ab9a44
西西弗书店(北京国贸黑标旗舰店),39.918377,116.467309,北京市朝阳区建国门外大街1号国贸商城北区地下二层3B201号,,,1,a9885ea191dfd90cafcb66e1
飞天大厦-大堂吧,39.897176,116.451937,北京市东城区广渠门外南街5号北京飞天大厦酒店2层,5ffce21069e2cec2f4eafc67,,1,5ffce21069e2cec2f4eafc67
星巴克(光华路店),39.919785,116.476876,朝阳区光华路15号1号楼亿利生态广场一层,,(010)65895549,1,6ad665dae8f3eacc30169b81
万科签约中心咖啡吧,39.917225,116.482628,西大望路3号院2号楼5层,475145671de0b5665fbe8668,"(010)65012020,(010)65012121",1,475145671de0b5665fbe8668
太平洋咖啡(北京站店),39.909741,116.434079,北京市东城区毛家湾胡同甲13号北京站F1,,(010)65268820,1,17ec971af85b212d0869d9e6
京瑞温泉国际酒店-咖啡厅,39.875588,116.467258,北京市东三环南路17号京瑞温泉国际酒店1楼,c16534057dfd8560ab175a4d,"(010)67668866,(010)67655958",1,c16534057dfd8560ab175a4d
鸿芷咖啡馆(银河SOHO店),39.927467,116.440042,北京市东城区小牌坊胡同甲七号银河SOHO3层,39b4df3fba3c07de2b06ce36,15901501985,1,39b4df3fba3c07de2b06ce36
MCS COFFEE(永安里店),39.910404,116.450125,建华南路15号美华世纪大厦1楼,fa01e9371aa10053764ff1a1,(010)65688338,1,fa01e9371aa10053764ff1a1
我们咖啡吧(银河SOHO店),39.92696,116.439003,北京市东城区南竹杆胡同2号1幢朝阳门银河sohoB座1层,365be08508a6fd5ef7b916da,"(010)59576456,13910699589",1,365be08508a6fd5ef7b916da
MEETCAFE,39.904859,116.466448,北京市朝阳区天力街2号-b3号楼-7号铺东北90米,,(010)53369939,1,9167efee864252aca7c75611
咖啡书吧,39.888962,116.462553,北京市朝阳区劲松电影院2楼,4f6c6fd4c368ce37a3acc402,13811839722,1,4f6c6fd4c368ce37a3acc402
红庙咖啡小镇,39.919823,116.484246,北京市朝阳区金台路乙21号,,,1,a65b5cce97e8791f96f08c88
JW万豪酒店大堂吧(建国路店),39.916659,116.48829,建国路85号JW万豪酒店1层,9f8fc2fea663178d095cb31d,,1,9f8fc2fea663178d095cb31d
页果咖啡,39.929241,116.432989,北京市东城区南小街2号北京INN8号楼3楼B302,,(010)58642534,1,4f441c805c704feab01e36a0
西座咖啡(光华路店),39.919684,116.462594,光华路5号世纪财富中心1楼近嘉里中心、汉威大厦、国贸大厦,fd007c5e68b46375a8f72939,(010)85875096,1,fd007c5e68b46375a8f72939
馥苑咖啡厅,39.877725,116.484889,平乐园100号北京工业大学南门西侧工大建国饭店2层,c01e6bd53d960ff8f02d830b,,1,c01e6bd53d960ff8f02d830b
西西弗&矢量咖啡,39.918148,116.466654,北京市朝阳区建国门外大街1号国贸大厦B座B2,,,1,a07a0c8ef38468f4f942b213
易思凯斯咖啡(世贸天阶北街店),39.922628,116.458672,北京市朝阳区光华路9号中骏·世界城F1,81bfbfe92ae2f472ac0457b8,"(010)65871271,(010)65871272",1,81bfbfe92ae2f472ac0457b8
啡素精品咖啡,39.91138,116.461968,朝阳区建外soho西区11号楼1108商铺,32a8427414708729028972ca,18210038031,1,32a8427414708729028972ca
景苑咖啡厅(瑞吉酒店店),39.91684,116.446731,朝阳区建国门外大街21号瑞吉酒店1楼(近日坛路),2a7a25ec48cbe27a6d3e1b81,,1,2a7a25ec48cbe27a6d3e1b81
珠荟啡(世界城店),39.923328,116.45841,中骏世界城D座funwork,fc60c3c9f4eee221ca1b955d,"4006969670,18610388406",1,fc60c3c9f4eee221ca1b955d
McCafe(幸福大街店),39.899245,116.435269,广渠门内大街80号通正大厦麦当劳2层,15008dac010c6cc2c4f50ddf,(010)51696505,1,15008dac010c6cc2c4f50ddf
瑞幸咖啡,39.879806,116.466711,华威里10号鹏龙大厦一层大堂,,,1,140c10357e4a9e9635b06c87
星巴克(北京万达广场2店),39.914893,116.477551,朝阳区建国路93号万达广场B座万达影院3层,,(010)59604273,1,63d6be04529fc9afabf72918
星巴克(光华路第二店),39.919317,116.45908,朝阳区光华路1号9号楼1层120室,,(010)85950710,1,c77a1828666d5719441a32f3
好苑建国酒店咖啡厅,39.915675,116.42981,北京东城区建国门内大街19号好苑建国商务酒店1楼,4ab27fab7ee4f235d13ce38d,,1,4ab27fab7ee4f235d13ce38d
泉新咖啡,39.918854,116.458978,朝阳区光华路22号光华SOHO一期二层119c,3c0c77547070137bd1f49ebd,13552168014,1,3c0c77547070137bd1f49ebd
长安大饭店咖啡厅,39.877429,116.464838,北京市朝阳区华威里27号长安大饭店1楼,0ce65c2de539ff402c473394,(010)67731234-3930,1,0ce65c2de539ff402c473394
宝辰饭店-明苑咖啡厅自助餐,39.911976,116.434919,东城区建内大街甲18号恒基中心内,cac5fc768212ffea2db96d81,(010)65274030,1,cac5fc768212ffea2db96d81
贝瑞斯塔咖啡厅,39.928391,116.439281,朝阳门内大街2号朝阳门soho地下一层A107商铺,e04771806a7d8154c5effbfa,(010)67179669,1,e04771806a7d8154c5effbfa
彩虹咖啡厅,39.890812,116.437353,体育馆路1号天坛饭店1层,be1ea5effe3c83a615948e85,(010)67190828,1,be1ea5effe3c83a615948e85
嘉华咖啡厅,39.929025,116.448904,朝阳门外大街乙12号院2号楼昆泰嘉华酒店2层,637df60a7bd2676b41afe6b9,15001113334,1,637df60a7bd2676b41afe6b9
品藏轩茶馆,39.917217,116.486137,建国路甲89号华贸公寓6号楼102,073d17d3c61141cceb12e47e,(010)65309810,1,073d17d3c61141cceb12e47e
优度咖啡,39.889381,116.440956,北京市东城区光明路乙12号附近,,(010)87926788,1,8ce77e685a7750fc2eb17e8c
阳光咖啡厅,39.890333,116.436487,东城区体育馆路1号天坛饭店1楼(华普超市光明楼店),d0b8923fdf783bfbb5f42f40,,1,d0b8923fdf783bfbb5f42f40
星巴克(京汇大厦店),39.912612,116.469837,朝阳区建国路乙118号1-105号单元,,(010)65685868,1,21f21bcc17f15148ed74f8b6
cafe putoo,39.905532,116.475402,苹果社区22院,3b734470488f2a229cf779f5,18611421312,1,3b734470488f2a229cf779f5
HR Baby Coffice,39.926902,116.438803,东城区牌坊胡同甲7号银河SOHOB座1层,,18010193725,1,ea4ff20369437a821f38942b
邦荟咖啡馆,39.912338,116.480697,北京市朝阳区建国路冬郎电影创意产业园B102,,(010)65275100,1,d724ad86544c07fcadcb66fd
零距离水吧(朝阳剧场店),39.928096,116.469094,东三环北路36号,081cacc7c6681938f2193770,13811635787,1,081cacc7c6681938f2193770
菜菜大王(建外soho店),39.910249,116.459039,北京市朝阳区东三环中路39号院15号楼一层1518,,18610712229,1,cbee421685cc74d43c9a5e9a
邦代咖啡,39.892121,116.427051,天坛东路20号,c9a0e061999e6105102935db,,1,c9a0e061999e6105102935db
瑞幸咖啡(温特莱中心店),39.918626,116.482925,西大望路1号温特莱中心B座西侧临街底商110,,,1,19c9675f6fe0c6ea79b55c98
建国饭店咖啡厅,39.914984,116.45943,北京市朝阳区建国门外大街5号建国饭店1楼,e2dbc4715cc7b79c3010aff3,,1,e798f59ea562ee2de912e483
CAFFEBENE(南航店),39.912165,116.469379,朝阳区东三环中路10号南航明珠商务酒店1楼,e2cfdfd1ab84074bc17da2bf,(010)65669946,1,e2cfdfd1ab84074bc17da2bf
星巴克(财富中心三店),39.923229,116.465217,朝阳区东三环中路5号楼北京财富金融中心B1层,,(010)65969103,1,927e1c673afe1da38f55eced
亚太·公寓-咖啡厅,39.920483,116.442794,雅宝路8号,c728052d966803aa932ca319,(010)85639988,1,c728052d966803aa932ca319
MAOO COFFEE(银河SOHO店),39.927426,116.439522,南竹竿胡同2号(银河SOHO地下一层)1幢-1层1-133,f16cc02e83b5c4d48af15d75,13810456016,1,f16cc02e83b5c4d48af15d75
星巴克(秀水店),39.915566,116.45643,朝阳区建国门外大街秀水东街8号,,(010)85306756,1,479b142e8f4da5d5d32dd69c
星巴克(南竹杆二店),39.926581,116.439313,东城区南竹杆胡同2号银河SOHO广场A座地下1层,,(010)65249941,1,06e0b4058f0aedb2465726a2
Davidoff LOUNGE,39.916741,116.487579,建国路甲83号丽思卡尔顿酒店内,56e88cba95d67d7ca4c75651,,1,56e88cba95d67d7ca4c75651
蓝堡咖啡馆,39.917038,116.48396,北京市朝阳区蓝堡国际中心2座1层,dd331ae3309792a8c26c14ec,,1,dd331ae3309792a8c26c14ec
MovieMAX coffee,39.906031,116.472519,北京市朝阳区黄木厂路1号院1号楼A2号纵影天下一层,,,1,ffb0740c358194e50aa8d4a7
cafe de paris帝佰利咖啡(国贸店),39.918158,116.466152,朝阳区建国门外大街1号国贸商城北区B1层NB1031,57bf000e8b97cfa11b94c67d,(010)65852397,1,57bf000e8b97cfa11b94c67d
luckincoffee(世贸天阶店),39.92196,116.457884,北京市朝阳区光华路甲9号世贸天阶南街F2,,18612573382,1,562497153e07d0d696ca0781
GREYBOX,39.915088,116.488355,北京市朝阳区建国路81号华贸购物中心F1,8758b47db096f2e3c27da221,,1,8758b47db096f2e3c27da221
BlossomHill花山咖啡,39.901187,116.472213,东柏街9号院天之骄子2-19号楼,,13124779613,1,eabb7782b72184251a11d5a0
domus Cafe,39.92158,116.427653,东城区金宝街金宝汇3层,ee1cd6c4e77e7b8f3813fd58,(010)85221193,1,ee1cd6c4e77e7b8f3813fd58
国际饭店咖啡厅,39.915755,116.434881,建国门内大街9号国际饭店2层,2c503fdb8dbec85e441a3298,,1,2c503fdb8dbec85e441a3298
Unoonditional Love Coffee,39.905496,116.475505,百子湾路32号苹果社区4号楼今日美术馆1层东侧,,,1,420a01f85929d96cc13644cb
luckincoffee(万通中心店),39.925566,116.463041,朝阳区朝外大街甲6号万通中心地下1层底商,,4000100100,1,286b38a7bbc6e027f03cbaaf
H@C海客家咖啡阅读英文体验馆,39.900664,116.472895,东柏街10号院,,(010)87767997,1,d8b569c1dc761c6420022006
瑞辛咖啡,39.918445,116.479785,光华路4号院东方梅地亚B座一层,,,1,6afc7b24877b2d4a21022011
元帅咖啡专卖,39.890421,116.471529,南磨房路39号院1-1号,6835e3a712baed57e3110312,(010)87796216,1,6835e3a712baed57e3110312
赚赚咖啡,39.921193,116.443534,北京市朝阳区朝外街道26号雅宝大厦底商,,,1,2d241ce0752e29205cd4fe25
FLYKOI COFFEE(建外SOHO店),39.912062,116.46539,北京市朝阳区东三环中路39号院6号楼0665C,,13120016769,1,05006e061031d0c8c5f50d5f
bruno Fresh(北京银泰中心店),39.912968,116.466593,北京市朝阳区建国门外大街2号北京银泰中心B1,,,1,0cb7a28ef45a604c25d2bb89
STARBUCK COFFEE,39.912526,116.469596,北京市朝阳区东三环南路2号西北60米,,,1,2d71b55c832916acb020a83a
Spoonbillcoffee,39.910955,116.460249,北京市朝阳区建外SOHO西区,,18543206810,1,9e7ead2ce76a3b10d0ff23db
瑞幸咖啡,39.926451,116.46958,北京市朝阳区东三环北路38号附近,,,1,d79be70f9571402b6fc02cad
芋见咖啡,39.918981,116.463482,北京市朝阳区光华路16附近,,,1,38581367eeef0d4b09b93a00
猫鱼音乐学演空间,39.898447,116.46524,北京市朝阳区广渠门外大街8号优士阁大厦A座2407号,,,1,261c29503c7d86aa8bfc061c
桥吧咖啡厅,39.901913,116.448609,广渠门北里55号金桥国际公寓一层,,,1,e902839fb0c923204e2fdf20
汉威大厦-咖啡厅,39.91974,116.461291,北京市朝阳区光华路7号汉威大厦东区1楼(近金桐西路),50fb64fff30f6744e9f853c9,(010)65614599,1,50fb64fff30f6744e9f853c9
泡咖啡,39.928868,116.446416,朝阳门外大街22号泛利大厦B1楼,c0dfd209b6c6c5be6240a92e,,1,c0dfd209b6c6c5be6240a92e
腾湃(国贸商城3期A座店),39.918261,116.466448,北京市朝阳区建国门外大街1号国贸大厦B座F3,ebe2be1d7cd2c404932ca32b,,1,ebe2be1d7cd2c404932ca32b
广西大厦-咖啡厅,39.879134,116.463235,潘家园华威里26号,10df0a3e95c7278932f71d14,"(010)67705177,(010)67796688",1,10df0a3e95c7278932f71d14
龙潭西湖公园咖啡厅,39.883888,116.442537,左安门内大街15号附近,5a2c3ff94dc9eec74c3a5981,,1,5a2c3ff94dc9eec74c3a5981
星岛咖啡,39.881518,116.488611,北京市朝阳区平乐园100号北京工业大学第四餐厅2层,,,1,9cb3516bd7fe0566e8e5828b
动物咖啡,39.912979,116.482263,建国路87号skp(原新光天地)5楼北京fa,8b6e93e133a34a461b94c6d7,,1,8b6e93e133a34a461b94c6d7
绿客空间,39.911903,116.457353,北京市朝阳区永安东里平房1号,42c704dd4c3db792e115f9e4,,1,42c704dd4c3db792e115f9e4
Flatwhite Coffee,39.915002,116.456398,秀水东街秀水街大厦1层356号,da9d50aad7d22fbdc5effb16,,1,da9d50aad7d22fbdc5effb16
PAPA COFFEE(SOHO·尚都店),39.924642,116.459439,北京市朝阳区北京市朝阳区东大桥路８号SOHO·尚都F4,,13910958068,1,9fcfb73eaef3475c0e0a7043
ZHUHUiFEi COFFEE(合生汇店),39.900142,116.485325,北京市朝阳区西大望路21号合生汇B2,,,1,ee755913a3e0fa35128824c8
银舟咖啡厅,39.917015,116.437857,建国门内大街贡院西街6号E座,,,1,fb9156c19ae1a0a2220262cf
BREW BAR by PACIFIC COFFEE,39.91801,116.466138,朝阳区建国门外大街1号北京国贸商城B1层3B119,,,1,15fc3fa52ebbb2e18d7727e2
月福咖啡厅(南门),39.882062,116.461973,北京市朝阳区潘家园东里甲30号,ab5d6ae372680292e5e965be,,1,ab5d6ae372680292e5e965be
Read Cafe,39.904742,116.465615,北京市朝阳区双花园南里三区21-1号,71bf1680389e16206b49f38f,,1,71bf1680389e16206b49f38f
CAFE RESTAURANT咖啡餐厅,39.905643,116.474583,北京市朝阳区百子湾路32号院4号楼3118室南90米,,,1,1cf4d6b42d2009bd88f15d94
两杯两杯(阳光100店),39.918613,116.481543,光华路2号阳光100D座地下一层(温特莱中心),,18310111589,1,b52817c695781b97bda24018
真锅咖啡馆(朝外店),39.925709,116.461228,朝外大街乙6号朝外SOHOA座2层0277号,803708f10ba4fe60008972aa,(010)58698707,1,803708f10ba4fe60008972aa
瑞辛咖啡,39.926019,116.439409,北京市东城区南竹杆胡同2号银河SOHOA座一层10108,,,1,ca36469ad7a94f984e554772
86 Space,39.91182,116.46274,CBD文化体育广场(西门),,,1,921cfa766940456b4657260e
福来咖啡,39.91526,116.48851,北京市朝阳区建国路87号skp(原新光天地)5楼北京fa,,,1,f4770eb150a4271d1b94c649
金青咖啡(新景家园店),39.899895,116.431096,西花市南里东区新景家园15号楼,,,1,841075d85ad5fb891188249e
早安咖啡,39.922133,116.442924,朝阳区朝外头条93汉美瑞丰1层,,17317854567,1,a84f5926e2a6a94962685860
瑞幸咖啡(万通中心店),39.925695,116.462444,朝阳门外大街甲6号万通中心AB座1层,,,1,c1da7ed0b998d03926e0a0f3
REDCUPPA coffee,39.915319,116.48627,建国路81号华贸中心写字楼1座B1层,,,1,5ebc7d34382a90b0d92f28b5
J & M,39.927551,116.44698,北京市朝阳区外交部南街悠唐购物中心二期3层,bcfd1dd392913c009222e08a,,1,bcfd1dd392913c009222e08a
鄂尔多斯艾力酒店-会议厅,39.921368,116.435259,金宝街18号,ece59190d35bc05d1e1d11bd,"(010)58121888,(010)58121980",1,ece59190d35bc05d1e1d11bd
雀巢咖啡专柜,39.918198,116.465097,国贸大厦三期地下二层OLE精品超市进门口,,,1,3bcadac31b0ce41662685891
月福咖啡厅(东门),39.88226,116.462586,北京市朝阳区潘家园东里甲30号,117064d28e67a3dfd618b742,,1,117064d28e67a3dfd618b742
CITIC BOOKSTORE COFFEE(北京侨福芳草地),39.925239,116.456569,北京市朝阳区市朝阳区东大桥路9号侨福芳草地购物中心B1层,,,1,bfd798a77b290b04b42655f7
starbuckssoffee,39.91323,116.452788,北京市朝阳区建外大街丙12号附近,,,1,23de1190beb03189fea7783f
北京嘉里大酒店-咖啡厅,39.919588,116.464706,光华路1号,d98051b5fc82d298f723108e,,1,d98051b5fc82d298f723108e
Eastern suburb park coffee,39.90845,116.479471,北京市朝阳区西大望路甲12号西100米,,,1,cb2b84fc7655a12371210bf8
un Livie Cafe,39.92331,116.458104,金汇路8号楼e座附近,,,1,c7a216583732272b17b54b37
卡罗莎咖啡吧,39.912191,116.459018,建外大街永安里8号华彬中心东大堂一层,3dbe2c61daddbf7ea80dd852,(010)58697412,1,3dbe2c61daddbf7ea80dd852
新加坡知名室内设计品牌,39.910574,116.459425,北京市朝阳区恒惠西路,,,1,9457edfe3ae1409c4afc8daf
微尺伴客,39.929423,116.439708,北京市东城区东二环朝阳门内大街2号凯恒中心C座一层,,18511570821,1,9b15b0c6e34d97bb08f5ebf7
素写咖啡,39.911756,116.459246,建外SOHO17号楼2层1721室,575088fd1feffbe5abf0cd97,"(010)58690206,(010)57901851,18201642861",1,575088fd1feffbe5abf0cd97
水晶厅咖啡,39.924756,116.457389,东大桥路8号院2号楼SOHO·尚都西塔4层1421,,,1,e7099bd8b4819caab7f42f53
北京可诺咖啡馆公司,39.918135,116.476831,光华路8号和乔庭园大厦B座中庭1层,7a9a6412e1cb279197ec8432,,1,7a9a6412e1cb279197ec8432
PCF-Pasta coffee fresh(国贸店),39.913417,116.459561,朝阳区建外大街IFC大厦B108,,,1,c1bd29231dd54c1f57bfff49
咖啡厅入口,39.899722,116.453332,北京市东城区如家精选酒店(广渠门地铁站店),fe20978461e010943913fd68,,1,fe20978461e010943913fd68
bakery&coffee,39.905309,116.484647,朝阳区西大望路甲16号院5号楼底商,,,1,8aed7653a0a5cf760782c28d
CAFE RESTAURANT,39.924381,116.462543,北京市朝阳区朝阳门外大街6号院-8附近,,,1,2e790027b662bb5e29fc4827
友天咖啡厅,39.912972,116.463476,朝阳区建国门外大街甲6号1号楼SK大厦B2层,,,1,0d641d3532c8ede29122e07a
win coffee,39.923653,116.462382,政务区新城国际C座1205,,18715517709,1,929231e182e025b636b06ce8
MANDALA CAFE,39.929188,116.482121,北京市朝阳区朝阳北路189号北50米,,,1,8876d028c9d4847ee215f97a
coffee time,39.912553,116.459334,建外SOHO西区18号楼一层1806号(华彬大厦东侧对面),71fd1d3be93781d33913fd56,,1,71fd1d3be93781d33913fd56
咖啡舍,39.930529,116.448702,北京市朝阳区朝外大街223号,20b16f9321c541f444e2741b,,1,20b16f9321c541f444e2741b
福来咖啡店,39.923422,116.466989,东三环中路5号财富金融中心地下一层,,,1,718a3210e24158404151c0ec
Maie Max Coffee,39.906212,116.472424,百子湾黄木厂路1号院1号楼A2、1层,,(010)59440727,1,8fce77ade66c18b438e4a65b
海豚湾咖啡馆,39.925612,116.461808,朝外大街乙6号朝外soho-c座0732室,,(010)58691182,1,66b12df02ff2fc298936ee12
UCC coffee shop,39.92191,116.457436,东大桥路20号楼,,,1,3dbb62655194143c4054d77f
兮琴轩,39.918105,116.486913,建国路89号华贸公寓10号楼105B,4b1567577db9d9fa3913fd23,,1,4b1567577db9d9fa3913fd23
星纪咖啡,39.930146,116.437558,南水关胡同与朝阳门内大街交叉口西100米,,,1,d2722824c8e70a1d8bb98833
漫咖啡(百子湾店),39.90669,116.506444,百子湾西里金都杭城二期102号楼110室,07f3c8b554d3007a6340a9bc,"(010)87950870,(010)87950096",1,07f3c8b554d3007a6340a9bc
星巴克(朝阳大悦城店),39.930529,116.525612,北京市朝阳区朝阳北路101号朝阳大悦城F1层02号,7fd72311108e4c865cbe861f,(010)85521068,1,7fd72311108e4c865cbe861f
星巴克(北京远洋天地店),39.920618,116.49781,朝阳区东四环中路56号远洋国际中心A座首层109号单元,9fbfeef27a4d055cede4a557,(010)85868829,1,9fbfeef27a4d055cede4a557
星巴克(世东国际店),39.89829,116.509057,朝阳区广渠路18号世东国际1号楼1层105-106单元,,(010)67719342,1,ddfd86e8fa603dd1b6f42f56
星巴克(燕莎奥特莱斯购物中心店),39.883618,116.492504,朝阳区东四环南路9号燕莎奥特莱斯购物中心二期C座一层,,(010)87381381,1,658e66ba633c5e9fb5f42fe7
麦隆咖啡(北京大郊亭店),39.892869,116.493902,朝阳区西大望路大郊亭南街朗姿大厦1楼底商,,(010)86207006,1,399bed37e6e9f37c266e9857
碧莎莎BISASA咖啡馆,39.901052,116.500588,北京市朝阳区广渠路21号金海国际7号楼1层7-01,05efa716daf1efb20bf5ebd1,"(010)58200264,(010)58202283",1,05efa716daf1efb20bf5ebd1
圈内咖啡,39.911835,116.543033,北京市朝阳区高碑店东区A区4号,,"18610241144,4008087835",1,c4d21dd911b8b5ba99005078
COSTA COFFEE(朝阳大悦城店),39.93022,116.525282,北京市朝阳区朝阳北路101号朝阳大悦城F3,6a13b311b350ef6b8f1a8974,(010)85517351,1,b47ca8898216d8a89e95dece
Today Coffee(北京市朝阳区高碑店医院东),39.912437,116.542755,高碑店新村东区A88号,a3e7149f9752b88eca09f046,,1,a3e7149f9752b88eca09f046
瑞幸咖啡(北工大理工楼店),39.880467,116.492348,北京市朝阳区平乐园100号北京工业大学环境与能源学院C座1层大堂,,,1,ba05c2dc96e62486047ce871
meow coffee(喵咖啡),39.927338,116.522756,北京市朝阳区青年路青年汇佳园5号楼2单元103室,,"15710033277,(010)85766107",1,b3d882af2c9e30d0902ca374
微时光咖啡馆,39.92668,116.52762,北京市朝阳区雅成三里5号楼1层119,a7c56ee0246b56aaa2acc4ad,(010)59154798,1,a7c56ee0246b56aaa2acc4ad
宅COFFEE SHOP,39.927072,116.510243,新华联丽景5号楼6号(丽景湾国际酒店正门东侧),6352c71eb5dcdd75a7c75625,13811151176,1,6352c71eb5dcdd75a7c75625
仿佛被遗忘的时光,39.905363,116.494815,北京市朝阳区百子湾路后现代城3号楼C座105室,46c90513060fc72403ff2dc3,13146821118,1,46c90513060fc72403ff2dc3
COSTA COFFEE(北京尚街购物中心店),39.923348,116.524054,北京市朝阳区朝阳路甘露园南里25号尚街购物中心一层115A,ee21b24fb937ebca8433042e,(010)85762631,1,ee21b24fb937ebca8433042e
红卡咖啡(尚8里文创园店),39.917969,116.515962,北京市朝阳区高碑店乡八里庄村陈家林甲2号B座一层,b73845c85c3fe0973ce231f6,(010)85768929,1,b73845c85c3fe0973ce231f6
赛洛城·邻咖啡,39.902314,116.510683,百子湾路5号沿海赛洛城309-3号(近大望路),a3f21eee2543065d2eb17ef6,(010)87955401,1,a3f21eee2543065d2eb17ef6
享咖啡,39.905256,116.55088,北京市朝阳区文化新大街,,,1,462b4ebaf4d2b75a40afe686
luckin coffee(青年汇店),39.928736,116.521267,朝阳北路青年汇102号楼一层123,,,1,790567da6a8bf4fd921fc9b6
luckincoffee(慈云寺北里店),39.922957,116.498953,朝阳区朝阳路慈云寺北里207号楼1层122号,52d38c5094789cf94c3a59a3,4000100100,1,52d38c5094789cf94c3a59a3
年代咖啡酒吧,39.911557,116.526116,朝阳区惠河南街南岸一号礼安门54号楼104号一层,,,1,522fb3aa46c45af3d12dd668
恋上咖啡,39.931125,116.519266,北京市朝阳区朝阳北路107号珠江罗马嘉园4号楼103号(近朝阳大悦城),c61bd305717a0d71c27da257,(010)58626793,1,c61bd305717a0d71c27da257
星巴克(青年路三店),39.930219,116.525114,北京市朝阳区朝阳北路101号朝阳大悦城F8,,(010)85564387,1,d04d31e890c848edd13ce313
愿君在此咖啡廳,39.915094,116.51298,惠生园26,,13611246181,1,836cdcc2d53d798e6140a964
三月,39.901703,116.512708,北京市朝阳区金海湾中街百子湾东里325-7号,d76d72257af5947f2afc4845,17501063350,1,d76d72257af5947f2afc4845
luckincoffee(金泰国际店),39.899921,116.50666,朝阳区广渠路金泰国际大厦B座负一层,,4000100100,1,f2a80344c58b690083a00c52
半小时咖啡,39.92117,116.49915,八里庄西里100住邦2000商务中心1号楼1层B区,ce641943dc45c390128824d1,(010)85861587,1,ce641943dc45c390128824d1
酷车百视咖啡,39.879335,116.507541,朝阳区金蝉西路甲一号酷车小镇一期B2区域6号一层,,(010)67204142,1,d2def29f4cc523cccb213d5b
被遗忘的时光,39.905444,116.494796,北京市朝阳区后现代城a区3号楼1层,8eef2018a56ef8a5e8e582cd,,1,8eef2018a56ef8a5e8e582cd
某年某月咖啡厅,39.911679,116.541602,北京市朝阳区高碑店新村东区E33-12,,"13466508191,(010)85868801",1,d462f07acff0d112f603b8e9
安的咖啡(朝阳路店),39.924528,116.533327,北京市朝阳区铜牛电影产业园7号楼1层,ecb5b0130faf9b3860180918,,1,ecb5b0130faf9b3860180918
柏悦春天cafe,39.906243,116.550855,北京市朝阳区文化艺术新街1704号,a4d15691c0f7afea3010af53,"(010)87773166,18618481107",1,a4d15691c0f7afea3010af53
乌鸡国咖啡馆,39.916161,116.538174,建国路23号(兴隆公园南门),,13718732057,1,b5c847c984a7af650869d9f0
EAST COFFEE,39.90012,116.517051,北京市朝阳区广渠路3号竞园艺术中心5号铺,53110bcc9355935b4054d753,,1,53110bcc9355935b4054d753
美胶咖,39.911429,116.547013,北京市朝阳区惠河南街高碑店东区C区1-7号,6a9e8b0b113078bccf06a411,(010)85755644,1,6a9e8b0b113078bccf06a411
星巴克(花园闸路店),39.918108,116.547997,朝阳区建国路27号紫檀大厦1层,f01afc0476dfec9c4e554712,(010)85774421,1,f01afc0476dfec9c4e554712
velar cafe,39.917884,116.516806,北京市朝阳区八里庄村陈家林9号院华腾世纪总部公园E2座103-2号,e3431abd8ff22d7a9e82ea87,(010)53855678,1,e3431abd8ff22d7a9e82ea87
木兰,39.900686,116.516475,北京市朝阳区广渠路3号竞园图片产业基地17号库,18dbf83fd8e563502cb96d14,010-87712376,1,18dbf83fd8e563502cb96d14
星巴克(万科时代中心店),39.921438,116.509262,朝阳区朝阳路十里堡甲3号院甲1号万科时代中心1层底商,,(010)51077507,1,ba9e2edf081c37ea2102208d
盈科咖啡厅,39.905843,116.498836,朝阳区东四环中路76号大成国际中心C座6层,,(010)57488991,1,f5b90f2a7f815dc54d5547f6
Bracketcoffee(超级蜂巢店),39.905445,116.554356,高碑店乡北花园村1号北京传媒时尚文化产业园超级蜂巢北区G座101号,,,1,25bf242736b2fd458d7727fa
猎户座户外露营主题咖啡厅,39.879151,116.508904,北京市朝阳区金蝉西路1号酷车小镇酷车工厂F205B号,347176393e4fa0ec3617dc61,13701367407,1,347176393e4fa0ec3617dc61
星巴克(北京远洋未来汇影院店),39.922066,116.498881,朝阳区慈云寺北里209号209号楼远洋未来汇购物中心2楼,,(010)85772884,1,835ee5700f45f4546ca3cc31
瑞幸咖啡,39.923171,116.542627,北京市朝阳区朝阳路67号院附近,,,1,e805ad0a6df0a63b8605bf6f
咖啡好了,39.918479,116.54563,北京市朝阳区东亿国际传媒产业园c13座,13825a976db4d53affa7785d,,1,13825a976db4d53affa7785d
luckincoffee(北工大理科楼店),39.880556,116.492667,平乐园100号北京工业大学环境与能源学院C座一层大堂,,,1,68da67848e74c445940319f2
D BLACK COFFEE,39.904542,116.525356,北京市朝阳区高碑店乡西店记忆文创小镇A1,,15501145333,1,18808edb0445cf71c26c1482
dblack咖啡,39.904466,116.525387,朝阳区高碑店乡西店记忆文创小镇A1,40e4b62345d88e432811d17a,15501145333,1,40e4b62345d88e432811d17a
豪庭国际酒店-咖啡吧,39.931132,116.527354,朝阳北路雅成一里18号豪庭国际酒店1层,d1ae1a5afbab47fb6240a9e8,(010)85517599,1,d1ae1a5afbab47fb6240a9e8
luckin coffee,39.891462,116.494654,东四环中路195号华腾新天地一层商业01内101室,,18601175262,1,478d2c04d823834f75e5b691
luckincoffee(四惠卓明大厦店),39.912312,116.522644,朝阳区高碑店惠河南街1069号卓明大厦一层,,4000100100,1,c73414ebe1ee89741df74d38
迈克咖啡的小酒馆,39.90962,116.544881,北京市朝阳区高碑店古家具一条街琦檀宇艺术博物馆,5fddd53e14685b2f7069d38e,,1,5fddd53e14685b2f7069d38e
电影人咖啡,39.911275,116.53022,西店村A区8号楼108,,,1,3da42d866bad64407d29bdf5
忆浓咖啡生活馆,39.911826,116.52771,北京市朝阳区西店村45号楼101,,,1,9a778398c5d220010e3dda43
瑞幸咖啡,39.899904,116.507217,北京市朝阳区广渠东路金泰国际大厦地下一层,,,1,63e94a2adb6103c5ab175aee
紫檀世家,39.918135,116.547868,花园闸路27号紫檀大厦一楼,78c3a238d914b5e0b75f1e23,(010)85766172,1,78c3a238d914b5e0b75f1e23
瑞幸咖啡,39.908272,116.511045,北京市朝阳区自空间CBD创意园,,,1,920c2f321f54fc1e2fe67be3
CSCA精品咖啡学院,39.904704,116.54801,北京市朝阳区文化新大街1367号东辰民族艺术大厦C座C06,6d1221c08e839cdf03ec014a,(010)87729001,1,6d1221c08e839cdf03ec014a
October coffee club,39.904477,116.511291,北京市朝阳区百子湾南一路下沉街209-104,,"18210161898,15910669381",1,10dcdcacb76fd7ed0aa8d4ba
咖啡之翼(高碑店),39.907498,116.531137,朝阳区御河大厦A座,,,1,5b4e5027979d43f1b426559e
kaffee latte Macchiato CAFE,39.91064,116.546723,北京市朝阳区高碑店古家具一条街,,,1,e3ed049dd3ecad3f8e55eca7
住邦阳光商务酒店-咖啡厅,39.920249,116.5009,八里庄西里96号,f28bf555616038db35b06c79,,1,f28bf555616038db35b06c79
怡己咖啡厅,39.921611,116.512213,朝阳路乙2号阳光新城市广场1层底商,,,1,53d7cb920c9dd01e2cb17e38
清风咖啡,39.904168,116.512713,北京市朝阳区百子湾南路,,,1,ff18f70b211800f733169b74
沃欧咖啡,39.920839,116.497844,北京市朝阳区八里庄街道东四环中路56号远洋国际中心a座2007沃欧咖啡,,,1,7576cf4ad40424d48b36ee79
埃塞俄比亚咖啡文化中心,39.912926,116.539141,朝阳区东三区G58-4号,,,1,fed9a4e001776ec3d13ce357
美食家咖啡,39.89986,116.50685,广渠路11号院1号楼101室,aa688f1d39b7da4d0a5cb3e4,"15718840801,13683211800",1,aa688f1d39b7da4d0a5cb3e4
1+cafe,39.900344,116.494428,广渠路金茂府东区底商,,13520681889,1,1b2f7cb1341e4bc4b11e3633
NINETYONECOBFFBEBAB,39.904327,116.549729,北京市朝阳区文化新大街南东北70米,9fbc35a70cee1b497d29bd81,,1,9fbc35a70cee1b497d29bd81
coffee box(慈云寺店),39.923607,116.499364,朝阳路慈云寺北里207-2号八里庄中心小学西南门对面,,,1,449da57d8ffa2ba68f55ecda
萨缇娜,39.90922,116.53316,北京市朝阳区南上坡二巷18号东北90米,,,1,c8686e05f166a9b0373a71c0
波点男神的主题咖啡馆,39.931156,116.552721,朝阳北路白家楼甲1号红庄国际文化保税创新园D-2-1号,,15811382132,1,9855661bbfeb6f4ed518b7c9
惠家WPM咖啡体验中心,39.909723,116.534703,北京市朝阳区高碑店村二区4-8,a7775276b8e6d1d69ee321ac,,1,a7775276b8e6d1d69ee321ac
星咖啡,39.922817,116.49472,北京市朝阳区东四环中路41号5层523-526室,,13157604530,1,2a314a10522c23bb40e19264
北京咖啡体验中心,39.910851,116.517154,北京市朝阳区国投尚科大厦1层,f23605972fc01849750269a4,,1,f23605972fc01849750269a4
LIVING ROOM COFFEE ROASTERS,39.923429,116.55665,北京市朝阳区定福庄西里2号院24h齿轮场5号楼101,,,1,0b4eb918adbcc2d987420e0c
Luna咖啡外卖店,39.930154,116.526703,朝阳北路99号大悦公寓南楼,,(010)85855725,1,39bb098ef6a371418b2fb548
SPR咖啡(唐家村5号商务楼东北),39.900677,116.518191,朝阳区竞园52-A,,,1,d5768a143398ef045af6be50
星巴克(常通路第一店),39.930941,116.604649,朝阳区常通路1号院西区1号楼1F-08-2F-08号,ea6000f068bc1202fbf0cb7f,(010)65430972,1,ea6000f068bc1202fbf0cb7f
艾比路咖啡,39.916571,116.588921,华文国际传媒大厦A座103号,eeb03d58281b4a42744ff19f,"(010)85398198,18612945733",1,eeb03d58281b4a42744ff19f
啡客站(传媒大学店),39.915712,116.560289,北京市朝阳区定福庄东街2号楼底商,e2c734e402405c4414a190b0,(010)65771278,1,e2c734e402405c4414a190b0
星巴克(常通路二店),39.930771,116.606905,北京市朝阳区常通路1号院1号楼长楹天街东区购物中心4层,93fbfca31a88d0ffaeb22ac3,(010)65430236,1,93fbfca31a88d0ffaeb22ac3
云臻咖啡,39.918566,116.605428,北京市朝阳区中百世贸3层,44aa509dbf3d56e38c1a893e,18519150088,1,44aa509dbf3d56e38c1a893e
馨咖啡(龙湖天街店),39.930395,116.605817,北京市朝阳区常通路1号院1号楼长楹天街购物中心B2,53a1be3c90e317a29b68b4ad,(010)65700068,1,53a1be3c90e317a29b68b4ad
luckincoffee(长楹天街店),39.930001,116.602544,朝阳区常通路3号院2号楼1层110室,,4000100100,1,97c0762c23253191da2f281c
克姆陪您宠物主题咖啡(瑞和国际店),39.928205,116.559535,北京市朝阳区瑞和国际商业F2-01号,2f44a34f6cf3ded6626858e6,17888809280,1,2f44a34f6cf3ded6626858e6
趣舍咖啡,39.910366,116.573342,朝阳区双柳北街39号天籁轩D座,87cb93fce902a2b690114cb5,13810751640,1,87cb93fce902a2b690114cb5
楼里咖啡,39.876652,116.588531,北京市朝阳区豆各庄乡宇达创意中心5号楼,bd5a4cd57175b33779b55cb5,(010)52458896,1,bd5a4cd57175b33779b55cb5
Miss Miya米娅咖啡厅,39.920423,116.562449,北京市朝阳区传媒大学动画与数字媒体学院2楼(近中国传媒大学北门),00d233e923ca5f167fc87623,15810200018,1,00d233e923ca5f167fc87623
酷云咖啡(华文国际店),39.916972,116.588541,华文国际传媒大厦B座106,6139a09c4d05f5bff82213dc,,1,6139a09c4d05f5bff82213dc
清若轩茶艺,39.925432,116.595811,北京市朝阳区常营南路50号院10号楼,6deee308910eb07328fc48b1,,1,6deee308910eb07328fc48b1
CARACE COFFEE,39.929143,116.595591,常营朝阳北路22号院柏林爱乐三期13号楼4单元底商,,"18600598565,(010)85380181",1,fa7463d76445a527b6147f0e
McCafe(东苇路店),39.926631,116.596965,北京市朝阳区常营乡东苇路鑫兆佳园15号楼,dda23f226bb99e8928d7ab91,(010)65434510,1,dda23f226bb99e8928d7ab91
二外giftime咖啡馆,39.918486,116.570183,定福庄南里1号院求是楼2层,af2d5a2693c6b8b3cae33c25,,1,af2d5a2693c6b8b3cae33c25
SG105 coffee,39.909294,116.582827,双桥路金隅可乐A栋105室,43bf589e9c3dbc2be8e582f3,(010)65427727,1,43bf589e9c3dbc2be8e582f3
CAKENAIRE,39.930415,116.608427,朝阳区朝阳北路龙湖长楹天街东区商业街一楼底商,,(010)65776771,1,448c0abd85d1cbadce04ef24
luckincoffee(万东国际店),39.916753,116.573791,北京市朝阳区万东15号,,18601357208,1,33ae00d455d1dd4b71455bfa
弪山·咖啡,39.877459,116.577307,北京市朝阳区于家围路东村创意园D1-1,,,1,b1c77cd5e04690a2631c6711
105COFFEESG,39.90915,116.582884,北京市朝阳区双桥路,,,1,89d6a544cf2331f41b11d5d7
麦咖啡(定福庄餐厅),39.922272,116.568947,北京市朝阳区定福庄北里1号定福庄路,65fa56ad0400be49b020a850,(010)65766466,1,65fa56ad0400be49b020a850
西街公园咖啡厅梧桐书屋店(广告博物馆店),39.920218,116.565521,北京市朝阳区定福庄中国传媒大学院内,e60425ecf9f2199679b55c83,,1,e60425ecf9f2199679b55c83
8090休闲吧,39.930824,116.616431,常营丽景园4号楼地下一层008东,fd7cf8071b5cfa4a26d2bbd2,,1,fd7cf8071b5cfa4a26d2bbd2
SUCAFE,39.904092,116.561778,北京市朝阳区,,,1,5ebaaaa1288a51a46fa3cc22
SHLphoto COFFEE,39.894384,116.577829,北京市朝阳区双桥路临2049文创园10-1号,,13683353061,1,f5ce3bd08e1a78202d4733ae
小绿咖啡,39.921133,116.597499,北京市朝阳区管庄东街,,,1,83ecb5c106af2f060bf5eb7f
机车咖啡,39.930325,116.609619,北京市朝阳区朝阳北路未来时大厦1201室,,,1,bf71448482be3cfa3a221c55
布鲁诺咖啡店,39.929791,116.604367,常营镇朝阳北路龙湖长楹天街西区一层,,,1,ea7a45f54c3111bbcf06a41a
欧洲古董咖啡店大地时尚店-南门,39.904088,116.559554,金家村中街9号大地时尚文化创意园附近,68e0603c6ee1b6c53517dc6a,,1,68e0603c6ee1b6c53517dc6a
MIAO COFFEE(山树乐),39.940958,116.119907,滨河路熙旺中心大厦A座一层,,(010)61805898,1,12d8ee15cc358617b5f42f57
Space酒吧,39.941371,116.119965,双峪路35号院1号熙旺中心B座2506号,,15600665717,1,ad5492d2edaccce6f7eafcaf
龙泉宾馆-咖啡厅,39.968599,116.110472,北京市门头沟区水闸北路21号,00af4eccc03626a9b6147fdf,(010)69843366,1,00af4eccc03626a9b6147fdf
黄金时代自家烘焙咖啡馆,39.949764,116.213057,北京市石景山区香山南路168-12号(西山枫林小区二期底商),976690456a0c12f2fb22133c,(010)56212829,1,976690456a0c12f2fb22133c
龙泉茶社,39.965244,116.185324,北京市石景山区八大处公园5处龙泉庵里,,(010)88964661-2055,1,87b12d6be9a3a251081cc7b7
zcafé,39.953249,116.231985,巨山路燕西台院内,b0be5e2d16d565c6c056acae,,1,b0be5e2d16d565c6c056acae
熊晚风咖啡馆BearBreezeCafe,39.95151,116.211071,北京市石景山区香山南路启迪香山A座大堂138-139从好利来向北行80米,,,1,efedca86d4e3154387330418
研磨时光咖啡,39.942829,116.203103,北京市石景山区八大处路49号院6号楼一层106号,,,1,7780648f450a9b4c43e192ea
cafe 8,39.96152,116.230856,杏石口路89号,,(010)62598383,1,54410b42f22032dee115f991
肯德基现磨咖啡馆（五孔桥店）,39.934553,116.283112,北京市海淀区西四环北路家乐福首层,e825bf01486b0302f50e7740,(010)52963558,1,e825bf01486b0302f50e7740
漫咖啡(蓝靛厂店),39.967557,116.295271,蓝靛厂东路2号院金源时代商务中心2号楼B座1层,1cbc67293e2af32f41d63ef6,(010)88891329,1,1cbc67293e2af32f41d63ef6
星巴克(金源燕莎店),39.964608,116.294371,北京市海淀区远大路1号金源燕莎Mall首层1016号,,(010)88893779,1,10011b8b55dbee1e9f09f75a
花舍咖啡厅,39.957628,116.291168,北京市海淀区远大园六区甲3号二层,66d97332d5d6a74da1a93443,(010)88597129,1,66d97332d5d6a74da1a93443
上岛咖啡(美丽园店),39.94449,116.281467,北京市海淀区西四环北路136号金泰海博大酒店1层北侧,edd64ce1378d68883fe2314d,(010)88592592,1,edd64ce1378d68883fe2314d
星巴克(远大路第三店),39.965392,116.295348,北京市海淀区远大路1号金源燕莎mall首层,,"(010)88875519,(010)88877831",1,67b46bf1d405b664b13c81e3
永泰福朋喜来登大堂吧,39.963738,116.286258,远大路25号A座永泰福朋喜来登酒店1楼(四季青医院对面),9199ba9005b1f180d0ff2359,(010)88898615,1,9199ba9005b1f180d0ff2359
百年義利咖啡店,39.933052,116.259713,北京市海淀区玉泉路2号龙徽葡萄酒厂西门(北京国际葡萄酒交易所),58a0ae98483cba1616a1904d,(010)52292312,1,58a0ae98483cba1616a1904d
星巴克(玉泉商业中心店),39.982094,116.257868,海淀区茶棚路2号玉泉商业中心1层,,(010)52902044,1,2231d3cad2b32f3ab45f1e8f
星巴克(杏石口店),39.959844,116.23694,海淀区杏石口路50号西杉创意园一区4号楼一层107-1号,191aef2cc10868725b109354,(010)62868130,1,191aef2cc10868725b109354
书写生活咖啡馆,39.95151,116.283622,北京市海淀区紫竹院路诚品建筑3号楼1层,a74481d661484f5ff403b8bb,(010)88500332,1,a74481d661484f5ff403b8bb
Summer Forever永夏咖啡,39.960525,116.278225,北京市海淀区四季青路永泰郦城果岭南一门优客工场1楼(建设银行正对面),d4237225e07720fff4eafc5e,18911951416,1,698640b68408195fb4f42f8f
望满阁(远大路店),39.965646,116.289362,蓝靛厂晨月园甲3,491e5ddf4c25887ab6147fc6,(010)88546180,1,491e5ddf4c25887ab6147fc6
查令十字街84号主题咖啡厅,39.937218,116.28526,北京市海淀区阜外亮甲店1号(中关村互联网文化创意产业园5号楼南侧),eeadd491e1df855c8605bf0a,18610123906,1,eeadd491e1df855c8605bf0a
MANCAT COFFEE(京粮广场店),39.937095,116.260355,北京市海淀区田村路43号京粮广场F1,1cbeaca9ad0f92f00869d96e,(010)88185767,1,6e33d69754766fccb35c6a31
GNU弄咖啡,39.965411,116.294374,北京市海淀区远大路1号-1层-1011,,(010)88503037,1,9de65ae8ce69153188db7374
清心阁茶楼(田村路店),39.935226,116.255447,海淀区畅茜园兰德华庭7号楼1层,b703e96bd74842e38f1a8950,(010)88251530,1,b703e96bd74842e38f1a8950
怡景咖啡,39.982145,116.263963,北京市海淀区闵庄路3号玉泉慧谷清华科技园会议中心,15a93810b612cea414c8f64d,(010)88850169,1,15a93810b612cea414c8f64d
狄安娜咖啡厅,39.931518,116.293408,北京市海淀区八里庄街道阜成路101号永兴花园饭店,0ce65c2df9f98b402d4733d4,,1,0ce65c2df9f98b402d4733d4
WSFM CAFE(世纪金源购物中心店),39.965053,116.296367,北京市海淀区远大路1号世纪金源购物中心F3,b4b299b0afa9a14ca2a93479,,1,b4b299b0afa9a14ca2a93479
鲜榨果汁咖啡(京粮广场店),39.936814,116.260212,北京市海淀区田村路43号京粮广场F1,de4714fdc2b22316a2a934c7,,1,de4714fdc2b22316a2a934c7
WORLD DREAM HOTEL,39.938175,116.2966,北京市海淀区玲珑路,b20d42a3a61ffe0a9e9d68eb,,1,b20d42a3a61ffe0a9e9d68eb
COSTA COFFEE(北京物美慧科大厦店),39.939617,116.282589,西四环北路158-1号慧科大厦物美便利店对面,,,1,0a05627e885a1613deee8bbc
博物馆咖啡,39.963778,116.275715,北京市海淀区东冉北街9号,,,1,caa78a1958521c1546572668
乔治大叔咖啡馆,39.967473,116.295122,蓝靛厂东路金源时代商务中心B座11层,,,1,0349c57967904dc62ce67b6e
老咖啡馆(四季青店),39.951079,116.283341,四季青桥南诚品建筑小区(轻松阳光俱乐部北),,,1,e750caa833173f4540024534
帕斯库奇咖啡厅,39.964485,116.292984,远大路金源购物中心贵友大厦一层,,,1,913f852b2cfb03d0ad31e53e
金泰海博大酒店-咖啡厅,39.944174,116.281686,西四环北路136号金泰海博大酒店,24c5b3cc7ecb17b332f71df2,(010)88461188,1,24c5b3cc7ecb17b332f71df2
湖心岛咖啡厅,39.959619,116.250911,北京市海淀区杏石口路65号院,,,1,2031b33486ef5e3e14c8f6cf
欧本咖啡(北京有限公司),39.936,116.2352,北京市海淀区阜石路69号锦绣大地物流港1层,11973347d0e501671f3894c5,,1,11973347d0e501671f3894c5
漫咖啡(万柳店),39.974832,116.304163,北京市海淀区万柳中路6号,a7fa7945801297807bf796c9,(010)61934587,1,a7fa7945801297807bf796c9
星巴克(中关村南大街店),39.959149,116.331828,海淀区中关村南大街甲18号C座第一层01-101单元,,(010)62163669,1,ae201853fedc4337f32d838e
雕刻时光咖啡馆(魏公村店),39.963096,116.317681,北京市海淀区魏公村7号(北理工大学南门西楼2楼),923ffd00483e7caed92f2858,(010)68946825,1,923ffd00483e7caed92f2858
星巴克(西环广场2期店),39.947444,116.359269,西城区西直门外大街1号西区B1-45-47A号,,(010)58301229,1,294029c69c13642c36b06c7a
星巴克(首体南路店),39.940337,116.331484,海淀区首体南路9号主语国际4座1层,b27eb541a55097370f0e6bb4,(010)68790211,1,b27eb541a55097370f0e6bb4
么么咖啡(紫竹店),39.949605,116.31148,北京市海淀区紫竹院路紫竹花园F座二层88号,1eeed54649a7e6ebb5147f59,(010)88553117,1,1eeed54649a7e6ebb5147f59
仟岛咖啡(花园桥店),39.937789,116.328949,北京市海淀区车公庄西路20号水电集团东侧(水科院北门旁),3156813460311c5774026992,(010)58481828,1,3156813460311c5774026992
星巴克(新中关购物中心店),39.984075,116.322189,海淀区中关村大街19号新中关大厦首层L128A号,f757e6ee738d8a0e260bd059,(010)82486056,1,f757e6ee738d8a0e260bd059
雕刻时光咖啡馆(北航店),39.985592,116.354899,北京市海淀区学院路37号北京航空航天大学天行网球馆2楼(篮球场东),e116be546de3d162c81b95f2,(010)82310664,1,e116be546de3d162c81b95f2
CC咖啡馆,39.949954,116.355637,北京市海淀区高梁桥斜街59号院2号楼底商108号,7e36f6ad43bc9f4cc4f02554,(010)62198819,1,7e36f6ad43bc9f4cc4f02554
BunnyDrop(知春路店),39.982509,116.3499,知春路29号7-8号楼1-2层,a5d29e9ef52e676c94ca07bb,(010)52889111,1,21fbf8cdc1ff4c5d88b9888e
星巴克(腾达大厦店),39.943732,116.333277,海淀区西直门外大街168号腾达大厦2层210号,e54066a7ff619e9495f08cc5,(010)88577710,1,e54066a7ff619e9495f08cc5
阿狸咖啡馆,39.985972,116.320422,中关村大街15号东方创业谷·食宝街,fb504096090c8bfc07026f50,(010)53963733,1,fb504096090c8bfc07026f50
方桌咖啡,39.933815,116.357926,"百万庄大街6号(太平洋保险,汉博达数码快印)",586835c56cb9b9d6ede4a58d,(010)88365496,1,586835c56cb9b9d6ede4a58d
星巴克(华宇时尚店),39.970987,116.329656,海淀区中关村南大街2号数码大厦B座华宇时尚购物中心1层,e96b4420e426464082288a58,(010)51626615,1,e96b4420e426464082288a58
星巴克(西直门外大街店),39.944739,116.35587,西城区西直门外大街18号2单元101-07号,618b98d72eab2c3b220262ad,(010)88384680,1,618b98d72eab2c3b220262ad
星巴克（中关村大街第三咖啡店）,39.986082,116.320791,海淀区中关村大街15-9号,,(010)53938583,1,472cec9a7b790cc0e9f853ab
luckincoffee瑞幸咖啡(联想桥店),39.975798,116.341696,海淀区中关村东路118号神州优车集团一层,bde38561a8e64c67cae33c4c,4000100100,1,bde38561a8e64c67cae33c4c
白石桥七号咖啡馆,39.96864,116.317367,北京市海淀区北三环理工大学北门国际交流大厦1楼,84fab239d049cca03a04b113,"(010)68945587,(010)68945611",1,84fab239d049cca03a04b113
咖啡猫小窝,39.964502,116.358352,学院南路学院派15号院10号楼,60e0db6bd5d868d7354aaee6,(010)62440997,1,60e0db6bd5d868d7354aaee6
雕刻时光咖啡馆,39.952584,116.348113,北京市海淀区高粱桥斜街19号院11号楼,,(010)82163889,1,3c4e4cb8ba0cfd7ca20464f2
博乔咖啡(丹棱街店),39.985654,116.317905,丹棱街3号中国电子大厦A座1层101、102房间,d1fcc37f3d162b62b4f42f8a,"(010)58752308,(010)58752309",1,d1fcc37f3d162b62b4f42f8a
COSTA COFFEE(阳光大厦店),39.943797,116.352802,西直门外大街112号阳光大厦1层102号,5de7a4988964ffcfe5073801,(010)68305260,1,5de7a4988964ffcfe5073801
luckincoffee瑞幸咖啡(11大厦店),39.986002,116.315765,海淀区彩和坊路10号1加1大厦1层1-6-02号,c2c2d6f82924bc9252e5c5b5,4000100100,1,c2c2d6f82924bc9252e5c5b5
蓝调派咖啡馆,39.949618,116.317991,北京市海淀区紫竹院路广源闸5号广源大厦一层,073699968dedbbc900ff2db7,"18600735576,18303300880",1,073699968dedbbc900ff2db7
瑞幸咖啡(外文大厦店),39.94047,116.315623,海淀区西三环北路89号中国外文大厦B座1层,,,1,73436faae51fca93e60738c6
COSTA COFFEE(海淀中街店),39.98752,116.31934,北京市海淀区海淀中街6号1层,40cfbc7878cf0a9a2fe67bca,(010)82488485,1,40cfbc7878cf0a9a2fe67bca
luckincoffee(黄庄尚科店),39.982553,116.325341,海淀区中关村大街28-1号-1层尚科办公中心地下一层,,4000100100,1,e60aebda4b9825491b94c642
大象咖啡,39.966471,116.308258,北京市海淀区万柳亿城中心C座1层,58351a2a6f86c66d22022021,15100954955,1,58351a2a6f86c66d22022021
蓝芭咖啡,39.982526,116.356598,北京市海淀区知春路9号坤讯大厦16楼(近北京航空航天大学南门),89fd4ea303076d5ee5e965c1,(010)82332427,1,89fd4ea303076d5ee5e965c1
品诺咖啡,39.950008,116.328784,北京市海淀区中关村南大街33号国家图书馆北区1层,b703e96bd74142e38f1a895b,(010)88544518,1,b703e96bd74142e38f1a895b
COSTA COFFEE(北京双安商场店),39.972127,116.33255,北京市海淀区北三环西路38号北京双安商场F2,bba87388ca172ab9bca822d2,(010)62140330,1,bba87388ca172ab9bca822d2
星巴克(北京中关村亿世界店),39.98703,116.321898,海淀区中关村大街11号中关村e世界A座1楼,4128d2d9705a843d6140a982,(010)62418405,1,4128d2d9705a843d6140a982
麦咖啡(知春路店),39.982746,116.340776,北京市海淀区知春路59号,a53d448dd59cc3e1c036448a,(010)82628192,1,a53d448dd59cc3e1c036448a
奇遇花园咖啡馆,39.94809,116.354606,西城区北展北街9号华远企业号D座底商(近西直门凯德MALL购物中心),00586108524fe6bc46e2745e,(010)88320741,1,00586108524fe6bc46e2745e
luckincoffee(立方庭大厦店),39.986756,116.315766,海淀区善缘街1号立方庭大厦一层,,4000100100,1,0860eaa45c4a39c649fc8d2d
COSTA COFFEE(欧美汇购物中心店),39.985534,116.320503,北京市海淀区丹棱街甲1号欧美汇购物中心F3,173ddd6b8d342c617ab55c71,,1,173ddd6b8d342c617ab55c71
海德柒号咖啡馆,39.979409,116.358716,西土城路一号院6号楼,,(010)83031718,1,272eb8c27775c7b131870a0e
雅菲咖啡,39.952557,116.329821,北京市海淀区中关村南大街31号神舟大厦首层,09a99c11fb02f0e996ec84ef,(010)68118788,1,09a99c11fb02f0e996ec84ef
研磨时光咖啡(交大店),39.954491,116.350289,交通大学路交大嘉园1号楼底商,0920c32b05efd5dc6318092e,,1,0920c32b05efd5dc6318092e
FLOWER咖啡西餐,39.961952,116.315178,北京市海淀区西三环北路19号北京外国语大学北外宾馆B1层,89fd4ea32894165ee5e96556,(010)88812688,1,89fd4ea32894165ee5e96556
Circle Coffee咖啡厅,39.97412,116.321821,北京市海淀区中关村大街59号中国人民大学留学生食堂第1餐厅,7da4a05b094386d142d63ea6,15801458389,1,7da4a05b094386d142d63ea6
科学猫头鹰咖啡厅,39.951637,116.308651,紫竹院路中国兵器大厦69号二楼,a1fa5fbc8bda6ef1990050c0,(010)68423399,1,a1fa5fbc8bda6ef1990050c0
赛博咖啡(中关村店),39.983446,116.317996,"海淀区海淀中街16号中关村公馆B座102底商(中国移动设计院,微软大厦,中国电子大厦,人大北校区,新东方,新中关,巴比伦时尚酒店)",a73eed9ac574dd118433048c,(010)62682418,1,a73eed9ac574dd118433048c
luckincoffee(紫金数码园店),39.984337,116.343135,海淀区紫金数码园4号楼一层0113室,9f0869c278b302699ee3211f,4000100100,1,9f0869c278b302699ee3211f
Coffee Craft·CC咖啡馆,39.950092,116.35493,北京市海淀区高梁桥斜街59号院2号楼底商108号,1386cc578877a5af36b06cce,(010)62198819,1,1386cc578877a5af36b06cce
海洋文化空间,39.962744,116.337723,学院南路72号,530e4beeb6ebed55601c6729,,1,530e4beeb6ebed55601c6729
雕刻时光咖啡馆(腾讯员工店),39.983031,116.343423,海淀区知春路49号希格玛大厦1层,92dd5edee6074b03c42ba1f7,(010)82173307,1,92dd5edee6074b03c42ba1f7
舍得茶馆(总店),39.948865,116.318533,北京市海淀区紫竹院路甲2号,cb4fd14647d6cd589d9d6859,(010)68465743,1,cb4fd14647d6cd589d9d6859
光盐咖啡,39.964278,116.358472,北京市海淀区学院南路15,fcc086b6f5546fbe2eb17ebe,18511370703,1,fcc086b6f5546fbe2eb17ebe
汇贤·迦南美地(人民大学店),39.975993,116.314734,北京市海淀区中关村大街59号人民大学汇贤楼B座1楼(近人大西门),96b672aa5244466ccf04efa1,18801439331,1,96b672aa5244466ccf04efa1
蓝薇咖啡(人大店),39.974182,116.322771,北京市海淀区人民大学国际交流中心高丽会馆B1,68047115cc447fc58e77276e,"(010)56210969,13011857586",1,68047115cc447fc58e77276e
泊星地咖啡馆(人民大学店),39.977294,116.314073,中关村大街59号中国人民大学经济学院图书馆附近,56e73c48b8989fdbc61b75cd,,1,56e73c48b8989fdbc61b75cd
咖啡茶自助餐厅(香格里拉饭店),39.950131,116.315037,北京市海淀区紫竹院路29号香格里拉饭店1楼(西三环北路与紫竹院路交叉口西北角),04409c0ea75eb6237bf79601,(010)68412211,1,04409c0ea75eb6237bf79601
精品购物指南咖啡厅,39.982429,116.326281,中关村大街28号文化艺术大厦B座7、8楼,8f1bb1f16ec1f62ecd04ef9f,(010)82623388,1,8f1bb1f16ec1f62ecd04ef9f
大容咖啡(蓟门里店),39.97903,116.358418,北京海淀区西土城路蓟门里北乙11号烟树商务楼2楼(近首都体育学院),a1418eb4faf90666eae582a0,(010)82086510,1,a1418eb4faf90666eae582a0
加纳达咖啡,39.942841,116.315636,北京市海淀区西三环北路83号国际文化大厦二层,b301607d725eae144e2fdf19,13811769522,1,b301607d725eae144e2fdf19
品诺咖啡-读者餐厅,39.950113,116.328803,中关村南大街33号中国国家图书馆附近,,,1,e8e3b01b0272075153e5c5e3
元咖啡(湖北大厦店),39.953397,116.331765,中关村南大街36号湖北大厦首层,b275fa2503b2f8a75e0d020c,(010)62108399,1,b275fa2503b2f8a75e0d020c
啡诗阁咖啡厅(数码大厦店),39.971979,116.329539,中关村南大街2号数码大厦A座一层,,(010)51627775,1,f1c9997120e59962c33644d1
林茵时光咖啡厅,39.978621,116.316218,北京市海淀区人民大学北路29号,f022c4544729fa2d9a005055,15510181832,1,f022c4544729fa2d9a005055
Latte Only Café(拿铁Only咖啡馆),39.964608,116.32102,北京市海淀区中关村南大街5号北京理工大学体育馆南厅B1楼,5503801d2daef0e771210b65,18612692557,1,5503801d2daef0e771210b65
九榀咖啡JOY BEANS(财大店),39.96423,116.35241,学院南路35号超市发旁九榀咖啡,,18810811913,1,abbf47d6001f80069de3219f
新7天咖啡厅(人大店),39.975651,116.328609,北京市海淀区中关村大街46-1号,72e57fd7ac4a5db6f8dc855d,(010)62642523,1,72e57fd7ac4a5db6f8dc855d
酷浪咖啡厅,39.961287,116.321305,西三环北路2号(东院)(北区)171号楼一层1号,54043372d78cfaed077ce836,(010)88810882,1,54043372d78cfaed077ce836
原理咖啡,39.984244,116.343659,北京市海淀区星规路紫金数码园大厦4号楼一楼(希格玛公寓北门对面),58d2fbf6baadf7de6e20b923,13051343948,1,58d2fbf6baadf7de6e20b923
maximocafe,39.95953,116.315093,北京市海淀区西三环北路21号久凌大厦北楼,,(010)68403068,1,bd6fe96720408dc1246e981f
瑞幸咖啡(西海国际中心店),39.969643,116.315839,北京市海淀区北三环西路99号院西海国际中心一栋一,,,1,1317bfb440e2053079b55cf5
当绿咖啡馆,39.961052,116.320157,北京海淀区西三环北路2号北京外国语大学大学生创业中心内(体育馆北侧),8ab0dfc4f6b4390fd9ecedfa,(010)88818758,1,8ab0dfc4f6b4390fd9ecedfa
猛犸咖啡,39.954692,116.331436,中关村南大街三十二号中关村科技发展大厦一层。中央民族大学正对面。,00df1d93dbe2699187154164,(010)62154027,1,00df1d93dbe2699187154164
漫享咖啡,39.958251,116.343195,北京市海淀区大柳树路交大科技大厦2层,2425e816a7123e1048cc4abf,(010)82101958,1,2425e816a7123e1048cc4abf
TOM N TOMS COFFEE(京现店),39.983804,116.344909,知春路甲18号北京现代店内,,(010)62576820,1,1dfc7e43ea79b181b11e36c0
爱上层楼咖啡馆,39.962633,116.315292,北京市海淀区西三环北路13号(北外西校区大门北侧),680fb7037d0170858bb98852,(010)88814020,1,680fb7037d0170858bb98852
金点咖啡,39.940246,116.348556,展览馆路1号北京建筑大学内图书馆下沉广场,,15811105016,1,d06a4dd4d30ea2c5ab0dd8be
布鲁诺咖啡,39.982366,116.327132,知春路113号银网中心B座一层,,,1,bc26294b5cc1f8371d580070
北京友谊宾馆-咖啡厅,39.96947,116.325769,中关村南大街1号北京友谊宾馆友谊宫1层,0432da38949737006140a9f8,(010)68498888,1,0432da38949737006140a9f8
书和咖啡,39.981201,116.324009,中关村村南大街31号,,,1,234a85eb0f3690d76c3e1b57
阳光地带咖啡厅,39.978726,116.316964,北京市海淀区中关村大街59号人民大学知行4楼大学生生活服务区,1b49936b191e7e0a7f29bd3b,(010)62510868,1,1b49936b191e7e0a7f29bd3b
BLAQ咖啡,39.986542,116.337651,中关村南一条一号中科爱克大厦2号楼1层,11eb0eef057c046140ab9a2d,,1,11eb0eef057c046140ab9a2d
星巴克(学院南路店),39.963011,116.34438,海淀区学院南路62号院中关村资本大厦1楼,,(010)53935112,1,cae9041a7ae73ae488db73e3
格瑞咖啡馆,39.980306,116.345323,知春路甲48-3盈都大厦C座公寓107室,624c6679896b49d430f71dae,,1,624c6679896b49d430f71dae
北京丽亭华苑酒店-咖啡苑,39.983131,116.351701,北京市海淀区北京海淀区知春路25号丽亭华苑酒店1楼,15ed53ceea200f4d9222e048,"(010)82356699-651,(010)82356699-650",1,15ed53ceea200f4d9222e048
wings咖啡,39.987314,116.355213,北京市海淀区学院路37号北京航空航天大学培训中心一层,04790b424f54a74bd0ff234b,(010)82339450,1,04790b424f54a74bd0ff234b
绿洲咖啡园,39.984357,116.359072,北京市海淀区学院路39号唯实国际文化交流中心3楼(近学知桥),be1ea5effe5083a614948e59,(010)62308899-62,1,be1ea5effe5083a614948e59
北展咖啡厅,39.945943,116.350374,北京市西城区西直门外大街135号北京展览馆内,,,1,65b986d6a8617fe4f7231063
Niiice Cafe(中关村店),39.984322,116.316275,丹棱街16号海兴大厦B座二层三层(汉庭酒店内),eb0995c921d6f99f8bf15d27,,1,eb0995c921d6f99f8bf15d27
SPR COFFEE(数码大厦店),39.972022,116.330009,北京市海淀区中关村南大街2号数码大厦a座1楼,34e485088851dafbd8d89108,(010)51627680,1,34e485088851dafbd8d89108
dotcom space古点空间,39.983308,116.357904,知春路7号致真大厦D座1层,5abb545983848073631c679a,(010)83030678,1,5abb545983848073631c679a
舰船知识,39.962772,116.337849,学院南路72号,0930390c74be61696140a9d9,13366340326,1,0930390c74be61696140a9d9
高乐雅咖啡(青云店),39.974571,116.336088,北京市海淀区北三环西路43号青云当代大厦西门一层,40ae9d1687494572d3ff23d1,(010)51630698,1,40ae9d1687494572d3ff23d1
中国人民大学水穿石,39.976728,116.322507,北京市海淀区中关村大街59号人民大学校内中区食堂旁(逸夫会议中心北),23116913887895e4734b875d,(010)62511547,1,906b7d4a93cbd9684002452b
翌咖啡,39.954522,116.349887,北京市海淀区交通大学路3号院3号楼一层,148576b2c85a519e3586f4b5,(010)51683900,1,148576b2c85a519e3586f4b5
冰原咖啡(紫竹桥店),39.941878,116.303897,北洼村62号北京福特宝足球发展公司南楼一层1003号,c29459228cce0cc83010af20,18500362813,1,c29459228cce0cc83010af20
brunocaffe(银网中心店),39.982452,116.327269,海淀区知春路113号1幢1层103-104-105号,,(010)62585920,1,410389f0ae980d9f43e192c6
人大人空间咖啡,39.970118,116.347417,大钟寺13号华杰大厦B座1层人大人空间(大钟寺中坤广场),c941d2fdfc758c2990114cc2,13681284069,1,c941d2fdfc758c2990114cc2
北京丽亭华苑酒店咖啡苑-西餐厅,39.982898,116.351799,北京市海淀区知春路25号北京丽亭华苑酒店2层,ae1a74e7708a362dc9291574,(010)82356699,1,ae1a74e7708a362dc9291574
羽灵COFFEE,39.952599,116.323857,北京市海淀区民族学院南路19号院11号,33a75be2034132bc04026f30,,1,33a75be2034132bc04026f30
元咖啡(北方地产大厦店),39.953446,116.305124,北京市海淀区紫竹园路81号(北方大厦地产首层),8b075eaeb146a53dd72ce2a4,(010)68436580,1,8b075eaeb146a53dd72ce2a4
创之翼咖啡吧,39.982587,116.31586,北京市海淀区海淀南路甲21号中关村知识产权大厦A座B1(地铁10号线苏州街B口直行300米),3cbcd296dfe763a21d1d11fc,,1,3cbcd296dfe763a21d1d11fc
runo caffe(银网中心店),39.982272,116.327222,北京市海淀区知春路113号银网中心首层103-105,,,1,28a12f19fa4236623310af61
玫瑰苑咖啡厅,39.977724,116.34457,大钟寺东路9号京仪大酒店1层(近地铁知春路站),c271757ed0becb594354d70e,(010)62165588-5538,1,c271757ed0becb594354d70e
世纪咖啡厅,39.942797,116.334905,北京海淀区首体南路6号新世纪日航饭店1楼,cb4fd1464514cb589d9d681f,(010)68492001-82,1,cb4fd1464514cb589d9d681f
艾丽华咖啡厅,39.980227,116.308987,北京市海淀区海淀南路36号海润艾丽华酒店1楼(近地铁10号线苏州街A出口),083a55fa884ce260256e98b1,(010)82669999,1,083a55fa884ce260256e98b1
100CAFE咖啡店,39.956627,116.344712,北京市海淀区鲲鹏路,17f16d5a629f45870f0a7097,,1,17f16d5a629f45870f0a7097
鲜果时间(人大一店),39.978976,116.324983,中关村大街49号7号楼一层5号(人大附中东门),53cebd502ae35c782b02e1ed,(010)62623769,1,53cebd502ae35c782b02e1ed
星巴克(金源燕莎2店),39.965027,116.297648,海淀区远大路1号友谊商城金源店地下一层,,(010)88873879,1,672e4552182f99b08f1a8930
星愿咖啡,39.963921,116.347968,北京市海淀区学院南路39号融金中财大酒店1层大厅,764672e50a6f6cb494ec8400,,1,764672e50a6f6cb494ec8400
fr咖啡,39.982616,116.313203,苏州街银丰大厦3层,,,1,e9b23b9d3d52ae47336212e6
UME咖啡厅(中关村店),39.973538,116.332666,北京市海淀区科学院南路44号华星国际影城3楼,2cc3c8e8936854cf4d2fdf5d,13801312817,1,2cc3c8e8936854cf4d2fdf5d
提可味(交通大学店),39.95536,116.346095,北京市海淀区上园村3号北京交通大学12公寓楼对面提可味咖啡店,6620c83b9490d0e0b817e74d,(010)59485060,1,6620c83b9490d0e0b817e74d
皇苑大酒店-咖啡厅·宴会厅,39.963441,116.310712,西三环北路19号皇苑大酒店3楼(近厂洼北路),31a7058018e72e189fec2b1c,(010)68413388,1,31a7058018e72e189fec2b1c
BLAQ FINE COFFEE,39.98654,116.337642,中关村南一条甲1号2号楼1层103室,a9d26d8cd41bb6614d5547ea,13488836856,1,a9d26d8cd41bb6614d5547ea
派希亚咖啡厅,39.94299,116.34197,北京市西城区西直门外大街140号首建金融中心底商,9a71164cfa6c9ebcd2f49e6d,,1,9a71164cfa6c9ebcd2f49e6d
爱·咪欧 冻酸奶店,39.984284,116.321689,北京市海淀区中关村大街19号新中关B2层,feb3b5a6c97b43adeb56faeb,15340081025,1,feb3b5a6c97b43adeb56faeb
瑞幸咖啡,39.984329,116.342682,紫金数码园4号楼,,,1,d2a3fa184565f4ca59f6bebe
ELEPHANT  COFFEE,39.966346,116.30824,北京市海淀区长春桥路11号万柳亿城中心C1座1层,28fe120fd97787ba00ec0168,15100954955,1,28fe120fd97787ba00ec0168
起点咖啡,39.936353,116.359157,北京市西城区北礼士路129号,fbdc3345818c2a4ea21de9fc,(010)88577877,1,fbdc3345818c2a4ea21de9fc
北京友谊宾馆贵宾楼米兰咖啡厅,39.969672,116.3277,中关村南大街1号友谊宾馆贵宾楼,fc48b9df2765c368d12dd67b,,1,fc48b9df2765c368d12dd67b
新世纪日航饭店-大堂酒廊,39.943161,116.33458,北京市海淀区首体南路6号新世纪日航饭店1楼,94fc79be7a72238fab0dd844,(010)68492001,1,94fc79be7a72238fab0dd844
Blanko咖啡简餐,39.984715,116.314517,海淀区丹棱街18号创富大厦1层,,,1,c6e2e08ea1a42757bea2408e
BFSU Cafe,39.962281,116.313813,西三环北路19号北京外国语大学西校区内,6df1e4478aafe6d0d4851ffe,,1,6df1e4478aafe6d0d4851ffe
zerocoffee,39.936356,116.359161,北京市西城区北礼士路乙131西70米,18bf8dcf84b8de940869d95c,,1,18bf8dcf84b8de940869d95c
木几咖啡,39.956746,116.352458,交通大学机械楼10楼,,,1,e82ece45f16d11c1a7c756e1
瑞幸咖啡(嘉豪国际中心店),39.95357,116.298781,北京市海淀区曙光街道紫竹院路116号嘉豪国际中心a座瑞幸咖啡店,,,1,a5db08424f35a99d3686f47f
SPACE COFFEE,39.98167,116.338305,北京市海淀区知春路翠宫饭店旁边,3fe4535b1b4db238276e989f,(010)82617918,1,3fe4535b1b4db238276e989f
学苑咖啡,39.95458,116.325892,北京市海淀区中关村南路27号中央民族大学内,4e7fbfb8a49dd8f87c29bd28,18511698561,1,4e7fbfb8a49dd8f87c29bd28
壹刻送生活馆,39.977446,116.344891,海淀区大钟寺东路9号京仪科技大厦京仪大酒店正门南,,,1,bea7a74f1d60f4b5f72310f3
MO咖啡,39.95879,116.315238,北京市海淀区西三环北路21号久凌大厦南楼大厅,,,1,44d0fb19f01293d80bccdda7
北京酒店咖啡机用品市场,39.965019,116.29801,北京市海淀区远大路1号北京酒店咖啡机用品市场,e7fd6012f1bfceaf9b68b493,(010)88893981,1,e7fd6012f1bfceaf9b68b493
北塔大堂咖啡厅,39.93887,116.328462,北京市海淀区车公庄西路乙19号华通大厦b座北塔大堂咖啡厅,,,1,54241a452480b5d1eb1e97d0
绿色营地网吧咖啡,39.958014,116.35427,交大东路17号楼如家酒店内三层(京媒大厦交通大学东门门口),,,1,ceeb48fddae7422c6168581d
张家界第一街咖啡,39.971061,116.329661,维港十字街十栋204,1e8ff10d7732c4e387330461,,1,1e8ff10d7732c4e387330461
湖北大厦-咖啡厅,39.953399,116.331764,中关村南大街36号,a03f0d1fc30d0666c8c3db41,"(010)62172288,(010)62175190",1,a03f0d1fc30d0666c8c3db41
dc咖啡馆,39.94591,116.300764,全国北京北京海淀区蓝靛厂南路55号金威大厦附楼fdc咖啡馆,,,1,789fbd6ee5b4c1e807026f72
金龙潭大饭店-咖啡厅,39.944723,116.31602,北京市海淀区西三环北路71号金龙潭大饭店1层,9a5c88bda07a7927631c6729,"(010)88811188-2120,(010)88811188-2121",1,9a5c88bda07a7927631c6729
LANEWAY COFFEE,39.974136,116.322723,中国人民大学国际交流中心高丽会馆b1层,886cdb8bbd6cd4d4047ce868,13011857586,1,886cdb8bbd6cd4d4047ce868
漫时光(首体店),39.950888,116.337363,海淀区五塔寺路12号,d22dd1316774d1de1df74d1f,,1,d22dd1316774d1de1df74d1f
西尚咖啡馆北侧-占道停车场,39.959099,116.325374,魏公街,,,1,c4eae5e48c0f1df6bbbd6312
连咖啡(当代商城),39.976699,116.327468,中关村大街40号当代商城F1层,,,1,0e4d5df97c65255576e5b684
咖啡零点吧,39.952554,116.299216,海淀区嘉友国际大厦1层,,,1,39796846e112fd355cd4fe85
STAR CLUB(新中关店),39.984261,116.321195,海淀区中关村大街19号新中关购物中心第2街L212号(近丹棱街),,,1,3c00c2d7d42e0e20cf06a471
COFFEE CARFT CAFE,39.950123,116.355074,高梁桥斜街116号附近,bb671d7aeedca0edeee4a534,,1,bb671d7aeedca0edeee4a534
DeChocolateCoffee,39.979524,116.301726,巴沟路2号BHGMall北京华联万柳购物中心B2,,,1,578a0bf05d6c98dd2fb90896
雕刻时光咖啡馆(香山店),39.99776,116.205324,北京市海淀区香山买卖街甲11号,3da907f37cdff94ab320a852,(010)82590040,1,3da907f37cdff94ab320a852
鸿宾苑咖啡厅,39.997077,116.209024,北京海淀区北正黄旗59号香山金源商旅中心酒店B1楼,d6df91c11fc70573f6b916a4,,1,d6df91c11fc70573f6b916a4
问松轩,39.997788,116.199847,买卖街40号香山公园内,,(010)62591360,1,1fa7addb55830bf39d9d68fc
香山饭店咖啡厅,39.995634,116.201228,买卖街40号香山饭店1层,d5f93c0ef3525c45eddfca61,"(010)62596636,(010)62591166",1,d5f93c0ef3525c45eddfca61
古街咖啡小屋,40.000809,116.207038,北京市海淀区碧云寺路39号附近,,,1,8ff3502e7a9e1575f42310f1
星巴克(北京龙湖天街店),40.004695,116.295768,海淀区颐和园路206号龙湖星悦荟L1-01-03号,89fd4ea32bca155ee4e965bc,(010)62501706,1,89fd4ea32bca155ee4e965bc
林之雨咖啡屋,40.039845,116.289299,北京市海淀区马连洼北路59号,aa27314437ee03f7d0ff23a1,"(010)62890889,(010)62899809",1,aa27314437ee03f7d0ff23a1
COSTA COFFEE(肖家河店),40.021388,116.277471,北京市海淀区龙背村路99号华联商厦F1,1e5a59db1f7bc19faaf0cd38,(010)59012331,1,0db4cc31bdec92886f4760e6
于是咖啡(马连洼店),40.039583,116.286547,海淀区马连洼北路西山华府底商31-113,2a6a9e810c5a06b7d518b7cb,13466322363,1,2a6a9e810c5a06b7d518b7cb
1905COFFEE,40.034087,116.285245,北京海淀区圆明园西路2号农业大学颐园4楼,425de754aab93027fe0eb0ec,(010)62898318,1,425de754aab93027fe0eb0ec
咖茗屋,40.030916,116.286977,北京市海淀区北京海淀区圆明园西路2号中国农业大学西校区图书馆1楼,92b806d2379772e779b55c4d,(010)62734602,1,92b806d2379772e779b55c4d
天露居,40.008235,116.280005,北京市海淀区新建宫门路19号颐和园苏州街内,a533377612e8f7fdc27da2e0,,1,a533377612e8f7fdc27da2e0
颐和安缦-咖啡厅,40.005692,116.288608,北京市海淀区颐和园宫门前街1号,51f358da601a094706fef588,(010)59879999,1,51f358da601a094706fef588
百旺咖啡厅,40.039674,116.289385,北京市海淀区马连洼北路59号亿城国际中心百旺咖啡厅,,,1,b1f50c2f0cfbe725373a7159
漫咖啡(王庄路店),40.003863,116.346187,王庄路15号清华同方科技广场D座1层,3be122e1d401264b1ff74df1,(010)82366016,1,3be122e1d401264b1ff74df1
六月花园咖啡馆(中关村东路店),39.994868,116.341467,北京市海淀区中关村东路16号院龙湖唐宁ONE2号A123号商铺,ea39734592cad8cb14b54bf5,(010)62423421,1,ea39734592cad8cb14b54bf5
3W咖啡(北京旗舰店),39.989049,116.313658,北京市海淀区海淀西大街70号101室,cdef4edf0338a75728d7ab71,(010)59433307,1,cdef4edf0338a75728d7ab71
星巴克(畅春园店),39.994782,116.311204,海淀区颐和园路8号,b817740b50270d45a0acc453,(010)81046615,1,b817740b50270d45a0acc453
拾年咖啡(清华大学店),40.00541,116.334182,北京市海淀区成府路清华大学南门1区清华园胶印厂,22184f562ef13c2cf01937a8,(010)62798291,1,22184f562ef13c2cf01937a8
星巴克(上地三街店),40.042191,116.314668,海淀区上地三街9号金隅嘉华大厦B座1层,f7dc78501310cb09fb42b20d,(010)62978546,1,f7dc78501310cb09fb42b20d
香啡小镇(上地店),40.036394,116.318361,上地信息路19号商服中心3楼,339751614bdbe7f95fbe860e,(010)62976558,1,8fa14fc39c8c3c77f7eafc66
星巴克(科学院南路店),39.990413,116.3333,海淀区科学院南路6号融科资讯中心B座1层019单元,,(010)82861286,1,0c38d66cd422875dc51b7574
途尚咖啡(五道口店),39.998022,116.345212,北京市海淀区成府路28号1层101室29/30号及二层201室22/23/24/34号,94c6d7243a893ba2cc06a4e6,(010)82432602,1,94c6d7243a893ba2cc06a4e6
星巴克(五道口购物中心店),39.998125,116.345803,海淀区成府路28号1层101-10B号,610852112d468fb8c51b7558,(010)61647620,1,610852112d468fb8c51b7558
车库咖啡,39.989957,116.313417,北京市海淀区西大街48号鑫鼎宾馆2楼,101bc61b429a95bac42ba119,(010)82627127,1,101bc61b429a95bac42ba119
翀咖啡(清华东路店),40.006941,116.34599,北京市海淀区清华东路甲1号凯时广场A202号,b5210f4f04244159c52ba1aa,"(010)82731388,13810229013",1,b5210f4f04244159c52ba1aa
1911咖啡(清华荷塘店),40.007546,116.326437,北京市海淀区清华大学校内近春路荷塘小岛中央,2b0211a58b31c18915a190f5,(010)62798288,1,2b0211a58b31c18915a190f5
星巴克(威新国际大厦店),39.999372,116.338927,海淀区中关村东路1号清华科技园搜狐大厦1层,5e95316631ce5d88a1046427,(010)58722056,1,d25b0c6f5c62cdf396ca0733
Catail小后院,39.99492,116.341758,北京市海淀区中关村东路16号院龙湖唐宁ONE2号楼A126室,f78aa062d96995406f3e1be9,(010)82685320,1,f78aa062d96995406f3e1be9
Ricci Cafe(科技大厦店),39.999176,116.337759,中关村东路1号院清华科技园D座1层,16840bcecf384672eaf85343,(010)82158826,1,16840bcecf384672eaf85343
独峰书院咖啡屋,40.012947,116.330169,北京市海淀区清华大学清西文化长廊独峰书院2楼,4460dabf8909ed612d4733ec,(010)62789362,1,4460dabf8909ed612d4733ec
COSTA COFFEE(中关村融科店),39.989105,116.333492,融科资讯中心C座B1,b7021bf81a7ac0e3f4e73b59,(010)82862890,1,b7021bf81a7ac0e3f4e73b59
极客咖啡,39.988904,116.313662,海淀大街27号天使汇总部2层,da358886779ba71f4107c11b,,1,da358886779ba71f4107c11b
斯多格书乡,40.000396,116.30701,海淀区蔚秀园路北大畅春园1号(河边),9c51723ea9b5f4aa2b201abb,(010)62768095,1,9c51723ea9b5f4aa2b201abb
双风车咖啡馆,40.008954,116.355923,静淑南里翰澜庭2号楼1层110,d1469ee73579c47b853304fa,(010)82365783,1,d1469ee73579c47b853304fa
星巴克(金码大厦店),40.007454,116.360131,海淀区清华东路2号金码大厦A座首层,b9e5d0b8a47fc9a580a12eb8,(010)82838391,1,b9e5d0b8a47fc9a580a12eb8
星巴克(鼎好电子大厦店),39.989541,116.320901,海淀区海淀大街3号鼎好电子大厦1层,e6ee2fd2e5f4ef512b11d159,(010)82698072,1,e6ee2fd2e5f4ef512b11d159
星巴克(五彩城店),40.036169,116.339583,海淀区清河中街68号五彩城西区首层L101号商铺,7c5e480b38d71fadacb22af1,(010)82816711,1,7c5e480b38d71fadacb22af1
肯德基现磨咖啡馆（学清路北店）,40.014419,116.361231,北京市海淀区学清路甲8号圣熙8号购物中心F1,6c3177a5c3e48f2ac8213db8,(010)82732501,1,6c3177a5c3e48f2ac8213db8
星巴克(清河嘉园东区店),40.03624,116.35317,海淀区清河嘉园东区甲1号楼清河翠微百货一层101-01单元,324fe2cbdaa757b91b94c691,(010)62910916,1,324fe2cbdaa757b91b94c691
星巴克(海龙大厦店),39.989275,116.321837,海淀区中关村大街1号1号楼1层F100号铺位,b57c99d10b69b1baca29153c,(010)82663805,1,b57c99d10b69b1baca29153c
星巴克(大恒科技大厦店),39.988634,116.311706,海淀区苏州街3号大恒科技大厦首层,bd5046e805b6e358d72ce24d,(010)82827945,1,bd5046e805b6e358d72ce24d
雕刻时光咖啡馆(北京海图店),39.989643,116.313101,北京海淀区海淀西大街39号海淀图书城步行街2楼,06d2dffd8cbdd5ef88f15df8,,1,06d2dffd8cbdd5ef88f15df8
COSTA COFFEE(银谷大厦店),39.992995,116.340528,北四环西路9号银谷大厦1层116室,3a0bc39cefcd23098b2fb5ef,(010)82525722,1,1267f5760ff4693bc356ac59
DunkinDonuts(五道口店),39.998144,116.345185,北京市海淀区成府路28号五道口购物中心西街1号1层,,(010)82308550,1,33c5e747f5fb20f99e82ea01
一八九八咖啡馆,39.996443,116.327598,北京市海淀区中关村北大街126号北京大学中关新园9号楼1层,0b79f27d8b71d88340ab9ac2,(010)62755600,1,0b79f27d8b71d88340ab9ac2
舒特咖啡(上地店),40.035689,116.324746,上地南路6号1号楼1层4号,db1f39d497e25a76f5c59c58,(010)62973788,1,db1f39d497e25a76f5c59c58
星巴克(五彩城二店),40.035899,116.341602,海淀区清河中街66号院号华润五彩城购物中心2期4层,,(010)69614875,1,face025d279699b4b9df8fb5
启迪之星创业咖啡,39.999052,116.337076,北京市海淀区中关村东路1号清华园科技大厦C座B108,4edc0d57a4527ae0841541c0,4001500019,1,4edc0d57a4527ae0841541c0
北大最美时光咖啡厅,39.994981,116.314627,北京市海淀区颐和园路5号北京大学校内(康博思快餐面食部北侧),04bdf4a38bf23356354aae5d,(010)62756368,1,04bdf4a38bf23356354aae5d
咖啡公园(方正店),39.997284,116.32287,海淀区成府路298号方正大厦一层,535e9cf8a2330533c909f0b7,(010)82626966,1,535e9cf8a2330533c909f0b7
1911咖啡(清华艺博店),40.007372,116.342349,海淀区荷清路清华大学艺术博物馆一层,ead13a6b4d3514d058f6be9c,"(010)62791911,15010571911",1,ead13a6b4d3514d058f6be9c
一半一伴bocoffee,39.989678,116.321184,北京市海淀区海淀大街3号日月光·鼎好大厦B座1层,,"13911510348,(010)62662001",1,9ab7208b8ae6479e07026f4d
天语雅阁自助咖啡厅,40.005857,116.357725,北京市海淀区学院路7号,3814a4c49a533b13882fb588,"(010)52905788,15201113258",1,3814a4c49a533b13882fb588
安家小厨,40.0102,116.334911,北京市海淀区清华大学人文社科图书馆G层(一层),ef8b07fdc8bfd50d2bb97c11,(010)62799790,1,ef8b07fdc8bfd50d2bb97c11
希瑞咖啡(中关村店),39.999608,116.337656,北京市海淀区中关村东路1号,92ea321bb9db9175b817e74c,(010)62603777,1,92ea321bb9db9175b817e74c
CAFFEBENE(林业大学店),40.007245,116.355096,北京市海淀区清华东路35号林业大学学研中心C座B1(加油站),7eabfc7dcb3ea8e249fc8df3,(010)61647082,1,7eabfc7dcb3ea8e249fc8df3
悦时光咖啡馆,39.998625,116.332194,北京市海淀区成府路69号,,(010)62790685,1,0550fbc46c5551a6306212f2
百斯丁咖啡(五道口店),39.999669,116.339996,北京市海淀区东升大厦a座百斯丁咖啡,,18515512977,1,a0d39abb854d2ce8306212bb
兰咖,39.996425,116.310248,北京市海淀区颐和园路12号海淀体育馆北门,e2c167a743ed60c52a02e179,18210109989,1,e2c167a743ed60c52a02e179
最美时光,40.028642,116.32803,北京市海淀区中关村北大街体育大学餐饮大楼3楼,7ae78e7b8e7834873a04b1f0,,1,7ae78e7b8e7834873a04b1f0
致真咖啡,39.988226,116.35697,北京市海淀区北京航空航天大学校内(北航艺术馆),a47840d674d6ea1f42ab9a8a,13860499281,1,a47840d674d6ea1f42ab9a8a
在那里咖啡(五道口2店),39.993989,116.361595,学院路30号北京科技大学科大天工大厦B座1层,ffe535b96aa06bbe631c67ca,(010)62660908,1,ffe535b96aa06bbe631c67ca
潜渊咖啡馆,39.98909,116.340418,中关村东路68号C甲334号,3dc9befd7ea6870fbfa24087,13439600209,1,3dc9befd7ea6870fbfa24087
CAFE KING咖啡王(五道口店),40.000487,116.339732,海淀区中关村东路8号,,18672163778,1,9cb5d46f3ddfbdf76f476095
我爱咖啡(学院路店),39.991873,116.352281,北京市海淀区北四环中路248号(北京航空航天大学北门东侧),7fd723111e1b4e865dbe86f0,(010)82311252,1,7fd723111e1b4e865dbe86f0
大地书院咖啡厅,39.994633,116.352872,海淀区学院路31号地质出版社旁,,"(010)66554506,17718322846",1,8ab9a1f88e33c6ca29fc48bd
教育+咖啡,39.989665,116.324241,北京市海淀区中关村大街18号中关村科技贸易中心写字楼-B座1层,da4b9b8149227385ad31e56a,15101120563,1,da4b9b8149227385ad31e56a
泊星地咖啡馆(北京大学店),39.996311,116.317223,北京市海淀区颐和园路5号北京大学百周年纪念讲堂内,c879fa0195565553c909f05b,,1,c879fa0195565553c909f05b
偶尔咖啡偶尔茶,40.039054,116.353554,北京市海淀区永泰庄北路25号永泰园甲1号楼建金中心一层,713a28ac1c81d266f32d8306,"(010)62922770,13811401940",1,713a28ac1c81d266f32d8306
梦旅人咖啡馆(圆明园南门店),40.005455,116.318897,北河沿15,23116913f96864fd734b8755,(010)82613756,1,23116913f96864fd734b8755
哈尼咖啡,40.000132,116.353706,北京市海淀区学院路15号北京语言大学清晏楼4层,b7c264901bcfbe6d3be4a6c8,(010)82387200,1,b7c264901bcfbe6d3be4a6c8
仰望咖啡馆,40.01068,116.331257,北京市海淀区清华大学图书馆北馆李文正馆东侧一层底商,,,1,beb8fcfbae88c076130daa1f
HICOFFEE,39.999696,116.336088,科建大厦1层,8ad96b5217d38a55d5b74e74,(010)82159889,1,8ad96b5217d38a55d5b74e74
清华园文图咖啡,40.01024,116.334971,清华园内清华大学人文社科图书馆一层,7f7cca9c69697a5e4c6d4637,15901511228,1,7f7cca9c69697a5e4c6d4637
哞哞小花牛鲜奶咖啡屋,40.020966,116.348512,北京市海淀区月泉路八家嘉园底商24-1-1,f16fb1f2e159bd85343a7137,13716506992,1,f16fb1f2e159bd85343a7137
Dark House(五道口店),39.995648,116.343894,北京市海淀区东升园公寓1,52aae8769a5d0f1b08f5eb31,,1,52aae8769a5d0f1b08f5eb31
Home cafe,40.040267,116.316721,上地二街一号龙泉湖酒店对面,11ff7bfadd3af68e72455b93,,1,11ff7bfadd3af68e72455b93
水木航咖啡店,40.011275,116.33491,北京市海淀区双清路30号清华大学内,99319ded3b41105a725e80bd,15823274053,1,99319ded3b41105a725e80bd
瑞幸咖啡(财智国际大厦店),39.993637,116.340505,北京市海淀区中关村东路18号财智国际大厦一层大堂,,,1,25d511daac94aa1602ec014d
luckincoffee(汇智大厦店),40.025307,116.357808,海淀区学清路9号汇智大厦A座,,4000100100,1,2b9c734573b272a849fc8d46
咖尔法咖啡(理想国际大厦店),39.990343,116.31673,北四环西路58号理想大厦一层,4966b0e617f1e6f888b9889c,010-82604061,1,4966b0e617f1e6f888b9889c
清青咖啡,40.012491,116.328767,北京市海淀区熙春路,,,1,e530ce57e525e4aab54f5445
A  bla咖啡店(中关新园店),39.995154,116.325599,北京市海淀区中关村北一街北京大学留学生公寓5号楼2楼(近方正大厦),3f826ed3873e1e5fd0f49ef4,(010)62397033,1,3f826ed3873e1e5fd0f49ef4
翠亭咖啡厅,40.003708,116.319808,北京市海淀区中关村北大街127号北大博雅国际酒店1层,49261550882e3c1dd2f49e7e,,1,49261550882e3c1dd2f49e7e
谁的咖啡,40.033283,116.317466,硅谷亮城5号楼,,,1,a8f27d91a9f17b9a90114c71
N-Caco咖啡厅(艺海店),40.006064,116.356809,清华东路16号艺海大厦3层,72bdd0d0d5fae21099005098,,1,72bdd0d0d5fae21099005098
Binggo Cafe,39.989857,116.313412,海淀大街31号籍海楼1层,93a291f46082389a03ec01dc,(010)62567447,1,93a291f46082389a03ec01dc
CHONG COFFEE,40.007079,116.345788,北京市海淀区清华东路甲1号附近,f2325c672763d8db48cc4aab,,1,f2325c672763d8db48cc4aab
醒客咖啡(蓝旗营店),39.998769,116.332612,蓝旗营成府路59-1万圣书园2层,72aa251300a2075e077ce84d,(010)62768749,1,72aa251300a2075e077ce84d
瑞幸咖啡(海龙大厦店),39.989187,116.322128,北京市海淀区中关村大街1号1506-g附近,,,1,93c49de6fd720d65ede4a5d8
COOLEYESCaiaGbar,39.998905,116.346001,北京市海淀区成府路23-6附近,,,1,bc29a8d0a757d7fc593ac8ab
青春驿站,40.005162,116.330975,清华大学照澜院邮局二层近工商银行,66e39428f0a3163db5147f16,"(010)62770253,18910803249",1,66e39428f0a3163db5147f16
怡多咖啡厅,39.99893,116.334665,北京市海淀区中关村东路1号文津国际酒店二层,504d6113c1430eaa47572684,(010)62525566,1,504d6113c1430eaa47572684
dotcom COFFEE(世宁店),39.991438,116.358747,北京市海淀区学院路35号世宁大厦14层,00600f70a114ce313ce2310a,,1,00600f70a114ce313ce2310a
慧聚智能咖啡厅,39.999531,116.339839,北京市海淀区中关村东路8号东升大厦A座,4ef4245c22033ddd2b06ce90,"18515512977,(010)52896079",1,4ef4245c22033ddd2b06ce90
银杏园咖啡厅,40.002682,116.349886,王庄路18号西郊宾馆9号楼,,(010)62322288-9101,1,5a72f96016d1959e3a13fde7
阳光咖啡馆(五道口2店),40.000974,116.354243,学院路15号四区147幢(图书馆)一层大厅西侧(北京语言大学图书馆一层),6fa05547124d1dd8e6e9657f,,1,6fa05547124d1dd8e6e9657f
瑞幸咖啡,40.025559,116.357522,北京市海淀区学清路9号汇智大厦A座,,,1,75fd086d6fa860878936eef6
JF CAFE(科技大厦店),39.99879,116.336923,中关村东路1号清华园科技大厦C座B108,9e326dddd36a72b1d518b792,(010)82150258,1,9e326dddd36a72b1d518b792
3W咖啡,39.995394,116.31956,颐和园路5号北京大学公共教室楼B1层内1号,,,1,bc4dce2e0cd24924a1a934cf
TY Cafe,40.040875,116.343221,北京市海淀区毛纺路9号,,,1,5994464ac39319000b69d9a0
coffee,39.998245,116.341235,北京市海淀区中关村东路10号附近,5a4396d349504eaf2bd7ab5b,,1,5a4396d349504eaf2bd7ab5b
3WcoFFEE,39.988982,116.313583,北京市海淀区西大街70号附近,698437cc46de6c9c5fbe86e1,,1,698437cc46de6c9c5fbe86e1
学清咖啡馆,40.021947,116.359676,学清路8号科技财富中心B座1楼,d3b6f435e1bff1c6734b87af,15801476887,1,d3b6f435e1bff1c6734b87af
龙可立咖,40.001761,116.321215,北京市海淀区北京大学廖凯原楼103,,,1,10cb57f4f8051c02d7851ff9
W咖啡(五道口店),39.997423,116.343643,华清嘉园12号二层6号,ea681e8abba717489b68b4e9,(010)58499799,1,ea681e8abba717489b68b4e9
coffee plus,40.036949,116.344256,"清河中街69号院1层69-16,五彩城出门东北角力度家园(蓝色大楼)底商",,13121668393,1,0e0da0529f3b3e43c41b7597
Pride1952众筹创业咖啡,39.991066,116.358665,北京市海淀区学院路35世宁大厦14层1415,5fa312a0586f454b5fbe8654,(010)82316216,1,5fa312a0586f454b5fbe8654
地大国际会议中心-咖啡厅,39.997029,116.351655,北京海淀区学院路29号中国地质大学内,08b1e42ffed5eabd9eec2bd5,(010)82323888,1,08b1e42ffed5eabd9eec2bd5
自在时光,40.038406,116.35432,永泰庄路25号泰鑫源商厦2层,,,1,edb7f4b42de79310c03644b6
咖啡零点吧,39.990515,116.310865,海岸区左岸公社一层,,,1,72a0732f861776ccb04c49fc
星巴克(科技财富中心店),40.021449,116.360255,海淀区学清路8号科技财富中心A座一层A101B号,,(010)62911702,1,d12d50516c84d2f1a6da39a0
浮士德(融科店),39.989837,116.332332,中关村科学院南路2号融科资讯中心A座103,00938ca34c6c7c16eaf85317,4006367979,1,00938ca34c6c7c16eaf85317
很咖啡,39.989666,116.321018,中关村大街1号海龙大厦3层H口进,a268ceb83892ff23b42655e7,18645226080,1,a268ceb83892ff23b42655e7
azhu&ashan咖啡店,39.993668,116.343679,北京市海淀区中关村东路16号院11号楼111室,e5292f07c9877bfec9c3db61,,1,e5292f07c9877bfec9c3db61
瑞幸咖啡(北京大学店),39.99848,116.319802,北京市海淀区颐和园路5号北京大学吕志和楼负一层,,,1,e9bfbaa6ba28afc3f8f0cb9c
GOLDEN咖啡(圣熙8号购物中心),40.014549,116.360413,海淀区学清路甲8号圣熙8号购物中心F5层,,,1,e6a6e83ea96f2a2d6e3e1b6b
来电(一八九八咖啡馆),39.996462,116.327638,北京市海淀区中关村北大街126号北京大学中关新园9号楼1层(近中关新园邮政所),,,1,9d9e3c861ed2de291f3894bb
左转咖啡,40.095973,116.123126,北安河路69号海淀驾校内京海教学楼内一层,,,1,068adc0533a00d81b23c817f
西山悦咖啡,40.049816,116.191281,温泉路尚品园3号楼底商124号,30d2a7e5d8d6d3c4f8f0cb4a,(010)56914191,1,30d2a7e5d8d6d3c4f8f0cb4a
夜风颂咖啡馆,40.049421,116.191315,白家疃西路尚品园1号楼6单元3层345室,,13693161895,1,e67a240d355b235714948eb2
浪漫满屋湖景咖啡,40.099685,116.191344,稻香湖路28号,,(010)58718405,1,4406d42b962923ee2dfaa774
稻香湖景酒店-烛光晚餐厅,40.097074,116.187928,苏家坨镇稻香湖路28号稻香湖公园内稻香湖景酒店里面,fc89abd5983a92676dc02c76,,1,fc89abd5983a92676dc02c76
星巴克(东北旺西路第三店),40.054068,116.286671,海淀区西北旺东路10号楼东区5号楼互联网创新中心一楼,c07341b3304ae8d330169be1,(010)59403249,1,c07341b3304ae8d330169be1
CAFFEBENE(丰秀中路店),40.080793,116.243184,丰秀中路3号院7号楼C2号楼一层(永丰基地加速器3区),6a91789729a770dfe5e96541,(010)56760896,1,6a91789729a770dfe5e96541
甜暖我心咖啡店(北京店),40.072847,116.255904,丰智东路13号朗丽兹西山花园酒店1层,a0c672041b021ed840afe692,13161514357,1,a0c672041b021ed840afe692
星巴克(东北旺二店),40.053277,116.293995,海淀区东北旺西路8号23号楼,2d2a46cfeafaab0e9e9d6808,(010)56730959,1,2d2a46cfeafaab0e9e9d6808
星巴克咖啡,40.080069,116.255357,北京市海淀区北清路85附近,,,1,be839a7efe53979ff03cbaa3
星巴克(上地东路店),40.060182,116.308919,海淀区上地东路1号院7号楼环洋大厦1层东101号,feec6b6b8ea207acf8f0cb3d,(010)58858367,1,feec6b6b8ea207acf8f0cb3d
星巴克(黄平路店),40.071826,116.353762,昌平区黄平路19号1号楼B单元101-02室,0c1abc4ab1b20be09c9d68e7,(010)82540252,1,0c1abc4ab1b20be09c9d68e7
Starbucks Coffee(北京东北旺西路咖啡店),40.05398,116.304712,海淀区东北旺西路8号,b2376334985ac2006ca3ccef,(010)56380870,1,b2376334985ac2006ca3ccef
佳沃茶社,40.048926,116.31178,信息路7号数字传媒大厦一层111室,bb6be67c053bf490d6b74e29,(010)60608169,1,bb6be67c053bf490d6b74e29
仙本那,40.085634,116.352936,北京市昌平区回龙观东大街338号腾讯创客广场B座1层013号,0c0486230482d7abf03cba84,(010)81799930,1,0c0486230482d7abf03cba84
瑞幸咖啡(回龙观上品折扣店),40.084766,116.341332,上品折扣1楼,,,1,8a9514b953309d363a13fda2
老单车咖啡馆(回龙观店),40.071688,116.349361,文博路26-27号,e567c835a43360cc40e192c1,(010)62710063,1,e567c835a43360cc40e192c1
静星空咖啡,40.047616,116.360778,东升后屯南路26号专家公馆一层,78b1fee18861e6f9a4c756fa,18601181033,1,78b1fee18861e6f9a4c756fa
C秀咖啡,40.049968,116.321113,安宁庄路26号楼悦MOMA一层,00d76e00d75a81e3ecdfcabd,(010)82891185,1,00d76e00d75a81e3ecdfcabd
桃园书馆(东亚上北店),40.088568,116.346837,回龙观西大街东亚上北中心16号楼1层16-16,8bfb060467c376cb363a7199,(010)57721165,1,8bfb060467c376cb363a7199
HUB街口时光咖啡西餐简餐吧,40.050589,116.301845,北京市海淀区东北旺西路8号院西山公馆底商1层113号(和颐酒店对面),5a9de3315a70a70c09b93ac7,(010)60607595,1,5a9de3315a70a70c09b93ac7
玲珑·咖啡,40.089128,116.348113,北京市昌平区龙禧三街龙禧苑二区点点奇国际幼儿园,f80542d6c829cfccc51e518c,(010)80755578,1,f80542d6c829cfccc51e518c
咖啡小镇,40.07341,116.352765,昌平区黄平路19号院泰华龙旗广场4号楼5层510室,658863ce73fb64a2abf0cde3,(010)82964092,1,658863ce73fb64a2abf0cde3
蓝语境咖啡,40.059281,116.308443,北京市海淀区辉煌国际大厦6号楼东商街入口2层216,e210800c8ed3a0f7461a3298,"(010)62669998,18911031971",1,e210800c8ed3a0f7461a3298
纯五度咖啡厅(奎科大厦店),40.047952,116.313317,海淀区信息路甲9号,69fcd6df97757236ca291504,(010)61952210,1,69fcd6df97757236ca291504
四季咖啡厅(回龙观西大街店),40.082132,116.327732,北京市昌平区回龙观西大街107号昆泰嘉禾酒店1层(京昌高速路回龙观出口东北侧),8cfff0f8d8eb19f9fd0eb0fd,(010)59910088,1,8cfff0f8d8eb19f9fd0eb0fd
YOUNG COFFEE,40.094571,116.318322,朱辛庄华北电力大学教四楼B区二层(华北电力大学中南门内向北50米),f79c510e522c95fc28b97c17,18600953880,1,f79c510e522c95fc28b97c17
相遇休闲酒咖,40.057694,116.334801,北京市海淀区西三旗安宁佳园东路京玺文化园2号楼102室,,18612832251,1,8517be14607a27e95cbe86a4
星巴克(龙域中街店),40.072184,116.322811,昌平区龙域中街1号院龙域中心A座1层,,(010)62920876,1,1eb4aaea632077f1cf04eff3
C show coffee,40.049883,116.321092,北京市海淀区安宁庄路26号,8e94c31e6981dbf2fea778ff,"15010918791,(010)82891185",1,8e94c31e6981dbf2fea778ff
回家咖啡,40.085634,116.354935,北京市昌平区回龙观东大街338号腾讯众创空间A座2层,,(010)81733176,1,6a356e24573af2a802897248
自在咖啡,40.081144,116.324989,北京市昌平区回龙观西大街126号,9e34fdce62af9a3c246e98bd,"13911601796,(010)82564193",1,9e34fdce62af9a3c246e98bd
luckincoffee(中关村软件园店),40.05571,116.301298,海淀区软件园二号路中关村软件园12号楼万集空间E区1层,,4000100100,1,ff199b4cb7f6f83c725e80e4
遇见咖啡奶茶,40.094446,116.319299,北京市昌平区华北电力大学学生公寓8号,1052239f4e3a2cf17f29bd14,13581545823,1,1052239f4e3a2cf17f29bd14
泰山饭店碧霞咖啡厅,40.055121,116.336077,北京市海淀区西三旗安宁北里8号泰山饭店,34614126b76d632f4f776efb,,1,34614126b76d632f4f776efb
爱珈咖啡厅,40.052923,116.343876,北京市海淀区悦秀路公元99通厦花卉市场地下二层52号,,,1,c9fef12bc3fce3543fe231da
星巴克(上地西路店),40.059406,116.305253,海淀区上地西路6号联想科技园会议楼西楼一层,5edcafc616e82487601c6740,4008206998,1,5edcafc616e82487601c6740
逅咖啡,40.0856,116.352974,回龙观东大街338号创客广场b座013,,,1,aa64d957db1ab12bc356ac2c
朗拾贰主题咖啡厅,40.075396,116.318271,北京市昌平区回龙观龙域北街五号院1号楼104B,,,1,c9a37d079215e5e686420e0d
起司家甜品·榴莲·咖啡(清河悦茂店),40.049309,116.356258,海淀区前屯路文龙家园四里4号楼(悦茂购物中心4楼),,(010)62921922,1,c1bdb1d7d0de4048c2f1cf64
coffee.x,40.046774,116.347119,北京市海淀区西三旗花园三里75正西方向68米,,,1,8400f1afd64138166ca3cc46
coffee penny,40.052806,116.310342,北京市海淀区信息路1号B栋(金远见大楼一层),,17600536275,1,7851c7b3736c8813c5effbd6
瑞幸咖啡(汉王大厦店),40.053496,116.304405,海淀区软件园二号路尚东数字谷A区3号楼一层,,,1,ffab8f6f9426e63dca09f040
健康经络养生馆,40.062406,116.336536,安宁庄路西三旗桥东上奥世纪B座1212号(北京银行楼上12层),3c9bd14418c25b169de321eb,13810848239,1,3c9bd14418c25b169de321eb
北京万德通商贸有限公司(卡瓦尼咖啡),40.089757,116.332127,北京市昌平区回龙观镇二区1号B段106(回龙园东北门),,,1,b3c2d8da89b844b0f7eafcdc
ZEROTOONE咖啡厅,40.046527,116.315677,北京市海淀区上地信息路12号中关村发展大厦一楼,,,1,bf74be54affadb005d17c34d
SilentStarrySky咖啡,40.047614,116.360774,北京市海淀区后屯路,,,1,118613295885da15bd48422d
必盈咖啡,40.085431,116.35489,北京市昌平区回龙观东大街腾讯众创空间集装箱大道3号咖啡色箱,,13811733095,1,54f643410235e985593ac80c
桌游世界,40.089302,116.348018,北京市昌平区龙禧三街龙禧苑二区点点奇国际幼儿园,4c1a4260be16d7242cb96dc9,,1,4c1a4260be16d7242cb96dc9
悠然西山咖啡厅,40.120654,116.126331,北京市海淀区苏家坨镇梁家园288号,,,1,5d56dda1fce676f175e5b6ee
肯德基(沙河物美餐厅),40.1563,116.294565,沙河镇百沙路轻轨东侧5号楼103,,,1,3219d893df6b728f04026f13
星巴克(北清路永旺商城店),40.102467,116.296516,昌平区北清路1号1号院1号楼永旺国际商城购物中心1层,a3e8341c1c0def8c4afd3f25,(010)80700820,1,a3e8341c1c0def8c4afd3f25
星巴克(生命园路店),40.107025,116.27484,昌平区生命科学园路4号4号楼1层102室,,(010)52475277,1,aa8621dd84a5b17c8d7727e2
倚星阁咖啡,40.106984,116.276487,回龙观中关村生命科学园生命园路8号院6号楼一层,,,1,88b09bc4618add8701294f68
英伦时光咖啡厅,40.155893,116.29836,昌平区地铁东200米青年创业大厦2楼(格林豪泰酒店),00e247d7e39ec235bd4842cf,,1,00e247d7e39ec235bd4842cf
猫小院主题咖啡西餐厅(南锣鼓巷店),39.94535,116.40988,菊儿胡同20号,c7728fc4f1d1f932ed74f8a1,(010)64069599,1,c7728fc4f1d1f932ed74f8a1
猫小院猫主题咖啡西餐(北锣店),39.94966,116.409925,北京市东城区北锣鼓巷北下洼子胡同14号,33ed13d63a7159735c0d0254,(010)59146478,1,33ed13d63a7159735c0d0254
猫小院咖啡西餐(后海店),39.944692,116.399257,西城区大金丝胡同1号(银锭桥南100米),4a31dbf555b63421cc06a4db,(010)83220040,1,549ed8554da0bdb9b33c81a3
星巴克咖啡(北京南锣鼓巷咖啡店),39.945998,116.409746,东城区南锣鼓巷20号,b4802f292889fb5e09b93a9c,(010)84084985,1,b4802f292889fb5e09b93a9c
蜗牛的家咖啡馆,39.944196,116.416346,北京市交道口南大兴胡同73号,dc524583fcaf8aadc61b750e,(010)84022817,1,6fddd7fd7bda67663417dcf3
MODERNISTA,39.950818,116.406192,宝钞胡同44号(近鼓楼东大街),,,1,6d108857d6a6aa0d6ca3cce6
星巴克(护国寺街店),39.941418,116.381868,西城区护国寺街85号11号楼1层F1-3单元,e97851593717df08b5f42fc8,(010)66074240,1,e97851593717df08b5f42fc8
Cafe Zarah,39.94702,116.41264,北京市东城区鼓楼东大街46号,e2c734e4196a214415a1905a,(010)84039807,1,e2c734e4196a214415a1905a
我与地坛thecorner,39.96005,116.426696,北京市东城区和平里南街西口B汽车服务体验中心1层,4aecf6139b3158df46e274ea,(010)84216662,1,4aecf6139b3158df46e274ea
和园咖啡馆,39.95993,116.374513,文慧园路志强北园1号和园国际青年旅舍内,0523a1410205bc04b23c810b,(010)62277138,1,00b29b4c545655b104fef511
星巴克(北京德外大街店),39.960612,116.384696,西城区德胜门外大街83号德胜国际中心B座一层102号,d697a85b5a25c7eed42ce2db,(010)82326181,1,d697a85b5a25c7eed42ce2db
KODO可多咖啡(鼓楼店),39.947066,116.406354,北京市东城区鼓楼东大街190号后鼓楼苑胡同2号,2a9ba6c5670243b443ab9a9b,(010)64553868,1,2a9ba6c5670243b443ab9a9b
COSTA COFFEE咖啡店(雍和宫店),39.954789,116.422654,雍和宫大街五道营胡同1-3号,fc76752411f781e34e776e03,(010)64056968,1,fc76752411f781e34e776e03
小时光 多肉植物主题咖啡馆(北锣鼓巷店),39.950026,116.409411,北京市东城区北锣鼓巷60号(多肉植物馆向北300米),89140e32cbb85ee93ce231e5,18611458117,1,89140e32cbb85ee93ce231e5
藏书馆咖啡(牡丹园店),39.984851,116.376844,牡丹园西里11-16号底商牡丹园地铁B口东北口往北200米右侧即到(牡丹园十字路口东北角),dbf4d6eedf45b9336fa3cc5b,(010)82092099,1,dbf4d6eedf45b9336fa3cc5b
漫咖啡(北邮店),39.969494,116.364133,北京市海淀区西土城路10号邮电大学北门校园内,,(010)62286398,1,88733f14cb9b3f4a5e0d0275
Alba Cafe,39.947041,116.411038,鼓楼东大街70号,966161ddaaffe71fd8ecedb4,(010)64073730,1,966161ddaaffe71fd8ecedb4
云巢咖啡(健德门店),39.982539,116.385863,北京市海淀区北土城西路祁家豁子甲2号,244c0c65789a6c778bf15d10,(010)62360639,1,244c0c65789a6c778bf15d10
星巴克(安定路店),39.983956,116.412726,朝阳区安定路5号环宇荟购物中心1层,,(010)64197170,1,f0c7e8f32073a78629fc48ed
METAL HANDS(五道营店),39.954725,116.418709,北京市东城区五道营胡同61号,005f77007c5fb4b3a6da3909,,1,005f77007c5fb4b3a6da3909
东岸,39.942363,116.401816,北京市西城区地安门外大街前海南沿2号楼2楼,e6ee2fd2751f1f482b11d12c,(010)84032131,1,e6ee2fd2751f1f482b11d12c
星巴克(北京中海国际大厦店),39.937622,116.364212,西城区平安里西大街28号楼中海国际大厦1层6-7单元,,(010)88009512,1,df1e85f7aa7ddd87950319bc
北平咖啡(南锣鼓巷店),39.942154,116.409403,南锣鼓巷113-2号,a3f21eee3cdf1d5d2fb17e62,(010)84039198,1,a3f21eee3cdf1d5d2fb17e62
星巴克(北京环球贸易中心店),39.973388,116.41628,东城区北三环东路36号环球贸易中心2号楼C座05单元一层,da41b1e1d55a617dcb213d34,(010)58256529,1,da41b1e1d55a617dcb213d34
笨豆,39.937487,116.423826,北京市东城区东四北大街258,f6b5778e370c2c451e1d1194,13341150400,1,f6b5778e370c2c451e1d1194
VOYAGE COFFEE(北锣鼓巷店),39.947789,116.40947,北京市东城区北锣鼓巷80号,43e107b54c26b5a7a21de92d,,1,43e107b54c26b5a7a21de92d
鼓捣猫呢咖啡馆(猫主题咖啡厅),39.949505,116.419913,北京市东城区交道口北三条30号楼一单元门口,,"(010)64012360,13683311050",1,3b284fffaf8951099ee32128
福叁cafe(隐海店),39.946566,116.391244,北京市西城区柳荫街甲2,,15822571856,1,2d138b1f99298bc504fef5f8
小时光多肉植物主题咖啡馆(北锣鼓巷店),39.947603,116.409525,北京市东城区北锣鼓巷84号,b7fab5adcad2bb2072455b47,18611458117,1,b7fab5adcad2bb2072455b47
星巴克(北京枫蓝国际中心店),39.959184,116.362617,海淀区西直门北大街32号院1号楼一层106-2号,c23e6cc3295c53da3f9a5e72,(010)62214405,1,c23e6cc3295c53da3f9a5e72
Side Street街旁,39.947595,116.416503,北京市东城区东大街113-2号,,15910694920,1,c396e27bf7a103fce215f97f
喵客咖啡,39.939416,116.401027,北京市西城区地安门西大街10号-3幢,,15701206746,1,5ece7f54861efdb059bbbc6e
繁体字咖啡馆,39.946817,116.406292,北京市东城区后鼓楼苑胡同4号,b98e8c887f5cfcededdfcaf8,(010)64553899,1,b98e8c887f5cfcededdfcaf8
vox.coffee唯咖啡(黄寺大街店),39.968733,116.388894,德胜街道黄寺大街26号院德胜置业大厦6号楼1层,ca4d86ba4e233379fb221312,(010)56421311,1,ca4d86ba4e233379fb221312
Metal hands(交道口店),39.948904,116.416703,交道口北二条68号(张记烤羊腿往东100米),02823f6997af3a0096f08c96,15510533895,1,02823f6997af3a0096f08c96
沏点咖啡精酿啤酒餐吧,39.948523,116.37928,北京市西城区大半截胡同45号2层沏点精酿啤酒餐吧,ee67d0fd0a026d5fe812e485,"(010)83220880,18911806703",1,ee67d0fd0a026d5fe812e485
星巴克(安贞环贸2店),39.974627,116.416653,东城区北三环东路36号环球贸易中心A座1层01单元,,(010)59575613,1,0cb9fd57cbac4e75f423104c
壹树咖啡,39.984044,116.374745,北京市海淀区花园路2号33号楼201,9f7f044097bbeef82cb17e64,(010)62386618,1,9f7f044097bbeef82cb17e64
April and cafe,39.953281,116.414954,安定门内大街64号,,15801464750,1,95a49afcdf929477ed74f8ef
静水咖啡馆,39.947375,116.411966,北京市东城区鼓楼东大街69号(南锣鼓巷北口),252e64b0c5b845f6fa0cad00,(010)64009046,1,252e64b0c5b845f6fa0cad00
北京双城咖啡酒吧,39.950115,116.418005,方家胡同46号A101,5508504d4e5ddbd2c6f025ae,,1,5508504d4e5ddbd2c6f025ae
懒树咖啡(安贞店),39.974795,116.418153,北京市朝阳区小黄庄路北街2-3,1a60d0839af9eefcb64f54cb,(010)84288278,1,1a60d0839af9eefcb64f54cb
cafe villa 咖啡馆,39.98578,116.373835,北京市海淀区花园路甲2号-3-5-101,76df2395d9f82d79f7b9162d,(010)62066026,1,76df2395d9f82d79f7b9162d
星巴克(中粮置地广场店),39.958245,116.415227,东城区安定门外大街208号中粮置地广场高塔1层1F-08商铺,,(010)64220715,1,479a060a164a310db9df8f76
M Coffee,39.933974,116.414205,北京市东城区美术馆后街77号77文创园,,4007990299,1,0f74b8b6bd75a60d07fef5ca
大小咖啡BigSmallCoffee(故宫店),39.931679,116.408397,北京市东城区沙滩后街16号,b46c27003f16376902897280,15011034418,1,b46c27003f16376902897280
星巴克(北太平庄路店),39.974799,116.377626,海淀区北太平庄路18号27-04中城建大厦A座01层102室和A座02层210室,1d35e247759bf130a8f0cde4,(010)62426435,1,1d35e247759bf130a8f0cde4
CAFE&BAR,39.94557,116.397477,后海南沿银锭桥南沿20号(近小翔凤胡同),fc9bc3124ec6af9dcae33c0d,,1,b7021bf87762bde3f5e73bb1
Barista Specialty Coffee咖啡店,39.954715,116.419952,北京市东城区雍和宫五道营胡同47号(近地铁雍和宫站西南口),58ddc0a3df04c1ebf72310b6,,1,58ddc0a3df04c1ebf72310b6
coffee tags,39.941359,116.38204,北京市西城区护国寺街85号护国新天地一层,dc4222c4bc0c7751882fb5d6,13810466993,1,dc4222c4bc0c7751882fb5d6
luckincoffee(江苏广电大厦店),39.97118,116.413546,朝阳区安定门外大街1号江苏广电大厦一楼,,4000100100,1,55e2e84f12dc41d5f8f0cbf5
neverboredcafe,39.946563,116.392769,北京市西城区后海南沿48号附近,,18211192520,1,12c947ccfd008a4394ec84bf
luckincoffee(北太平庄店),39.972822,116.367756,海淀区杏坛路40号,,4000100100,1,251b49b3c6e1d2284f3a59cd
奶粉咖啡店,39.94838,116.400209,旧鼓楼大街141号,49d959388d8c565ac61e5140,(010)64026031,1,49d959388d8c565ac61e5140
1201s咖啡馆,39.979261,116.369993,海淀区花园路1201工厂13号院主楼1层美廉美超市西侧停车场内(天博中润旁边),40273a2cc4d11024a80dd8c2,(010)82090829,1,40273a2cc4d11024a80dd8c2
Sarna Coffee(地安门西大街店),39.939548,116.402311,地安门西大街2号(近荷花市场),78bd50f7d368da4230870a8e,(010)64057578,1,78bd50f7d368da4230870a8e
好彩(LUCKY STRIKE)啤酒超市,39.948108,116.409498,北京市东城区北锣鼓巷76号,,15910956156,1,0c102a865c7b5f1f0d0e6b48
一见空间,39.957519,116.383399,北京市西城区德外冰窖口胡同1-36号,a9b049aaa47b8e1e451a32a5,13051665971,1,a9b049aaa47b8e1e451a32a5
云端四合,39.954964,116.41975,北京市东城区安定门东大街60号(雍和宫E口出直行150米),a01323bb03293642593ac87d,15811535796,1,a01323bb03293642593ac87d
加纳达咖啡Canada Coffee,39.967703,116.376347,北京市海淀区新街口外大街19号北京师范大学,f4d099bc57d5c5712102208f,(010)58805886,1,f4d099bc57d5c5712102208f
红叶拾楠咖啡馆,39.950264,116.417828,东城区雍和宫方家胡同46号(近国子监),fb51c55d3b16978582a12e15,010-84002673,1,fb51c55d3b16978582a12e15
脚下咖啡(灵光东巷),39.954762,116.413203,北京市东城区安定门西大街2号,429ad157a920ce0a8936eeb9,(010)84033600,1,429ad157a920ce0a8936eeb9
CAFFEBENE(烟袋斜街店),39.94582,116.402226,地安门外大街丙19号,67e0aee57ecdc3efa4c75646,18911212330,1,67e0aee57ecdc3efa4c75646
红墙咖啡(023店),39.932625,116.399805,北京市西城区景山西街15号,,(010)64087569,1,ab935385e31718b42bb97c57
瀚茗轩茶楼,39.984829,116.375153,海淀区花园路2号院3号楼2层,a76a19f7c17688734e776e03,13011292879,1,a76a19f7c17688734e776e03
The Pool Bar,39.947085,116.409623,"东城区鼓楼东大街106号(南锣鼓巷北口,向东15米左右)",44207646e3bc4b72dfee8ba3,,1,44207646e3bc4b72dfee8ba3
Mplus Coffice,39.944973,116.424467,北京市东城区板桥南巷7号人民美术印刷厂东楼1层,12b2b931ca4214bd6240a989,13521298979,1,12b2b931ca4214bd6240a989
九榀咖啡(恭王府店),39.941422,116.392304,龙头井街15号2层,,18810811923,1,33dcce5d69b2b53138221c27
BURGER COUNTER,39.950272,116.409165,北京市东城区北锣鼓巷65号,a053f2506c106c56bea82256,(010)84001857,1,a053f2506c106c56bea82256
四兴甜品(惠新店),39.988087,116.423262,北京市朝阳区惠新西街23号(近地铁5号线惠新西街南口站),979d043123ba6201d518b781,(010)64894002,1,979d043123ba6201d518b781
梧桐咖啡馆,39.95475,116.41857,北京市东城区五道营胡同63号,606289fd9b0dbd54a2046409,(010)84025633,1,606289fd9b0dbd54a2046409
兰蕙家咖啡馆,39.964922,116.368032,北京市海淀区北京海淀区新街口外大街19号北京师范大学兰惠公寓2楼(近杏坛路),373cf757b9861d774354d750,"(010)58804123,(010)58807151",1,373cf757b9861d774354d750
时光咖啡,39.932905,116.380054,北京市西城区西四北大街158号时光漫步怀旧主题酒店地下一层,7baf97531e6e5142e6073894,(010)57499222,1,7baf97531e6e5142e6073894
EMPTYCUP小空咖啡(鼓楼西剧场),39.952145,116.394009,北京市西城区鼓楼西大街小八道湾胡同6号(鼓楼西剧场一楼),16933a8365a57c988bfc063c,13811385324,1,16933a8365a57c988bfc063c
1201CAFFEE,39.979261,116.369978,花园路13-11号楼附近,44997256edb55f159d95de3e,,1,44997256edb55f159d95de3e
dodokindom咖啡店,39.946255,116.393041,北京市西城区小翔凤胡同甲7号,e252bd7e14a10b3ced74f8bc,13511011770,1,e252bd7e14a10b3ced74f8bc
爱德堡西餐咖啡馆,39.96944,116.376563,新街口外大街15-3号院,f44609186219d973b01e36a9,(010)62358887,1,f44609186219d973b01e36a9
五色暗香咖啡厅,39.960163,116.385201,德胜门外大街85号德胜国际中心B座1楼02室(德胜门城楼西北侧),7b6983e79ed156699f09f71b,(010)82060576,1,7b6983e79ed156699f09f71b
luckincoffee瑞幸咖啡(合生财富广场店),39.964876,116.384859,德胜门外大街13号院1号合生财富广场一层大堂,,,1,82aaa81e28f6f49e354aaefc
十九日(五道营店),39.954609,116.419632,北京市东城区五道营胡同48号(近雍和宫地铁站),e93761f64e95be15223bf255,(010)64021016,1,e93761f64e95be15223bf255
珍爱咖啡吧,39.966567,116.420691,东城区和平里兴化路化工大院4号楼(和平里宾馆),94a29adb91023bf300ec01a7,13901053213,1,94a29adb91023bf300ec01a7
喵豆咖啡,39.958022,116.406006,北京市东城区安德路55-3号,1ba56aabb455bcd752e5c5ed,13661211201,1,1ba56aabb455bcd752e5c5ed
唯咖啡voxcoffee(小西天店),39.958455,116.367522,北京市海淀区文慧园北路9号空间蒙太奇商务中心(今典花园),ee59a35ce832269df4b9164d,(010)82220800,1,ee59a35ce832269df4b9164d
FINE CAFE&CANTEEN,39.946677,116.390939,北京市西城区柳荫街甲2附近,,,1,9cc6d3706049618c02ff2d4b
海岸咖啡,39.947396,116.405992,北京市东城区宝钞胡同225号,,(010)64034847,1,0eb54fd6c22376d908f5eb54
蓝山咖啡(雍和别墅店),39.953719,116.418299,北京市东城区箭厂胡同22号雍和别墅内(近五道营胡同),4291ca4cb758a271b35c6acf,(010)64010341,1,4291ca4cb758a271b35c6acf
寻常巷陌,39.931739,116.406222,沙滩后街61号(近景山东街),e96b4420e424464082288a5a,(010)84047228,1,e96b4420e424464082288a5a
远通维景维多利亚咖啡厅,39.937155,116.36339,北京市西城区平安里西大街30号楼远通维景国际大酒店3层,3f33d01c4e664edaebe582a6,,1,3f33d01c4e664edaebe582a6
紫爵咖啡厅,39.972065,116.41371,安定门外大街安华里三区11号楼东2号(江苏饭店旁),41db9b8ea9a4f6c358f6be35,(010)64262532,1,87248d96c41a61aa2906ceb6
ZOOYOO CAFE(鼓楼店),39.947099,116.412112,鼓楼东大街62号(南锣鼓巷北口向东300米),45754a847ccd623b9cf779bc,15801604113,1,45754a847ccd623b9cf779bc
望海情缘,39.945349,116.398932,后海南沿6号(近银淀桥鼓楼后海),81d6a509b8a33c596f20b9a3,,1,81d6a509b8a33c596f20b9a3
鲜豆知味精品咖啡店,39.954674,116.421975,北京市东城区五道营胡同13号,00ca8da0f3248fbc1f38948a,15701518397,1,00ca8da0f3248fbc1f38948a
异托邦生活空间(5号店),39.944229,116.399499,北京市西城区南官房胡同5号,,,1,4c270ca63a7f157ff32d83e1
好时乐咖啡(安定门店),39.960186,116.414995,安定门外大街198号(麦乐迪KTV地坛公园西门北侧),449f0f81f533445f0a5cb3cf,(010)60569055,1,449f0f81f533445f0a5cb3cf
红宝鼎创意餐厅,39.94102,116.409388,北京市东城区南锣鼓巷149号,f4460918be2c7d17b11e3661,(010)84018856,1,f4460918be2c7d17b11e3661
连咖啡Coffee Box(德胜门店),39.960845,116.384148,德胜门外大街87号1层111号,2b9ea36207ab9cc5c27da2ee,4000605000,1,2b9ea36207ab9cc5c27da2ee
caffeine rehab,39.957107,116.374769,滨河路志强南园11号楼7单元102室,,13021164007,1,e320fdad8b05ed6b15a19095
金色提香咖啡屋,39.94557,116.399678,烟袋斜街83号(后海北沿银锭桥西北侧)(银锭桥),06d2dffda11bb0ef89f15da2,,1,06d2dffda11bb0ef89f15da2
十二橡树咖啡厅,39.967659,116.376691,北京市海淀区北京海淀区新街口外大街19号励耘学苑1楼(北师大东门旁),bcaebff8b216974dc9e33c4d,(010)58805226,1,bcaebff8b216974dc9e33c4d
秀冠咖啡,39.951835,116.41799,北京市东城区国子监街25号,8ab0dfc4e1dd460fd8eced4d,(010)64052047,1,8ab0dfc4e1dd460fd8eced4d
陈升福元昌茶楼(南锣鼓巷店),39.939445,116.407925,地安门东大街地铁南锣鼓巷站A口西侧10米,c45207c7f86734161fe999c3,(010)84069599,1,c45207c7f86734161fe999c3
印格时光,39.954571,116.421534,北京市东城区雍和宫桥南50米五道营胡同18号,480b24d04e691ae89cec2b5b,(010)64021646,1,480b24d04e691ae89cec2b5b
和平里大酒店-阳光咖啡厅,39.964985,116.426972,东城区和平里北街16楼和平里大酒店1楼(近地铁五号线和平里北街站),d6ee8724c93dd5f9a8f0cd0d,(010)84225577,1,d6ee8724c93dd5f9a8f0cd0d
天韵茶舍,39.94041,116.365003,西城区东三环中路乙10号艾维克大厦2层,f2f15ffbf54b6791631c675e,"(010)66113491,13718911209",1,f2f15ffbf54b6791631c675e
皇家苑茶艺,39.94991,116.366218,北京市西城区西直门桦皮广胡同2号(国际商会大厦一层),64eb55dbd688483ec8213d60,(010)82217111,1,64eb55dbd688483ec8213d60
窝塔罗(鼓楼店),39.947099,116.412112,鼓楼东大街64-1号,3e175c5c1ab57c1ab23c8152,(010)64004855,1,3e175c5c1ab57c1ab23c8152
甜品咖啡店,39.94419,116.400139,北京市西城区地安门南门涮肉(后海店)南,,,1,540afa3b79a63b14bda24020
爵士岛咖啡(花园路店),39.986523,116.372558,北京市海淀区花园路乙9号牡丹写字楼3号楼,2fd2beab8195e24b7adbd25b,(010)82085230,1,2fd2beab8195e24b7adbd25b
会贤堂,39.943433,116.398507,北京市西城区前海北沿13号,4ce10ce66677f6b8451a32a2,(010)66176221,1,4ce10ce66677f6b8451a32a2
CAFEDELAPOSTE,39.949258,116.423303,北新桥三条与雍和宫大街交叉口东南50米,4a304822dd6b7d70f8f0cb5f,,1,4a304822dd6b7d70f8f0cb5f
依云咖啡(安定门店),39.957621,116.413468,北京东城区安定门外西河沿14号楼(上海城隍小吃旁),0523a14105d7bb04b23c8155,"(010)84116686,(010)81228815",1,0523a14105d7bb04b23c8155
E-STATION咖啡厅,39.960684,116.368315,北京市海淀区文慧园北路8号庆亚大厦一层底商,8606d10da6e8d24bad31e583,"13501104526,18810315589",1,8606d10da6e8d24bad31e583
一品茗茶咖啡,39.95913,116.406985,北京市东城区青年湖南街安德路47号院西门8号楼1层,c0b8c2dc69179485fa42b21f,"(010)64287400,18611697873",1,c0b8c2dc69179485fa42b21f
元缘红坊,39.943163,116.409586,南锣鼓巷74号,74c933fb88d968479f82eaa2,(010)64072116,1,74c933fb88d968479f82eaa2
风情苑咖啡厅,39.976134,116.424858,北京市朝阳区樱花西街18号北京贵州大厦1层,3d97a56185f0056a3517dcee,,1,3d97a56185f0056a3517dcee
贵州大厦咖啡厅,39.976292,116.424831,北京市朝阳区北三环樱花西街18号贵州大厦1楼(和平西桥),b06e4e892df45710dbeced75,(010)58109988,1,b06e4e892df45710dbeced75
luckincoffee瑞幸咖啡(金澳国际中心店),39.976775,116.385234,马甸东路19号金澳国际中心一层,,,1,b31bd403ff63954440afe6d4
休息一会茶坊,39.98782,116.369107,海淀区花园北路45号(北医三院东侧200米),d6c5d99140558af131169bb5,(010)82087530,1,d6c5d99140558af131169bb5
瑞幸咖啡(江苏广电大厦店),39.971149,116.413369,北京市朝阳区安定门外大街1号江苏广电大厦1层大堂,,,1,b9be59639e3739ab2b06cec2
你不知道的地方,39.941349,116.409054,南锣鼓巷与蓑衣胡同交叉口西50米,,18201031005,1,2d54cd82a1ddc5d73913fd5f
雪山回忆咖啡厅,39.960591,116.36875,红联东村28号庆亚大厦C座1层102,be6e1e9fb33bb4a38f55ec81,(010)82582460,1,be6e1e9fb33bb4a38f55ec81
源香,39.969072,116.377419,北京市西城区新街口外大街甲8-2号,71dae290f5523b322811d16a,(010)82249001,1,71dae290f5523b322811d16a
A JUST CAFE,39.94649,116.414663,交道口南大街11号(新华大厦),,,1,72744b6d6cbc975eb21e3647
隆格咖啡厅,39.986481,116.383314,北京市海淀区牡丹园北里11号楼,d5464cf8d6257c4efda7784d,(010)62081177,1,d5464cf8d6257c4efda7784d
东家客厅,39.951263,116.417155,北京市东城区国子监街40号院内,d208b4e791e4095fc9291543,,1,d208b4e791e4095fc9291543
A HCAFE,39.948834,116.423396,北京市东城区东直门雍和宫大街74号附近,,,1,01cf5866bd1f5b314e776e99
全创空间,39.976196,116.389585,德胜街道北三环中路29号院3号楼茅台大厦1层,4de4f37cf2d40d6aa21de99b,,1,4de4f37cf2d40d6aa21de99b
One quarter coffee lab,39.93648,116.424023,北京市东城区东四北大街东四六条85号(东四六条西口),,,1,420daf7e988a777b7402698f
麦咖啡(北师大店),39.967534,116.376866,北京市海淀区新街口外大街19号师大东门励耘学苑1楼(近北师大),64ccb61bcaa6b3bbf7b916cc,,1,64ccb61bcaa6b3bbf7b916cc
燃烧冰咖啡店,39.977878,116.388962,北三环中路甲29号院华尊大厦B座负1层,,13136666300,1,08a1a0eb6a4750fa07fef535
阳光咖啡,39.983182,116.377956,北京市海淀区花园东路30号花园饭店1号楼1层,,,1,5703b4999dd6113e4251c033
猫小妹咖啡艺术小院,39.949555,116.394307,北京市西城区鸦儿胡同77号,,18701509778,1,643ef141c231f8efc42ba1fe
观生活廷苑,39.95169,116.415841,"国子监街76号(东边靠近雍和宫,西边靠近安定门内大街)",74856c6bbb887feace04efee,(010)64457172,1,74856c6bbb887feace04efee
鸟巢咖啡厅,39.932218,116.420332,北京市东城区隆福寺街95号三楼,,,1,349676e9c8df634da11de9c5
Never Bored Cale,39.946559,116.392762,北京市西城区后海南沿46号附近,,,1,67fc3535ed600343901fc9e8
Lee’scafe(张自忠店),39.938994,116.426257,东四九条78号,,,1,e55f3ba90515174a4c6d46b9
UILLY COFFEE,39.937522,116.36343,平安里西大街32号(西二环官园桥旁)梅兰芳大剧院内一层,,,1,0be86041105ce6d89cf77905
江苏大厦-咖啡厅,39.963633,116.416358,安定门外大街丁88号,,13522434633,1,8fa85ed0afbbda221d1d1195
撸狗咖啡生活馆,39.952724,116.408671,北京市东城区纱络胡同5号南房,,,1,089ff95d6b75d43b46572605
闲暇小趣甜品咖啡店,39.960428,116.415238,安定门外大街190-192号煤机大厦3层316,,,1,751140b85a70db6226d2bbdd
者行孙旅舍精酿咖啡,39.947656,116.42687,簋街22号,51321596e9504c4315c905bf,(010)84023518,1,51321596e9504c4315c905bf
COSTA COFFEE咖啡店(雍和宫店)-南门,39.954652,116.42263,北京市东城区五道营胡同1号,11e1bd15f3b7be624002457c,,1,11e1bd15f3b7be624002457c
多百特咖啡厅(安燕店),39.955749,116.417796,北京市东城区安定门东大街68,,,1,823231a312264c78d3ff23de
一号土猪(天丰利店),39.968909,116.423994,北京市朝阳区和平西街21号天丰利菜市场B1层,6bdd3782b3f06e3ec6f50db3,,1,6bdd3782b3f06e3ec6f50db3
北京吉姆咖啡厅有限公司,39.946974,116.405508,鼓楼东大街206号北京国际创意设计C座201,adae0e4264b211d1b2077d3f,,1,adae0e4264b211d1b2077d3f
coffee sweet,39.963732,116.375706,学院南路北师南门汉庭酒店内,,,1,077f205fc20b8a34ad080f73
TheRug(朝阳公园店),39.938986,116.489913,六里屯4号丽水嘉园小区4号楼1层,befdb29207ae08f8861541f7,(010)63257152,1,befdb29207ae08f8861541f7
老书虫The Bookworm(三里屯路店),39.937984,116.462677,北京市朝阳区南三里屯南路4院内(工体路口),0523a141fb1fc504b23c810d,(010)65032050,1,0523a141fb1fc504b23c810d
漫咖啡(团结湖店),39.934005,116.471037,白家庄东里23号锦湖中心一层,7f693e0c644526dec4f50d6a,(010)65928780,1,7f693e0c644526dec4f50d6a
漫咖啡(酒仙桥店),39.978166,116.48466,北京朝阳区将台西路9-7号(近珀丽酒店),251374c95030be26a11de92d,(010)84573470,1,251374c95030be26a11de92d
Bracket coffee,39.939022,116.453255,北京市朝阳区工体北门3幢,8d7a464e0ee3bf7d7402691f,(010)65533667,1,8d7a464e0ee3bf7d7402691f
星巴克(雍和大厦店),39.954621,116.427405,东城区安定门东大街28号雍和大厦C座1层,6ac0b30d265e7ea9a2d230dd,(010)64011035,1,6ac0b30d265e7ea9a2d230dd
库布里克书店咖啡,39.955894,116.444878,东城区东直门香河园路1号北区当代MOMA内(百老汇电影院对面),89fd4ea31d9b6b5ee5e9654d,(010)84388381,1,89fd4ea31d9b6b5ee5e9654d
北京燕莎中心凯宾斯基饭店大堂吧,39.954625,116.471092,北京朝阳区亮马桥路50号凯宾斯基大酒店1楼,bf29b7023618128009b93ad8,(010)56188508,1,bf29b7023618128009b93ad8
C5Cafe,39.948599,116.460432,北京市朝阳区三里屯西五街5号F座,57c84e4c3e6c4d5c373a71b2,(010)58443705,1,57c84e4c3e6c4d5c373a71b2
Coffee Cuore 初心咖啡馆,39.953699,116.472808,麦子店街39号一层Y101,f6db8b502478413cee74f806,(010)85992521,1,f6db8b502478413cee74f806
雕刻时光咖啡馆(工体东路店),39.93153,116.457353,北京市朝阳区工体东路16号2号楼中国外文书店旁(地铁六号线东大桥A口右转100米),b50e769e8b61f8f88e77279b,(010)65006675,1,b50e769e8b61f8f88e77279b
the local,39.937119,116.46369,北京市朝阳区工体北路4号,070a39efc26c56778a36ee0e,,1,070a39efc26c56778a36ee0e
星巴克(东直门南大街店),39.946041,116.438906,东城区东直门外大街48号北京银座商场第L3层23号商铺,9a8761a1e326c1070bf5eb83,(010)84477308,1,9a8761a1e326c1070bf5eb83
星巴克(东方东路二店),39.956358,116.470502,朝阳区东方东路19号外交办公大楼1层F110号2层F213单元,0be730317e21e596095cb39b,(010)85315027,1,0be730317e21e596095cb39b
星巴克(七圣中街店),39.977443,116.442437,朝阳区七圣中街12号院爱琴海购物中心F1层,,(010)84240709,1,64695da197f16ecd4f6d46ed
soe咖啡厅,39.934007,116.47093,北京市朝阳区白家庄东里23号锦湖园公寓底商联合创业办公社一层soe咖啡厅,,,1,fca3439ad74fe55c43e192ee
高乐雅咖啡(Naga上院店),39.947408,116.434965,北京市东城区东直门内大街9号院1号楼1层103A,86492a3426f86ce94354d776,4000139196,1,86492a3426f86ce94354d776
雕刻时光咖啡馆(外经贸店),39.986964,116.430579,北京市朝阳区惠新东街11号紫光发展大厦A座2层,a5097bfaca98a77af03cba54,(010)64823675,1,a5097bfaca98a77af03cba54
星巴克(工体北路店),39.941255,116.456338,朝阳区工人体育场北路13号北京世茂百货F1层,4557f42833ea4f43b020a8bb,(010)84059071,1,e6ee2fd2faab90512a11d1f8
前田咖啡,39.961679,116.475532,北京市朝阳区天泽路19号草场2层201,2297602f8c0e2aabd81318af,(010)56234368,1,2e7af4c9fe3502b0223bf20c
星巴克(北京三里屯北区店),39.944165,116.461263,朝阳区三里屯路11号地下一层NLG-32a单元,6716ced89a65f8aa7dc876d2,(010)64165163,1,6716ced89a65f8aa7dc876d2
漫咖啡(平安国际店),39.955496,116.46596,朝阳区新源南路3号平安国际金融中心1楼,07abf77ab08adcbbb64f543d,(010)84442366,1,59a56d2635deeb93f8f0cbdc
STARBUCKS北京工体北路第二咖啡店,39.938573,116.45991,朝阳区工人体育场北路8号三里屯SOHO1号商场1层1-118室,903aa7b17a4e69ae9868b418,(010)85900279,1,903aa7b17a4e69ae9868b418
星巴克(瑞士公寓店),39.939119,116.443952,东城区工人体育场北路66号瑞士公寓1-2层,5ce2637d99612148ae31e54d,(010)65513506,1,5ce2637d99612148ae31e54d
安缇古董咖啡,39.935648,116.454628,北京市朝阳区工人体育场10号看台，安缇古咖,,(010)65513665,1,31a7e7f47a3ea08379dbd251
梦工坊茶室咖啡厅(西坝河店),39.970556,116.454976,北京市朝阳区曙光西路西坝河东里16号,5bf5cd48d5d2b0bad8d89134,(010)60845065,1,5bf5cd48d5d2b0bad8d89134
自由港,39.984551,116.472845,北京市朝阳区华诚市场南门,1264ad2b2d05a20a9c09f755,(010)66008989,1,1264ad2b2d05a20a9c09f755
乡谣酒吧(朝阳公园路店),39.956478,116.478288,北京市朝阳区朝阳公园路1-22号,a0ad85182ef8f330095cb398,,1,a0ad85182ef8f330095cb398
星巴克(三里屯店),39.940226,116.461389,朝阳区三里屯路19号10号楼10-1-5-10-1-6号,edd64ce137b168883ee231a1,(010)64165281,1,edd64ce137b168883ee231a1
欧也CAFE BAR,39.946717,116.436247,东直门内大街6号楼8号,878ca206d6fa2580128824eb,,1,878ca206d6fa2580128824eb
星巴克(新源南路店),39.95504,116.466391,朝阳区新源南路1号都汇天地购物中心B1层B18单元,80dbe7538a9d55d0128824a6,(010)84442336,1,80dbe7538a9d55d0128824a6
TIENSTIENS,39.937988,116.463906,北京市朝阳区南三里屯路工人体育场北路4号10号楼一层101号,,(010)85878897,1,e3106049b5adb3ec8bfc0661
九榀石咖啡,39.956975,116.469742,北京市朝阳区东方东路19号,40c64c88b7272db51e1d112d,15901201465,1,2dd2f28096c468241c38946a
星巴克(霞光里店),39.962377,116.46487,朝阳区东三环北路霞光里18号佳程广场A座三层,f9fd606278987a060f0e6b56,(010)84400958,1,f9fd606278987a060f0e6b56
27咖啡,39.981115,116.487582,北京市朝阳区芳园西路6号院一层,,(010)84700027,1,ab5948522b5f22c994f08cb9
星巴克(圣拉娜购物中心店),39.95498,116.480274,朝阳区公园路6号蓝色港湾国际商区1-2层,2ad32cc3aebec2969c95dea6,(010)59056343,1,2ad32cc3aebec2969c95dea6
花舍咖啡情调餐厅(八号公馆店),39.943654,116.48261,朝阳公园西路8号,2cc3c8e8936b54cf4c2fdfa0,(010)65089229,1,2cc3c8e8936b54cf4c2fdfa0
幸福咖啡馆(东环广场),39.94406,116.442658,北京市东城区东中街9号东环广场A座1楼,803708f11377866001897275,(010)64181096,1,803708f11377866001897275
福楼咖啡(三里屯太古里店),39.940808,116.461609,北京市朝阳区三里屯路19号三里屯太古里F3,c0457cb7935f32222811d186,(010)64094224,1,c0457cb7935f32222811d186
星巴克(国展天虹店),39.964951,116.448802,朝阳区左家庄北里58号楼天虹百货一层1037号,923ffd0059a40baed92f28c2,(010)57620436,1,923ffd0059a40baed92f28c2
全球旅行家设计咖啡,39.981325,116.435836,北京市朝阳区和平街北口北京服装学院3号楼1层101,e0ff71acd63ff49ea8059db6,(010)57408700,1,e0ff71acd63ff49ea8059db6
星巴克(北京丽都店),39.982925,116.485512,朝阳区将台路丽都广场1层,f60a15ed3ea589f5bb17e74d,(010)64376825,1,f60a15ed3ea589f5bb17e74d
喵咪主题咖啡厅餐厅,39.938298,116.460624,北京市朝阳区工人体育场北路8号三里屯SOHOF1,99be9bf372b1d8a82e47336c,,1,99be9bf372b1d8a82e47336c
星巴克(北京嘉盛SOHO中心店),39.935088,116.467028,朝阳区东三环北路甲19号嘉盛中心首层,339701aa60d90271d518b731,(010)65067281,1,339701aa60d90271d518b731
costa咖啡厅,39.937417,116.439006,北京市东城区朝阳门北大街3号五矿广场b座costa咖啡,163add7fcb0279fa0c0e6b63,(010)60845012,1,163add7fcb0279fa0c0e6b63
友你咖啡,39.939936,116.473463,农展馆南路13号瑞辰国际一层F1-3,5d33e545b79e82e6841541cb,(010)65008158,1,5d33e545b79e82e6841541cb
COSTA COFFEE(北京来福士中心店),39.945996,116.438845,北京市东城区东直门南大街1号来福士F1,2a7a25ec48ace27a6d3e1ba8,13426089572,1,2a7a25ec48ace27a6d3e1ba8
星巴克(北四环东2店),39.984872,116.467636,朝阳区北四环东路9号四元桥家乐福1层1-36a单元,afbe148e8ac10ca557bfff9e,(010)64772010,1,afbe148e8ac10ca557bfff9e
costa咖啡厅,39.93788,116.485326,北京市朝阳区北京棕榈泉生活广场1层,dffd631c69071aa539221ca8,(010)65397660,1,dffd631c69071aa539221ca8
星巴克(霄云路店),39.965657,116.474011,朝阳区霄云路甲26号北京海航大厦万豪酒店一层,55fa2c0b423c9a341ce999c3,(010)59782293,1,55fa2c0b423c9a341ce999c3
jamaicablue fine coffees(中央广场店),39.937135,116.48431,骏豪中央公园广场A7座107,b6c7c63422ddb603f50e7728,(010)65064100,1,b6c7c63422ddb603f50e7728
太平洋咖啡(三里屯店),39.938753,116.46257,工体北路甲六号中宇大厦首层010B,bf29b702abee9d9908b93a8e,(010)59752650,1,bf29b702abee9d9908b93a8e
雨花咖啡馆,39.963353,116.464773,北京市朝阳区南银大厦后院地质宾馆一层,b2a37e5523e622669df7799e,13693278521,1,b2a37e5523e622669df7799e
星巴克(霄云路二店),39.961621,116.469255,朝阳区霄云路38号现代汽车大厦一层,81f62c97d17a25c41ce999e0,(010)64611302,1,fc1d017a70e5defd7dc876de
前途驿,39.941857,116.46168,北京市朝阳区三里屯北街81号楼,,18610592054,1,007b560c6eafc5136ca3ccde
百蒂餐吧,39.982981,116.491944,北京市朝阳区芳园西路38号,2ab0e57f558d639396031952,(010)84308700,1,2ab0e57f558d639396031952
Jamaica Blue Coffee(公园大道店),39.937492,116.49178,朝阳区朝阳公园南路6号院4-3(近棕榈泉公寓，朝阳公园南门斜对面，朝阳公园桥内，东四环内),ffd6d403e392ed8c16b54bbc,(010)85874568,1,ffd6d403e392ed8c16b54bbc
星巴克(京顺路店),39.973327,116.468303,朝阳区京顺路111号比如世界1层05号,1bf85b25b4063dbda0a934b8,(010)64304036,1,1bf85b25b4063dbda0a934b8
奥加饭店-咖啡厅,39.946432,116.454671,朝阳区东直门外大街26号奥加饭店1楼,0dc3d82dccdd3d7574e5b6b2,(010)64153388,1,0dc3d82dccdd3d7574e5b6b2
星巴克(北京兴业银行店),39.931877,116.442533,朝阳区朝阳门北大街20号兴业银行大厦一层,,(010)85306308,1,2615ca8c38b87d32734b87ef
SOLOIST COFFEE(三里屯太古里南区S6店),39.941216,116.460201,北京市朝阳区三里屯路19号三里屯太古里F1,b151811a7eaa87ce17b54bea,,1,b151811a7eaa87ce17b54bea
豆瓣咖啡,39.933945,116.438472,豆瓣胡同3-5号(近朝阳门),a2aadaf5fd3e436d2d47338c,(010)84078284,1,a2aadaf5fd3e436d2d47338c
星巴克(曙光西里店),39.968928,116.460011,朝阳区曙光西里甲5号10号楼17-1层,bd5dd57f58916aa400ff2dfd,(010)58667129,1,bd5dd57f58916aa400ff2dfd
渡心阁,39.971236,116.453775,北京市朝阳区北三环东路西坝河东里14号实华饭店二楼渡心阁茶馆(三元西桥),3e746f6df70aeaf86e20b9a1,(010)64667266,1,3e746f6df70aeaf86e20b9a1
ESSECOFFEE(柳芳店),39.959276,116.444301,柳芳南里13楼(柳芳南里社区内),,13661151269,1,7839d1d07d4721802efaa76e
丹瑅小馆,39.941143,116.462709,三里屯酒吧街81号那里花园4楼D4055楼,1cea15a9b9f6fadc07fef5d6,,1,1cea15a9b9f6fadc07fef5d6
m sweetie cake,39.945086,116.458183,新东路8号院首开铂郡5号楼1-022号,43142329caf0574879b55ce2,"17344460596,18310589629",1,43142329caf0574879b55ce2
草场,39.961299,116.475434,天泽路19号美国大使馆对面,0de944fd681f9e911ff74de0,18600042189,1,8dcc7fb92fe5e11fc5f0254a
星巴克(蓝色港湾第二店),39.955404,116.481872,朝阳区朝阳公园6号蓝色港湾国际商区11号楼2层,,(010)59056120,1,ae4d1352ab903f4d9703199e
星巴克(国华投资广场店),39.945133,116.438886,东城区东直门南大街3号国华投资1层01单元,d8ea574bab5bd49c6e20b9dc,(010)69945963,1,d8ea574bab5bd49c6e20b9dc
Barista Specialty(三里屯店),39.941761,116.461393,北京市朝阳区三里屯北街那里花园A116,,15010809311,1,46e0cd385b315772a1046400
星巴克(太阳宫中路第二店),39.976891,116.454511,朝阳区太阳宫中路12号冠城大厦一层,,(010)84298878,1,0d8025c2d581ee42f7b91656
Rui Cafe,39.956985,116.429091,东滨河路乙1号雍和航星园一号楼东侧,8f83294774706de8f33cba56,15010097339,1,8f83294774706de8f33cba56
星巴克(亮马河大厦店),39.951107,116.471184,朝阳区东三环北路8号亮马大厦一层,606289fdbec6c654a2046456,(010)65900522,1,606289fdbec6c654a2046456
美豚biton(麦子店店),39.954818,116.475365,北京市朝阳区麦子店大街46号(百富源餐厅2楼),92e32bb7fae608edf8221391,13031082198,1,92e32bb7fae608edf8221391
TOSCA COFFEE,39.940434,116.478874,朝阳公园路19号佳隆国际大厦,8fb0a6f69fd8ea3b09b93a91,(010)65398077,1,8fb0a6f69fd8ea3b09b93a91
星巴克(东三环北店),39.933777,116.467072,朝阳区东三环北路27号嘉铭中心大厦A座B1层024号,3d7bc87759af520379dbd293,(010)65003102,1,3d7bc87759af520379dbd293
Village Cafe,39.943149,116.461339,朝阳区三里屯11号院1号瑜舍酒店1楼,2848ffd600327c1649cc4a8a,(010)64105210,1,2848ffd600327c1649cc4a8a
瑞幸咖啡(柳芳金泰大厦店),39.966076,116.440008,北京市朝阳区西坝河南路1号4号楼金泰大厦5层,,18612291551,1,a0b8ca86139e92aaebe58289
咖啡自习室,39.985557,116.433442,北京市朝阳区惠新东街10号,f6abea5b95673ec745e274c0,,1,f6abea5b95673ec745e274c0
漫巴咖啡(三里屯店),39.938596,116.460216,工人体育场北路8号院6幢-1层-1125(工人体育场北路8号院1幢B1-125),5a64c3f284c3b5260bccddd7,(010)59359502,1,5a64c3f284c3b5260bccddd7
RC主题咖啡厅,39.96034,116.430167,和平里南街五区18号龙绍衡大厦1层,567846a36584fa8df942b2cf,(010)84216688,1,567846a36584fa8df942b2cf
校园咖啡,39.979189,116.42707,北京市朝阳区北三环东路15-西门,ee2ed7a4d26390c4c27da23f,,1,ee2ed7a4d26390c4c27da23f
NESPRESSO咖啡店(三里屯太古里店),39.941402,116.461429,北京市朝阳区三里屯路19号三里屯太古里F1,0bbd87f0c16f9ddcdb131892,(010)65331040,1,0bbd87f0c16f9ddcdb131892
luckincoffee(中央公园广场店),39.938075,116.483797,朝阳区六里屯甜水园街中央公园广场A7座B1层152号,,4000100100,1,40866ce4b7851f85db131830
星巴克(盈科中心第二店),39.938245,116.464972,朝阳区工人体育场北路甲2号裙房01层103A单元及02层202A-203A单元,,(010)65392536,1,5503c038ca4263d34d554760
几点咖啡店,39.94658,116.443192,北京市东城区东直门外大街46号天恒大厦A座1层,4012f91c2fd11cb66318098c,(010)84608462,1,4012f91c2fd11cb66318098c
星巴克(北京海润店),39.982351,116.489721,朝阳区机场辅路将台路甲2号海润国际公寓底商1层,6fddd7fd42b518663517dc56,(010)51358316,1,6fddd7fd42b518663517dc56
奥芝驿站,39.984813,116.430437,朝阳区惠新东街17号(近对外经贸西门),,(010)64893595,1,bf2c303e60bb4eedd22dd6bd
融爵咖啡,39.937735,116.442189,朝阳门北大街6号首创大厦2层,b17055e852323f69a5da396f,13120017177,1,b17055e852323f69a5da396f
摩卡站(三里屯店),39.941787,116.461271,三里屯北街81号那里花园,50b4bc33bf1614145e0d022a,,1,50b4bc33bf1614145e0d022a
LeaderClub聚乐部,39.972713,116.487491,将台西路阳光上东设计街B区2层,5e0a129f70641ce4e9f85381,(010)51303433,1,5e0a129f70641ce4e9f85381
星巴克(国航大厦店),39.962322,116.470133,朝阳区霄云路36号国航大厦A座1层1号,89fd4ea31d946b5ee5e96556,(010)84475636,1,89fd4ea31d946b5ee5e96556
Living Room(北京三里屯CHAO店),39.938516,116.458159,工人体育场东路4号北京三里屯CHAO一层,63ebae69a0988eff882fb5a0,"(010)58715588,18010125998",1,63ebae69a0988eff882fb5a0
V Plus Cafe微餐咖啡,39.963476,116.467332,霞光里66号院甲2号楼1层商业B09,7eb48d9728d71597120daaf7,(010)84467616,1,7eb48d9728d71597120daaf7
BLUFISH布鱼咖啡,39.937791,116.465642,北京市朝阳区工体北路甲2号,,,1,5e8b0b024d7a01db0f0e6b8a
luckincoffee瑞幸咖啡(歌华大厦店),39.954706,116.430617,东城区青龙胡同1号歌华大厦B座,,18601357313,1,e5740fcc38a4c106c51e51a6
和咖啡hecoffee,39.954346,116.428591,东城区雍和宫青龙胡同35号(银行雍和大厦歌华大厦移动大厅),09d1d27a5493212b7702691f,(010)64011568,1,09d1d27a5493212b7702691f
敦叙堂,39.934614,116.479868,北京市朝阳区水碓子东路23号,c73311d2458dfeb6a5da3995,(010)65913908,1,c73311d2458dfeb6a5da3995
HEALER COFFEE 治愈者咖啡,39.964173,116.454823,朝阳区静安东街国门大厦一层,e6cb17e4c293c612744ff1b5,"18435810520,17344411106",1,e6cb17e4c293c612744ff1b5
洲际酒店大堂吧,39.938567,116.461943,北京市朝阳区南三里屯路一号,879c2daf56a667f1d4851f52,(010)65308888,1,879c2daf56a667f1d4851f52
T家咖啡(对外经贸大学店),39.987942,116.430603,惠新东街7号(对外经贸大学西门往北100路西),,,1,308c2051564f9e261e1d11f1
luckincoffee(通盈中心店),39.938396,116.461798,朝阳区南三里屯1号楼通盈中心2层,,"4000100100,18601357302",1,ea46c7f79198c4f2b23c81c6
金凤成祥咖啡馆,39.970587,116.431832,和平里东街13区4号楼104号,04b0c75a8d2d6ba9b04c492f,18600167059,1,04b0c75a8d2d6ba9b04c492f
M迷,39.980457,116.488237,北京市朝阳区芳园西路3号院,30edefd2e94ed780ad080f1d,17310552800,1,30edefd2e94ed780ad080f1d
CAFE FLATWHITE(三里屯SOHO店),39.938002,116.460842,北京市朝阳区工人体育场北路8号三里屯SOHOB1,79bd23e3528ea11658109396,(010)57853762,1,79bd23e3528ea11658109396
SPR COFFEE(东环广场店),39.941848,116.442626,北京市东城区东中街29号东环广场B1层,f44609186207d973b01e36ab,(010)64185718,1,f44609186207d973b01e36ab
花语咖啡生活馆(金星园店),39.973313,116.461713,太阳宫太阳星城金星园4号楼2层,083a55faa1009d60256e98ed,(010)52087788,1,083a55faa1009d60256e98ed
翠雅咖啡厅,39.951631,116.469636,东三环北路8号亮马河饭店3层,8bfd47f60d2b0ab35cd4fef4,(010)65906688,1,8bfd47f60d2b0ab35cd4fef4
纳斯卡咖啡(都汇天地店),39.955084,116.46646,北京市朝阳区新源南路1-3号都汇天地B1楼B13A,d305db1fb6b67127932ca35a,(010)65924537,1,d305db1fb6b67127932ca35a
木茶咖啡,39.933355,116.450007,朝阳区工体西路工体西里小区6号1层,8ed5fbe94ef9910843ab9acc,010-65522059,1,2fd2beab8783e44b7adbd241
布鲁诺咖啡,39.953705,116.462682,北京市朝阳区左家庄街道新源南路8号启皓大厦1楼布鲁诺咖啡厅,,,1,6fd2d183eb6b5580373a71a6
乐石咖啡馆,39.96597,116.439798,西坝河南路1号(4号楼)1层106,61fe7e0d69a61faa1e5800ef,13910296003,1,61fe7e0d69a61faa1e5800ef
太平洋咖啡(南银大厦店),39.962873,116.463816,北京朝阳区东三环北路2号南银大厦B1楼B106、B107号铺(近三元桥东北角佳程广场),15a93810ae27b6a414c8f65e,(010)64109096,1,15a93810ae27b6a414c8f65e
CAFE FLATWHITE(塔园外交公寓店),39.950951,116.456505,北京朝阳区新东路1号塔园外交公寓6号楼(近加拿大大使馆),fd13a3f2ec339ce3b1077dde,(010)85321992,1,fd13a3f2ec339ce3b1077dde
仙人掌咖啡厅,39.986093,116.43392,北京朝阳区惠新东街10号对外经贸大学内,e889a74444b291ac8605bf54,,1,e889a74444b291ac8605bf54
天庭咖啡厅,39.953821,116.466532,朝阳区新源南路2号昆仑饭店1层,75036835e9e8c9b65f0d02a9,"(010)65903388-5057,(010)65903229",1,75036835e9e8c9b65f0d02a9
高乐雅咖啡(三里屯店),39.938576,116.461807,三里屯通盈中心首层(近奔驰餐厅),6ba9393752c56f70d3ff23b1,15122150161,1,6ba9393752c56f70d3ff23b1
卡吗多咖啡店,39.937398,116.4389,朝阳门北大街五矿广场B座1层,37cabeebdcbc8ee11a94c6e4,,1,37cabeebdcbc8ee11a94c6e4
HELLO COFFEE,39.956196,116.473592,亮马桥路48号城市市集一层,,,1,05d162bfec20f0047c29bd71
红石coffee&tea,39.938898,116.439338,东二环与东四十条交叉口西南角(新保利大厦B1-01室),6847fdd83dcb217b7069d3c3,,1,6847fdd83dcb217b7069d3c3
ON Emotions Cafe & Wine,39.941899,116.456079,工体北路13号院1号楼海隆石油大厦北门1层105,d67d068e528886e6f60e7768,,1,d67d068e528886e6f60e7768
大雨澳斯特咖啡厅,39.985259,116.483154,京顺路99号大雨澳斯特酒店1层,593d1459ee9489ee9c09f7e1,(010)64799999,1,dfa134b2a44c10299222e0fb
园空间咖啡(北服店),39.980954,116.436506,北京市朝阳区和平东桥樱花东街甲2号北京服装学院内,,(010)57105295,1,ec3b19e4e216c4c4d6851fa5
strawberry cafe,39.955841,116.478079,枣营路好运国际美食街C区B2层,c753795fc08651cd2b06ce80,(010)58670207,1,c753795fc08651cd2b06ce80
珀丽酒店-咖啡厅,39.97973,116.48456,北京市朝阳区将台西路8号珀丽酒店大堂,fda311624daf946ada2f280f,(010)59602288,1,fda311624daf946ada2f280f
亚州大酒店-樱园咖啡厅,39.938561,116.445847,工体北路新中西街8号亚洲大酒店内部,cc0849a0b9a1e150940319c5,(010)65007788-6160,1,cc0849a0b9a1e150940319c5
炉火咖啡(育膳房店),39.941795,116.450577,北京市朝阳区工人体育场北路1号育膳房内,628327af1ff6b766e81e970e,15811021421,1,628327af1ff6b766e81e970e
coffee(三里屯店),39.944478,116.460099,北京市朝阳区三里屯路11号院-4号楼,e1f9f290308459c22d4733c2,,1,e1f9f290308459c22d4733c2
欧洲古董咖啡,39.953314,116.475011,北京市朝阳区麦子店街36号,,(010)65843358,1,baa532dca072ebd03b221c52
兰亭咖啡厅,39.951614,116.454447,新源西里中街18号渔阳饭店1楼,46e86fddbc951876d13ce350,(010)64669988,1,46e86fddbc951876d13ce350
香橄榄咖啡厅,39.959151,116.439973,东土城路14号建达大厦一层103,e232611e8dbe40358bb98818,13501016447,1,e232611e8dbe40358bb98818
百富怡大酒店-咖啡厅,39.948754,116.450695,东直门外大街南二里庄29号,89be9dd45a722d3ae215f968,(010)56518888,1,89be9dd45a722d3ae215f968
舶客圈,39.937293,116.442641,北京市东城区富华大厦F座1层,9980795753767857c61e51a3,(010)65542235,1,9980795753767857c61e51a3
二十一世纪饭店-四季咖啡厅,39.957989,116.479945,北京市朝阳区亮马桥路40号二十一世纪饭店一楼,606ab0d034a4c2330f3ddaa6,(010)64683311-3735,1,606ab0d034a4c2330f3ddaa6
星巴克(太阳宫凯德嘉茂店),39.976895,116.454686,朝阳区太阳宫中路12号太阳宫凯德嘉茂一层01-44-45号,,(010)84150785,1,7652e443936d6cbad0ff23aa
樱花宾馆-咖啡馆,39.985049,116.43072,惠新东街17号樱花宾馆大厅的一侧,f4f2b2903edee87359bbbcd0,,1,f4f2b2903edee87359bbbcd0
红调咖啡酒吧,39.94497,116.441339,东直门南大街4号楼2层近东方花园饭店,4bb049d9855a645e99005055,,1,4bb049d9855a645e99005055
城市地段咖啡厅,39.965933,116.440203,西坝河南路1号金泰大厦1层大堂北侧(近地铁13号线柳芳站),b0d056f297f2c767cac3db54,(010)64403080,1,b0d056f297f2c767cac3db54
馥澜吧,39.938833,116.442096,北京市东城区朝阳门北大街2号港澳中心瑞士酒店1层,2e00c5ddeb887b05d7851f78,(010)65532288,1,2e00c5ddeb887b05d7851f78
坚果儿咖啡屋,39.95459,116.430669,北京东城区青龙胡同1号歌华大厦B1楼(近东直门北小街),56e88cba95da7d7ca4c7564d,(010)84186606,1,56e88cba95da7d7ca4c7564d
北京新云南皇冠假日酒店钢琴酒廊,39.978331,116.441206,北京市朝阳区东北三环七圣中街12号新云南皇冠假日酒店一层(太阳宫桥东北角),129ee00504d409c44d776e74,(010)64298888,1,129ee00504d409c44d776e74
钛得时光,39.981304,116.436341,北京市朝阳区樱花东街甲2号北服创新园101室,,13501288081,1,6edbf386a1555a9c8505bf70
庭院咖啡厅,39.948997,116.476341,朝阳区农展馆北路甲5号永安宾馆内,85e8436ff82a060e157643b3,(010)65011188,1,85e8436ff82a060e157643b3
帕斯库奇咖啡,39.954118,116.465259,北京市朝阳区新源南路甲2号昆仑公寓1层,887f74222533480a0482c23b,(010)65005985,1,887f74222533480a0482c23b
瑞幸咖啡,39.93839,116.461598,通盈中心二层瑞辛咖啡,,,1,2da77cb73265df064d5547c4
星巴克(润世中心店),39.961072,116.478322,朝阳区天泽路16号院1号楼一层,,(010)84243923,1,f5f37a778360d5153310af3c
TOWNSQUARE Cafe思方汇咖啡馆,39.954951,116.445659,北京东城区香河园街1号院11号楼雅辰悦居酒店1层,,(010)84743010,1,194e1ae59e069499902ca369
香咖啡(农展馆南路店),39.939686,116.469415,农展馆南里12号通广大厦4楼(长虹桥东北),,(010)65389450,1,1720f11496ca24ff4e6d4625
RICH&JAY,39.938766,116.465355,工人体育场北路甲2号盈科中心1F,,,1,8f6b9203fedb4b9679dbd254
瑞幸咖啡,39.96808,116.434623,和平街14区甲16号1幢1层101室,,,1,b06544ba3b1e12391e58003d
皇家大饭店-咖啡厅,39.965887,116.448785,北京市朝阳区北三环东路甲6号北京皇家大饭店2楼,844a750e252c00a0636858b2,(010)59223388,1,844a750e252c00a0636858b2
宁咖啡,39.962959,116.468273,北京市朝阳区霄云路35号路口一层,,,1,b45944a3120cdb189d82ea2e
瑞幸咖啡,39.986003,116.483159,北京市朝阳区望京中环南路甲2号佳境天城A座3层半,,,1,ed6c39f1726384d16168585c
ilgattocoffee意咖多咖啡,39.937228,116.464441,朝阳区工人体育场北路机电研究院内22号楼北侧,,13810466993,1,ba076c0802e5448f5abbbcc8
SYMBOL COFFEE,39.936879,116.461797,北京市朝阳区三里屯南路6号楼,,15296601281,1,7f58ef472823b1e00b69d9c2
北京百怡咖啡(天元港店),39.961232,116.466425,北京市朝阳区东三环北路丙2号天元港中心B1楼(近霄云路),92b806d2379872e779b55c56,(010)84417206,1,92b806d2379872e779b55c56
新大宗饭店-咖啡厅,39.951625,116.474547,麦子店街58号新大宗饭店1层,09439035b6c7fe47d0ff23dd,(010)65068888,1,09439035b6c7fe47d0ff23dd
kubrick,39.95589,116.444711,北京市东城区香河园街1号院北区当代moma2号楼,fe4a07e4f19680b95fbe86ef,,1,fe4a07e4f19680b95fbe86ef
潮客咖啡,39.943704,116.456218,新东路幸福二村首开幸福广场40号楼C座一层,5165515dc851f323631c67c7,(010)53343586,1,5165515dc851f323631c67c7
台球运动主题咖啡厅酒吧(世茂广场·工三店)(装修中),39.940521,116.456287,北京市朝阳区工体北路13号世茂广场·工三F2,,,1,bceb3f20dc97a5f07adbd21b
FLYKOI COFFEE(三里屯SOHO店),39.938504,116.459964,北京市朝阳区工人体育场北路8号三里屯SOHOF1,,,1,6ae02fc697624c004afd3f94
BOKOQ coffee,39.937276,116.44265,东城区朝阳门北大街8号富华大厦F座1层,242b204b8fb74cb10f0e6b01,"13801250395,(010)65542235",1,242b204b8fb74cb10f0e6b01
凯亚咖啡,39.937253,116.43892,朝阳门北大街3-7号五矿广场1层,f8ca769c7c15b229f503b894,,1,f8ca769c7c15b229f503b894
rui咖啡,39.956966,116.429057,东滨河路乙1号航星园1号楼东侧,,,1,7c5a28897640a107f21937c2
漫猫咖啡,39.966401,116.468849,霞光里30号院17号楼,,,1,89f9bfa2a403e3250b1cc712
Coffee Tea,39.95953,116.475254,朝阳区天泽路与安家楼路交叉口东50米,6ea403de3b67ffd03b221c40,,1,6ea403de3b67ffd03b221c40
莱杯咖啡,39.953662,116.456018,新源西里中街12号泰德商务大厦5层,,,1,f072efa33b79cb5a9ff77950
享,39.938211,116.460715,工体北路8号三里屯SOHO商场3号楼B1楼301室,93df0dc376b02332882fb51f,(010)85900709,1,93df0dc376b02332882fb51f
安利体验馆咖啡厅,39.938438,116.465517,北京市朝阳区团结湖盈科中心一层,,,1,8c578d3b85d31eee1911d539
9.9,39.932984,116.451631,北京市朝阳区工体南路北北60米,,,1,03cc99f56d0f90344251c097
关关雎鸠Cafe&Bar,39.9532,116.4581,北京市朝阳区新源南路10号楼底商(福满园与正月初二面馆之间),,,1,51c4f57f5aee6f400b1cc745
素生活·德南咖啡,39.951521,116.471113,亮马河大厦2座11层,,,1,abd56a64804eb549b8bd6339
鹏润咖啡厅,39.9715,116.478633,北京市朝阳区霄云路8号,d06c09d5643acc9f1d580035,,1,d06c09d5643acc9f1d580035
WEIS COFFEE,39.946156,116.441728,东直门外大街东方银座1幢1层08室,159d6c66e9e3cb25c056acb3,(010)58173565,1,159d6c66e9e3cb25c056acb3
JAMAICABLUE咖啡店,39.93748,116.491881,公园南路6号院4-3号,,,1,8e7d599579bd4b9f0869d975
诺富特三元酒店-咖啡厅,39.966943,116.461988,曙光西里甲5号18座,0e76e046502af3f91fe9996c,"(010)58296666,(010)58667000",1,0e76e046502af3f91fe9996c
麦咖啡(凯德MALL太阳宫店),39.977483,116.454289,太阳宫中路12号凯德MALL购物中心1楼,,,1,a902a2b430ad6b6849fd3f1a
瑞品齐饮(凤凰商街店),39.968924,116.461024,北京市朝阳区凤凰商街N20,a21a01258b8c480cd81318c5,(010)58667795,1,a21a01258b8c480cd81318c5
咖啦咖啦27号,39.937985,116.473434,团结湖路5,0990e1e67757065e49fc8de4,,1,0990e1e67757065e49fc8de4
FEEL CAFE(亮马桥店),39.957837,116.479886,亮马桥路40号21世纪饭店1楼,1bf85b25dd4f42bda0a934f3,,1,1bf85b25dd4f42bda0a934f3
托斯卡咖啡,39.940264,116.478774,北京市朝阳区朝阳公园19号佳隆国际大厦B座1楼,06868440bd32a83f1fe99930,(010)65398077,1,06868440bd32a83f1fe99930
雍景台酒店-咖啡厅,39.950102,116.452957,东直门外小街2号雍景台酒店大堂,5434f95854f1a26cc8213d21,(010)84478855,1,5434f95854f1a26cc8213d21
青蓝大厦-大堂吧,39.93917,116.435808,北京市东城区东四十条24号青蓝大厦1层,6012bf7faf98659af5c59c41,,1,6012bf7faf98659af5c59c41
咖啡厅便利店,39.961071,116.439617,东土城路12号怡和阳光大厦C座一层,dae6bca654456bd58f55ec51,,1,dae6bca654456bd58f55ec51
雅志咖啡,39.934944,116.467033,东三环北路19号中青大厦1层,773f63835e748b8bd92f2872,(010)65088119,1,773f63835e748b8bd92f2872
北京中航泊悦酒店-大堂雅苑,39.962667,116.470188,北京市朝阳区霄云路36号北京中航泊悦酒店1楼,b8df1b539660cae3b35c6a7a,,1,b8df1b539660cae3b35c6a7a
CAFFEBENE(四元桥家乐福店),39.983272,116.470213,北京市朝阳区阜通东大街宜居西路,dc8ca40d15862f72471a3229,,1,dc8ca40d15862f72471a3229
威奥思咖啡礼品,39.959472,116.452588,左家庄三区9号楼广宸商务楼,1b888719e96509b9b5f42ffe,,1,1b888719e96509b9b5f42ffe
成龙咖啡,39.943376,116.456136,朝外街道幸福二村40号耀莱中心B1层,34b3b6aebf4388b66fa3cc52,,1,34b3b6aebf4388b66fa3cc52
I Coffee(富华大厦北路),39.937112,116.442596,北京市东城区朝阳门北大街8号富华大厦F座,42afa85cb391cd0a60180967,,1,42afa85cb391cd0a60180967
东海咖啡蛋白饮,39.938438,116.465517,北京市朝阳区工人体育场北路团结湖盈科中心一楼,,18311382198,1,fcd8daa42c06a3876b49f326
妈喜朗咖啡厅,39.96188,116.469586,东方东路霄云路38号(现代汽车大厦B1层),,,1,422608deb760fc1d1029353d
利百加咖啡(东方银座店),39.945516,116.44163,东直门外大街48号东方银座写字楼高区1层,,(010)84549388,1,4b5ab08aa4baf0a846e274bf
爱科咖啡,39.932389,116.462122,白家庄路6号东长安商务酒店一层,69486feb7045a1452efaa772,,1,69486feb7045a1452efaa772
信咖啡,39.953156,116.460642,左家庄新源南路6号京城大厦地下一层,,,1,c6849343bbe137356f3e1bea
运营小咖秀,39.954126,116.427866,北京市东城区青龙胡同16号,,,1,eeb8c2ddb755a34ff4e73b07
健咖(太阳宫店),39.978677,116.455158,太阳宫南街43号万方景轩甲6号4单元203室,,(010)84625590,1,a3b1ec13e0d897bfecdfcabe
艾蕾咖啡,39.952104,116.454027,北京市朝阳区新东路12号附近,,,1,67d9f80daf35dda4a7da39e2
凡仕,39.964397,116.472172,北京市朝阳区网信大厦A座一层东南门,,,1,76e497ea219f734ba20464c9
Xbar&Wcoffee,39.933704,116.462652,北京市朝阳区南三里屯路16号泰悦豪庭3楼,,18310738702,1,c329bf5c3764b285430245d8
沁园咖啡厅,39.98372,116.485975,酒仙桥街道将台路6号丽都维景酒店餐饮部,,,1,2890384916e0d365a21de959
高乐雅咖啡(冠捷大厦店),39.976015,116.452652,北京市朝阳区太阳宫中路16号院1号楼1至2层102内一层3单元,,,1,1ab0136b8344f54082288a92
FEEL CAFE咖啡厅,39.956693,116.480797,朝阳区亮马桥路甲40号21世纪大厦一层,324083dc1c82d5dded74f891,,1,324083dc1c82d5dded74f891
Bracket Coffee(鹏润大厦店),39.965039,116.473241,北京市朝阳区霄云路26号,,,1,199b9303d5146098aeb22a7e
夜咖啡,39.93657,116.491603,姚家园路与甜水园东街交叉口东南100米,,13901196514,1,f548b24366f75417eb12e449
香榭岛咖啡厅,39.985176,116.483079,京顺路99号大雨澳斯特酒店,,,1,aedda4e3ccae71b407026f96
Strabourgcafe,39.966695,116.473258,宵云路东来顺旁,,,1,66c0480ae5f137d804fef50c
MASCA CAFE,39.934295,116.465791,北京市朝阳区白家庄路1-11附近,db76d4ada9bbbce6f7e73b54,,1,db76d4ada9bbbce6f7e73b54
Gaffe Pascucci,39.942724,116.461431,三里屯3-3服装大厦一层,,,1,cf9d3c22d65c61c1dc1e521e
Nasca Cafe(新源南路),39.955458,116.466585,新源南路1号都汇天地购物中心B1层B13A-D,,,1,2d71927625d3769d5fbe86d1
Green Tea,39.968455,116.464152,北京市朝阳区三元桥曙光西里甲5号凤凰汇购物中心B1楼,fab51f7f169a76c922026201,(010)56383009,1,fab51f7f169a76c922026201
HUB咖啡厅,39.962121,116.464944,北京市朝阳区霞光里18号佳程广场一层,,,1,b0a00dfaa16cec6976e5b6ad
CAKE AND COFFEE,39.966684,116.473421,北京市朝阳区霄云路15-12号附近,,,1,d1f62d6319938b15b9df8fc9
GIOria Jeans coffees,39.937722,116.461644,北京市朝阳区南三里屯路4号楼,e8f504e7a0daab4391114ccc,,1,e8f504e7a0daab4391114ccc
拾陆研咖啡,39.931823,116.457578,北京市朝阳区工人体育场东路16号,,,1,d8981fe476a7a259e5e965fb
澳菲尔咖啡,39.933116,116.442187,北京市朝阳区朝阳门北大街16号,,,1,2195a865b3c762852d4733aa
漫咖啡(朝阳大悦城店),39.935111,116.521679,朝阳区青年路29号院20号楼,6a605f5604e4fa60d4851fc4,(010)58777521,1,6a605f5604e4fa60d4851fc4
漫咖啡(将府公园店),39.979484,116.517225,北京市朝阳区将府公园北门,72aa25132d9e7c5e067ce8a1,(010)84311899,1,72aa25132d9e7c5e067ce8a1
BunnyDrop白兔糖咖啡(观湖店),39.9457,116.501043,北京市朝阳区东四环北路88号院甲1号楼2层营业厅2号,9bed8e7861207144ab059df8,"18201676256,18701076670",1,7231d39963419de59222e00e
单太太绿牛咖啡,39.968316,116.507798,酒仙桥三街坊13号楼旁侧院(近酒仙桥便民服务中心),a00881a69a239cdada2f2870,,1,a00881a69a239cdada2f2870
Chaplin Bar Kitchen,39.935952,116.507961,北京市朝阳区八里庄北里129号院10号楼1层10-7号,4920284a58817dde8bdb7323,(010)85846880,1,4920284a58817dde8bdb7323
漫咖啡(石佛营店),39.935869,116.507959,北京市朝阳区石佛营路八里庄北里129号院10-101号底商,e259ebd9bf02fdf9d3ff239e,(010)57722722,1,e259ebd9bf02fdf9d3ff239e
星巴克(北京颐堤港中心店),39.976471,116.498595,朝阳区酒仙桥路18号颐堤港商场L1-72号,8291ba6465d8f73bc1f1cf85,(010)84260986,1,8291ba6465d8f73bc1f1cf85
言Yan Booksand Coffee,39.932367,116.521016,"青年路润枫水尚东区8号楼05,03号底商(润丰中学东侧和朝阳大悦城西北侧)",3c2b4234bf6369d89f95de3b,15311819415,1,3c2b4234bf6369d89f95de3b
太平洋咖啡(恒通商务园店),39.983955,116.499244,酒仙桥路10号25号楼B12C座104室,36c625a6011f6dc5220262aa,(010)64320825,1,36c625a6011f6dc5220262aa
赵州茶馆,39.976955,116.495032,将台西路19号(近酒仙桥路),08f1f1f5177dacd388db7303,(010)64327088,1,08f1f1f5177dacd388db7303
盛汇cafe,39.964196,116.505778,北京市朝阳区燕莎后小区2-7号,1831fa24b05fc3522ad7ab07,(010)84502326,1,1831fa24b05fc3522ad7ab07
VCOFFEE(酒仙桥店),39.97247,116.497411,酒仙桥路26号院晶都国际1号楼底商(颐堤港南500米),4a8d66158af3188db6f42f7a,15201189980,1,4a8d66158af3188db6f42f7a
星河湾四季会酒店-四季咖啡厅,39.932523,116.532788,北京市朝阳区朝阳北路四季星河路6号星河湾酒店四季咖啡厅,6462756f283290de734b87c2,(010)85529988,1,e4dc6570e5f278ed5abbbc98
Selfcafe(酒仙桥店),39.966426,116.502802,北京市朝阳区酒仙桥路52号院东方科技园1B座113室,1458dfd74c0b203aa2a9345f,18515062367,1,1458dfd74c0b203aa2a9345f
BeijingRose Cafe,39.943641,116.552328,平房乡平房东口京城梨园内1号院B座1217号,519d06f191341c7af8dc8570,,1,519d06f191341c7af8dc8570
inner cafe,39.935,116.521864,青年路29号院22号楼1层22-2,ccaa8a17abaca36b16a190d2,(010)59294655,1,ccaa8a17abaca36b16a190d2
星巴克(金隅嘉品店),39.957472,116.554281,朝阳区东坝中路38号金隅嘉品1层,8691a70dcf79245a364aae09,(010)65430512,1,8691a70dcf79245a364aae09
Domain,39.975053,116.498539,北京市朝阳区酒仙桥路22号东隅酒店2层,d2d570e4ad310ec1d7851ff7,(010)84149830,1,d2d570e4ad310ec1d7851ff7
咖啡公园(兆维华灯大厦店),39.978625,116.497625,酒仙桥路14号兆维华灯大厦斯伦贝谢中国公司,a4e30acca635ffb31ff74d9d,(010)56128701,1,a4e30acca635ffb31ff74d9d
山下c5咖啡,39.939264,116.5418,北京市朝阳区姚家园南路1号惠通时代广场7号楼K区一层,,,1,1d46ba44b7c594ec5a3ac8d8
瑞幸咖啡(先锋金融大厦店),39.981597,116.500159,北京市朝阳区酒仙桥中路24号院4号楼先锋金融大厦1层,,18519816183,1,18940ebe9ee1dee3cac3db74
将台艺宫咖啡厅,39.976841,116.495864,北京市朝阳区酒仙桥路甲12号将台艺宫酒店1楼,06d21f1d2ef496f90f0a70c8,(010)64345588,1,06d21f1d2ef496f90f0a70c8
瑞幸咖啡(青北大厦店),39.955473,116.523112,朝阳区青年北路姚家园西里青北大厦大堂内,,,1,04282814fed1406cabf72957
途尚咖啡(颐堤港店),39.976086,116.497975,北京市朝阳区酒仙桥路18号颐堤港购物中心4楼A01号,97a5e0dce8c00e510b1cc712,(010)84260439,1,97a5e0dce8c00e510b1cc712
武汉热干面(颐堤港店),39.976556,116.497308,酒仙桥路18号颐堤港3层,f83923abbf6f3e39f4eafc3c,,1,f83923abbf6f3e39f4eafc3c
naturalcafe,39.971101,116.492483,北京市朝阳区东四环北路6号阳光上东27号楼一层120,f4b82a1b2bbaf0736f3e1bf1,,1,f4b82a1b2bbaf0736f3e1bf1
瑞幸咖啡(达美中心店),39.943538,116.522617,朝阳区青年路7号院达美中心1号楼1层103A室,306ccbc3799bca773fe231e8,4006692002,1,306ccbc3799bca773fe231e8
CAFEPIANO,39.93358,116.51711,北京市朝阳区青年路5号附近,,,1,8b5ca11a4df063c13b04b189
Elephoto Coffee,39.974033,116.52568,酒仙桥半截塔路55号七棵树创意园A8-8,,,1,ba4852bf7feea0d507026f3e
偶然咖啡,39.972124,116.494001,北京市朝阳区东风镇阳光上东31号楼110,,,1,6881b1de6dfd8e6c07fef5b8
Mccafe,39.975663,116.497379,北京市朝阳区酒仙桥路１８号颐堤港购物广场3层,fb95804c14d9c6f857bffff7,,1,fb95804c14d9c6f857bffff7
899创新空间,39.961139,116.510946,东风南路898号,,,1,36a8f2a79e2edffc48cc4a93
旅行的雨晴Cafe,39.986914,116.50535,万红路751南门陈音乐玩家空间院内,,,1,cb8891c7d74b7d3a441a3244
维思克.咖啡,39.977655,116.497238,酒仙桥路甲16号新港商城b座,,,1,d92f4d91a7b22ec786420ee4
Be cute coffee,39.931899,116.546606,北京市朝阳区大黄庄35号五环内19幢E座平房105号,,,1,ca97071155a394adc909f0b2
漫咖啡(万象新天店),39.935498,116.605532,北京市朝阳区常惠路3号楼,03b24f868925c5e0f7231099,(010)65708869,1,03b24f868925c5e0f7231099
山有花啡餐厅(常营总店),39.93472,116.605804,常营乡常惠路7号101-—102(常营万象新天2期东门),c133a56c54d9cff6a2046439,(010)57394010,1,c133a56c54d9cff6a2046439
COSTA COFFEE(北京华联常营购物中心店),39.932063,116.604848,北京市朝阳区朝阳北路17号北京华联常营购物中心F1,d1b6295dc5f42c0ad4851f83,(010)56857315,1,d1b6295dc5f42c0ad4851f83
luckincoffee(北辰福第V中心店),39.93317,116.607059,朝阳区常惠路6号楼1层104号北辰福第V中心D座,,4000100100,1,99a503774487146c75e5b6d0
陪你咖啡,39.931986,116.605652,北京市朝阳区朝阳北路17号BHGMall(华联常营购物中心)1层,db935b6f68ff412b32870a10,,1,db935b6f68ff412b32870a10
tree coffee,39.952512,116.55876,北京市朝阳区东坝富东嘉园5号楼一层,94a2ac3c08da1989a11de98e,18683720935,1,94a2ac3c08da1989a11de98e
CISTA COFFEE,39.932079,116.604848,朝阳区朝阳北路17号BHGMall北京华联常营购物中心1层05号,,,1,6b46d3fe926b3206931fc924
星巴克(奥村店),40.015357,116.387987,朝阳区林萃东路2号2号院甲3号楼一层F106区域,b0415bb4821fa703c5effbbd,(010)84377378,1,b0415bb4821fa703c5effbbd
星巴克(北辰西路店),40.005453,116.394409,朝阳区北辰西路8号3号楼B座北辰世纪中心首层109单元,d7fd2ad361f9864d0accdd82,(010)84370795,1,d7fd2ad361f9864d0accdd82
星巴克(飘亮阳光广场店),40.004254,116.415907,朝阳区安立路68号飘亮广场1层,3434860cb90f38f3a20464aa,(010)59856181,1,3434860cb90f38f3a20464aa
星巴克(北辰东路第三店),39.997947,116.413122,朝阳区北辰东路8号,7a30d8533e79e2f1a9f7298f,(010)84971720,1,7a30d8533e79e2f1a9f7298f
星巴克(北京天畅园店),40.039459,116.422411,朝阳区北苑路34号天畅园7号楼1层108号,a43f5cf928efc2a9270bd0e2,(010)84828823,1,a43f5cf928efc2a9270bd0e2
俪安下午茶,39.99874,116.409519,朝阳区北辰东路8号汇园公寓Q座109,1738bc2eeb811367306212de,(010)84988813,1,1738bc2eeb811367306212de
苗祖咖啡,40.008613,116.412695,北京市朝阳区慧忠里103号楼一层洛克时代A座,a6b891d1c5fd452d7fc87641,"(010)83050555,13488814241",1,a6b891d1c5fd452d7fc87641
STARBUCKS北京北辰东路第二咖啡店,39.997044,116.412832,朝阳区北辰东路8号16号楼一层101单元,,(010)84978072,1,28b0b115d2d614748a2fb579
Luckin Coffee 瑞幸咖啡,39.996836,116.368582,学院路30号北京科技大学体育馆二楼北侧,,,1,f12e19e21bde965a102935de
上岛咖啡(汇园公寓店),39.998646,116.408649,北京市朝阳区北辰东路8号汇园公寓P座裙房,44207646e3814b72deee8b54,(010)64994842,1,44207646e3814b72deee8b54
COSTA COFFEE(盘古大观店),39.995524,116.393463,北四环中路27号盘古大观写字楼(近北辰西路),00586108b80f98bc47e27499,(010)59393112,1,00586108b80f98bc47e27499
太平洋咖啡(北医三院店),39.988973,116.366536,花园北路49号北医三院外科二病区内一楼,a5332bbe2e9089e8c7f50da7,(010)82267850,1,a5332bbe2e9089e8c7f50da7
北京·指纹主题咖啡屋,40.016294,116.379042,北京市朝阳区林萃西里16号华创生活广场F2,,(010)57761969,1,289c8f480cdc962343afe61f
酷云咖啡(北科大店),39.996005,116.364155,北京市海淀区科技大学图书馆106室(近学院桥),af98c92aad2503c8d6b74e69,13121078797,1,af98c92aad2503c8d6b74e69
摆渡人咖啡厅,40.042799,116.379364,黑泉路8号一幢康健宝盛广场B座一层102-103,,18910803358,1,696d3157ba6bd502c17da249
青停咖啡,40.018537,116.418606,紫玉东路一号紫玉山庄,7c5d4fbd756a9cc00a5cb348,,1,7c5d4fbd756a9cc00a5cb348
道一茶楼(安翔里店),40.000111,116.386919,安翔里22号楼华盛乐章B座底商(健翔桥北),083a55fa883de260256e9886,(010)64830174,1,083a55fa883de260256e9886
北五环咖啡,39.99994,116.397534,天辰东路11号国家游泳中心北二层,c3ea22b28de617cf1ef74d3f,(010)84153091,1,c3ea22b28de617cf1ef74d3f
上岛咖啡(奥运公园店),40.014198,116.414848,安立路56号院九台2000家园2号楼1层,7bfa08fc528e396624d2bbab,(010)84802721,1,7bfa08fc528e396624d2bbab
beymous coffee,40.008385,116.424624,北京市朝阳区北苑路82号(时腾商务酒店二层),3e66547e2a4ecfd14302451c,"18911005593,13552602867",1,3e66547e2a4ecfd14302451c
北e咖啡(北医店),39.988296,116.372631,花园路街道花园北路35号健康智谷大厦1层102室,c4de2cf6fc0705dfc61e51ae,(010)62017212,1,c4de2cf6fc0705dfc61e51ae
阿什卡咖啡馆(北沙滩塔里木石油酒店),40.012118,116.376175,北京市朝阳区北沙滩五号院塔里木石油酒店阳光大堂(胜利饭店),f92dcc03536bdbcc41afe6bf,"18600360234,(010)64870033",1,f92dcc03536bdbcc41afe6bf
盘古七星酒店咖啡厅,40.000041,116.393253,北京朝阳区北四环中路27号盘古七星酒店1楼,e93761f65363cd15223bf267,(010)59067777,1,e93761f65363cd15223bf267
星巴克(湖景东路店),40.006411,116.400525,朝阳区湖景东路9-11号新奥购物中心地下一层B1-101号,,(010)84376352,1,c973e038c78687da1c389448
鹿苑咖啡厅,39.991203,116.416809,安苑北里25号长白山国际酒店1层,ab26dcc75c6e524515c905e7,(010)64916677,1,15a93810b62fcea415c8f6a6
Sunny Cafe,40.007129,116.378203,北京朝阳区大屯路甲1号亚奥国际酒店1层,03142b5850b8ccf3eddfca88,(010)64874433-8751,1,03142b5850b8ccf3eddfca88
五洲咖啡厅,39.995725,116.410634,北辰东路8号五洲大酒店1楼,e3e2cd9d05d836fac6f50df7,(010)84985588,1,e3e2cd9d05d836fac6f50df7
camardo卡玛多安立路咖啡店,39.995378,116.419419,北京市朝阳区北四环东路五矿大厦1层,53edd59defa20813744ff18d,(010)58603655,1,53edd59defa20813744ff18d
Since The Zero 零起,40.006711,116.394366,北辰世纪中心A座一层,,18310603947,1,23887ea200185ecb6f3e1b64
uneed轻食(亚运村店),40.003857,116.425304,北苑路170号凯旋城E座1层109(幸福超市北门内),,18310294291,1,1efb4eb138d5f69fe0110344
西藏大厦-咖啡厅,39.994257,116.420289,北四环东路118号西藏大厦A座2层,4bcd4b178d43f1b0c9c3db17,(010)64981133,1,4bcd4b178d43f1b0c9c3db17
途尚咖啡(奥林匹克公园店),40.005223,116.403165,湖景东路11号新奥广场地下一层CGV星星影城内,7c5e480b169761adacb22ab1,(010)84370086,1,7c5e480b169761adacb22ab1
龙山水茶艺,40.01468,116.413914,亚运村慧忠里104号楼,4fc3161a898a3eb03b13fda0,(010)64865674,1,4fc3161a898a3eb03b13fda0
唯舞道·叶燕盏燕窝咖啡吧,40.003876,116.425432,凯旋城e座12层唯舞道,,(010)58235258,1,f4542d092c07a739213bf281
凯迪克格兰云天大酒店咖啡厅,39.999256,116.406649,北辰东路18号凯迪克格兰云天大酒店内(近国家体育场),03632277a0d163dcee74f8f5,"(010)84809198,(010)84971188",1,03632277a0d163dcee74f8f5
UniverCity Coffee(北大医学部店),39.991487,116.368381,北京市海淀区学院路38号北京大学医学部院内(物美生活超市一层),,13801019380,1,82e96860926336b8b75f1ed3
国家会议中心大酒店-咖啡厅,40.007899,116.394458,北辰西路8号院1号楼国家会议中心大酒店2层,fe635e04eb760e711e5800c1,(010)84372008,1,fe635e04eb760e711e5800c1
Coffee,40.044002,116.423394,北京市朝阳区双营路,e49fb236053cdc6358109322,,1,e49fb236053cdc6358109322
麦咖啡(民族园餐厅),39.988576,116.396778,民族园路1号一二层,,(010)82857940,1,6be1822727357a281e1d1195
知源咖啡,40.009298,116.41212,北京市朝阳区亚运村天创世缘第五大道茶城219-18,,,1,b1c382d8f213760aafee7a52
全时咖啡,39.994445,116.421742,北京市朝阳区北四环东路116号楼1层102内2室,,(010)64893796,1,cb69cd8440ac7989b4265534
luckincoffee(北科大鸿博园店),39.994688,116.364063,海淀区学院路30号北京科技大学校鸿博园内,,,1,c9ca0fb109118719167643aa
M&V COFFEE,40.001624,116.415983,慧忠路49号附近,,,1,df23173ae9a962fa17c8f6dd
国家会议中心-咖啡美点,40.005287,116.39734,天辰东路7号,39d40397ad612118364aae0c,(010)84373300,1,39d40397ad612118364aae0c
luckincoffee(北科大逸夫楼店),39.997555,116.363434,海淀区学院路30号北京科技大学逸夫楼内,,4000100100,1,d62914f18f3562c195ca07a7
阳光咖啡厅,40.007139,116.378166,朝阳区大屯路甲一号亚奥国际酒店,6b899521855f5a8d49fc8d42,(010)64874433,1,6b899521855f5a8d49fc8d42
U咖啡,40.007756,116.39438,北京市朝阳区北辰西路8号院1号楼国家会议中心大酒店2楼,d52831f9878d8cbe2efaa766,(010)84372008,1,d52831f9878d8cbe2efaa766
肯德基外送现磨咖啡馆(六里桥南路店),40.03922,116.425628,北京市朝阳区北苑路42附近,36d26655fefd956190114c38,,1,36d26655fefd956190114c38
吾时(华创生活广场店),40.016254,116.379553,北京市朝阳区林萃西里16号华创生活广场F1,,15810259619,1,2d52968d14e59193bea240e1
LA PORTE CAFE,40.015982,116.416675,科荟路附近,866d600f12561aeb62685817,,1,866d600f12561aeb62685817
桔子精品咖啡厅,40.004481,116.370222,志新西路3-1号桔子酒店内,,,1,b16de43829cd9126ab175ad9
方恒假日酒店-大堂吧,39.99571,116.487753,北京朝阳区阜通东大街6号院3号楼方恒国际A座方恒假日酒店1楼(近首都国际机场),47a55c5ec5c379b231870ac1,(010)64733333,1,47a55c5ec5c379b231870ac1
TStar coffee,40.011166,116.477403,望京西园河荫中路3号一层,80526ac6540a1c3a3913fd28,(010)64717871,1,80526ac6540a1c3a3913fd28
星巴克咖啡(惠新东街咖啡店),39.993372,116.430879,朝阳区惠新东街4号3号楼1层101单元,7fce2cff8cf6069516c9056e,(010)84298776,1,7fce2cff8cf6069516c9056e
花舍咖啡厅,39.991013,116.475093,"北京市朝阳区望花路与花家地街十字路口东南角,花家地一号楼",b388f9fd9206bd58b35c6a57,(010)64750699,1,b388f9fd9206bd58b35c6a57
雕刻时光咖啡馆(麒麟社店),40.003496,116.483604,阜通西大街合生麒麟社新天地10号楼10-9号,8c3ec26422a21f96725e8026,(010)57389693,1,8c3ec26422a21f96725e8026
星巴克(望京凯德店),39.99868,116.475552,朝阳区广顺北大街33号凯德MALL望京L1层01-28号,afa4c5e2151049cd25e0a076,(010)64716432,1,afa4c5e2151049cd25e0a076
么么咖啡(望承公园店),40.001357,116.458317,北京市朝阳区望京南湖西路望承公园北门220号2号楼二层(近地铁望京西站),e93761f65453c415223bf217,(010)64139511,1,e93761f65453c415223bf217
么么咖啡(小营路店),40.000689,116.43045,北京市朝阳区小营路9号亚运豪庭一层,c61bd305717b0d71c27da254,(010)64940614,1,c61bd305717b0d71c27da254
星巴克(阜通东大街店),39.995523,116.48752,阜通东大街6号院3号楼1层1-101号,6424ab445ac2307c7069d398,(010)84785712,1,6424ab445ac2307c7069d398
星巴克(望京诚盈中心店),40.026667,116.472621,朝阳区来广营西路诚盈中心3号楼1层,04137a57f32b15c771210bdf,(010)85926771,1,04137a57f32b15c771210bdf
星巴克(阜通东大街二店),40.002821,116.486685,朝阳区阜通东大街1号院望京SOHO6号楼1层,dbad7f628a1a9d8480a00c8e,(010)64759183,1,dbad7f628a1a9d8480a00c8e
帝星咖啡,40.01104,116.477571,北京市朝阳区广顺北大街河荫中路2号附近,,,1,0c41ee4468de3b51e6e96523
星巴克(北四环东路店),39.996418,116.439195,朝阳区北四环东路73号远洋未来广场1层31单元,,(010)84445652,1,8884c6111088e72be6e9652b
星巴克(亚运村华堂店),39.994315,116.4276,朝阳区北四环东路108号千鹤家园5号楼1层F1-1001单元,,(010)84860275,1,d3954bf22c9a4c91283a9f54
星巴克(望京鹏景阁店),40.003414,116.473765,朝阳区望京湖光中街1号鹏景阁首层,fd007c5e7b4b1075a9f729b8,(010)84724218,1,fd007c5e7b4b1075a9f729b8
窝边草咖啡(望京店),40.003243,116.48416,望京阜通大街11号麒麟新天地1楼BF104室,09e159ec667e1fe25cd4feee,(010)57389218,1,09e159ec667e1fe25cd4feee
星巴克(望京店),39.992766,116.486359,朝阳区广顺南大街16号1号楼北京新世界利莹百货首层,d219bb1dc580b492f50e7757,(010)84764786,1,d219bb1dc580b492f50e7757
星巴克(望京西路店),39.999993,116.463339,朝阳区望京西路41号梦秀商场地上一层,8bbd28bf47b9dcfe89b9887d,(010)84164307,1,8bbd28bf47b9dcfe89b9887d
唯渡咖啡厅,40.042548,116.447649,朝阳区北苑东路山水蓝维东门,288b24211bd911248bf15d1d,(010)84908341,1,288b24211bd911248bf15d1d
卡贝拉素咖啡厅,39.989705,116.437983,朝阳区芍药居北里315-22号,fa7da3e87279017b42d63e57,(010)84640175,1,fa7da3e87279017b42d63e57
漫猫咖啡屋,40.002275,116.48838,望京SOHOT1-1119号,9358674f4b7cf874a1a934ef,(010)57076927,1,9358674f4b7cf874a1a934ef
意盏茶楼,40.000784,116.475444,广顺北大街辅路望京四区424号楼2楼,,(010)64737088,1,10ec1ba3e1472479ad045717
luckincoffee(望京SOHO店),40.002866,116.486546,北京市朝阳区阜通东大街1号院6号楼望京sohoT2B座1层2126室,,4000100100,1,05dceabfa95ad6684007c147
COSTA COFFEE(北京住总大厦店),39.994384,116.432011,北京市朝阳区惠新东街甲2号住总地产大厦一层大堂东侧,3ca2aff19ce35b449d95de7b,(010)84742332,1,3ca2aff19ce35b449d95de7b
DE PLUS COFFEE(望京SOHO店),40.002122,116.488701,北京市朝阳区望京SOHO塔一2层1209,,(010)64796551,1,c21a3477bd232094ebe582a5
星巴克(麒麟社店),40.00253,116.484298,朝阳区望京街4号,,(010)57389233,1,d2af269bfbb2b84b28201a5a
波莫娜(新荟城购物中心店),40.004268,116.488516,北京市朝阳区望京东园一区120号新荟城购物中心1层,78c1bb558fc821ac38221c8f,"(010)53269670,(010)53269631",1,78c1bb558fc821ac38221c8f
星巴克（北京阜安路咖啡店）,40.004444,116.488881,北京市朝阳区望京东园一区120号新荟城F1,21504111e69c3b312fb96d68,(010)52896102,1,21504111e69c3b312fb96d68
有待咖啡,40.003798,116.483506,北京市朝阳区阜通西大街10号麒麟社B1,,13001392085,1,d151d03ee31f212c14c8f6e6
ZOO COFEE,39.995974,116.4911,北京市朝阳区望京街9号望京国际商业中心2层,d878d1ef205eba3378f796fe,,1,d878d1ef205eba3378f796fe
帝维希DVCcafe,40.028455,116.46106,来广营西路1号院后院,4400e8179579883bad31e5cb,,1,4400e8179579883bad31e5cb
MANNCOFFEE,40.00628,116.485714,宏泰东街与阜安西路交叉口南200米,e380b50bbc18e14e6cc02cea,,1,e380b50bbc18e14e6cc02cea
TOM N TOMS COFFEE(望京SOHO店),40.002189,116.486729,朝阳区望京SOHO中心T3-3103,,(010)64788912,1,dc320899426e88ed343a7160
28号COFFEE,40.001629,116.490911,北京市朝阳区阜通东大街望京东园513号楼28号2层,9bd79a100c1f750b1b11d5ce,(010)53658486,1,9bd79a100c1f750b1b11d5ce
星巴克(望京华彩店),40.016736,116.475098,朝阳区广顺北大街16号3号楼望京华彩商业中心一层A150单元,d5ff20b9ff655a70373a7198,(010)59780037,1,d5ff20b9ff655a70373a7198
中央美术学院-新美术馆咖啡厅,39.990164,116.471746,北京朝阳区花家地南街8号中央美术学院新美术馆B1楼,8d96925c02a3e75cc1f1cf0c,,1,8d96925c02a3e75cc1f1cf0c
吉春五月茶楼,40.007712,116.469135,南湖北路南湖中园130号2楼,a5ef680f224dddceb8df8fae,(010)64749315,1,a5ef680f224dddceb8df8fae
luckincoffee(宝能中心店),39.993947,116.485393,朝阳区阜通东大街12号楼1层101室,,4000100100,1,e29d63920c4d4bbc1e1d119e
Coffee Box(望京店),39.997768,116.479264,朝阳区东亚望京401号楼C座104室,b1dac4466cf702c328d7ab14,,1,b1dac4466cf702c328d7ab14
蓝色早晨咖啡厅(居然之家店),39.996546,116.442753,北四环东路65号居然之家5号馆1层10号,5813a14c9246e27c5cd4fed6,,1,5813a14c9246e27c5cd4fed6
乐滋妈妈(望京店),39.996125,116.490074,北京市朝阳区望京街9号望京国际商业中心A座2层,62fea392dc4f044f1ef74d20,(010)59035603,1,62fea392dc4f044f1ef74d20
瑞幸咖啡(东煌大厦店),39.991945,116.487955,北京市朝阳区望京街道索尼大厦一层瑞辛咖啡,,,1,57a65bc1d5d0f880601c6750
v coffee,40.002525,116.488082,望京SOHOT11层底商1116,cd70b142ec30b16eadcb6696,,1,cd70b142ec30b16eadcb6696
luckincoffee(东亚望京中心店),39.997821,116.479247,朝阳区广顺南大街望京园401号楼1层111室,,"4000100100,18618203032",1,f37bc07a2168296a0482c25f
咖啡丽奥,40.002486,116.471024,北京市朝阳区望京湖光中街甲6号望京港旅大厦B1层,051cbff2b0e702e535b06c29,,1,051cbff2b0e702e535b06c29
Metal Hands(望京店),40.002121,116.490785,北京市朝阳区望京融科橄榄城三期底商515号楼13-07,2e681bd38aedf098e5e965db,,1,2e681bd38aedf098e5e965db
树屋咖啡(望京店),40.004146,116.489874,融科望京中心A座一层,5125be6f60e3a45c79b55cc4,,1,5125be6f60e3a45c79b55cc4
融创空间创客咖啡厅,40.02358,116.472806,来广营广顺北大街5号融创动力产业园区b座,0bd39bcab86e576dc26c1489,18519395533,1,0bd39bcab86e576dc26c1489
燃咖啡Incendia cafe,40.004671,116.48474,北京市朝阳区望京西园三区314楼B座2单元102室,99623fcb02700405f82d6198,15601317208,1,99623fcb02700405f82d6198
逸休咖啡,39.992872,116.437811,北京朝阳区育慧南路320-15(近文学馆路),05dd7d5f2f414c18ac080fad,(010)84616760,1,05dd7d5f2f414c18ac080fad
凤凰禧咖啡(芍药居北里店),39.991445,116.437837,北京市朝阳区芍药居北里317号楼-1~1层5单元317-3(一层部分),fd61cd28ef8a3bdd9f09f765,(010)65617170,1,fd61cd28ef8a3bdd9f09f765
NancyCoffee,40.026994,116.47159,北京市朝阳区来广营西路望京诚盈中心下沉广场地下一层B116(奥兰环球影城斜对面),19273d3cb4dde70283a00ca7,"18911249056,13911907055",1,19273d3cb4dde70283a00ca7
咖啡公园(福泰中心店),40.001094,116.47305,北京市朝阳区广顺北大街33号院-6,a6a6a6b6784841cd0c0e6b09,15600467712,1,a6a6a6b6784841cd0c0e6b09
菲石咖啡(悠乐汇店),39.995972,116.484767,北京市朝阳区望京园602号楼1层111、112室,8a45fabeebbd0c6be5e965ef,(010)64736399,1,8a45fabeebbd0c6be5e965ef
CATPLANET猫咪咖啡店(合生麒麟新天地),40.002992,116.484539,北京市朝阳区阜安西路11号合生麒麟新天地F1,db02eed7eda10066b0077dfa,,1,db02eed7eda10066b0077dfa
缘点咖啡(六佰本广顺北大街店),40.012548,116.47368,北京市朝阳区广顺北大街19号六佰本商铺南区2层A11,5211d21945790c417dc87657,(010)64715863,1,5211d21945790c417dc87657
HOME Coffee,40.004195,116.4825,北京市朝阳区望京新城3区南门315楼1层来故乡超市,,(010)64722580,1,4a33a0fa039708e5f1193743
咖啡零点吧,40.027777,116.460416,来广营西路9号国创产业园6号楼B门201,c1905d16d4e894bbf4eafc3f,,1,c1905d16d4e894bbf4eafc3f
3WCOFFICE,40.005196,116.485189,望京西园三区312号楼6层,,15117933036,1,0e18915140d6b101471a3295
欧意富盛咖啡厅,39.992381,116.431417,北京市朝阳区惠新东街4号富盛大厦1座,5e8a758fa5ff123d4107c178,(010)84663383,1,5e8a758fa5ff123d4107c178
望京铁锅肥肠,40.011081,116.477886,北京市朝阳区广顺北大街河荫中路3号,0cdf0c9b80e4d6ae9e09f76d,(010)64751261,1,0cdf0c9b80e4d6ae9e09f76d
瑞幸咖啡,40.004021,116.490067,北京市朝阳区阜安路,,,1,763e4042ea00c719a1a93428
DVC咖啡厅,40.028331,116.46071,北京市朝阳区来广营西路1号东方天宇内,,,1,9a38ace03d113866f03cbaaf
luckin coffee瑞幸咖啡(东亚望京中心店),39.997814,116.479234,北京市朝阳区阜安西路东亚望京中心A座1层111,,,1,24681f895b39aa491d1d1104
28号cafe,40.001752,116.490773,北京市朝阳区阜通东大街与阜安东路交叉口香浙汇旁边,9522fb6bfb0405a75abbbcbe,(010)53658486,1,9522fb6bfb0405a75abbbcbe
乐咖啡,40.004826,116.486963,阜通西大街宝星华庭6号楼1-8号底商,08fb437a44ec56ef9df779ab,(010)64139633,1,08fb437a44ec56ef9df779ab
咖啡沙龙,40.002961,116.433372,小营路6号仓库1508室,,,1,c6ce97e0c7ec685fb6f42f1f
咖悠,39.994926,116.484554,北京市朝阳区望京广顺南大街望京悠乐汇A3-125室,,(010)64777368,1,5b7568786b180f4d58109310
PARIS BAGUETTE Cafe(新世界百货望京店),39.992362,116.487195,北京市朝阳区广顺南大街南口望京新世界百货地下一层,fb09c6c2a102339655bfff02,,1,fb09c6c2a102339655bfff02
BLUE MORNING COFFEE,39.995965,116.443244,北京市朝阳区北四环东路65号F2层5-2-01,829e66f0d8ab2ff181a00cea,,1,829e66f0d8ab2ff181a00cea
四平米咖啡(望京店),40.002564,116.484571,望京合生麒麟社1号楼2808室,,,1,ddac813bee96093052e5c538
北苑大酒店-大堂吧,40.043094,116.431903,北京市朝阳区双营路甲6号院,dc8d3ca4a2022354c51b75fd,(010)84932266,1,dc8d3ca4a2022354c51b75fd
MODEL GYM CAFE,40.003676,116.483904,北京市朝阳区阜通西大街辅路,,18601325321,1,4bde763d1e71b0f88afc064b
Coffee Box(望京SOHO店),40.002154,116.486847,北京市朝阳区阜安西路望京SOHO中心T3座3楼3101-3102,,,1,2a277b2e6ef3706579b55c8f
km咖啡,39.996358,116.487757,北京市朝阳区望京阜通东大街方恒国际b座底商102室8km咖啡,,,1,326a3bf782313b33d518b7ee
泰谷万隆咖啡,39.999063,116.443413,朝阳区鼎盛路9号世纪宝鼎A座1202室,d76ab0d520f86f4b2cb17e1b,,1,d76ab0d520f86f4b2cb17e1b
bocoffe,39.995636,116.489405,望京小街与阜荣街交叉口东北150米,,,1,629a3f8e81223fc92202628c
Here&There Cafe,40.001624,116.430485,小营路5号四方大厦底商,,,1,65fcfa3f8a7d0e73c42ba1ad
luckin coffee(凯德MALL.望京),39.998937,116.474901,广顺北大街33号凯德MALL望京L3层,,,1,79a72b71df61fb7dab0dd816
谜巷-虎纹黑糖炭烧茶,39.995838,116.489648,北京市朝阳区望京街9号-a-1-7,,18715997278,1,d6f5755e656221f5d42ce27e
原磨豆浆生活馆(中福百货南湖北路店),40.007449,116.470136,南湖北路201号中福百货B1层,,,1,153386ee745f6da609a8d42c
咖啡会所简餐,40.038607,116.447751,红军营南路17号楼附近,,,1,2e671d7df259e7ac626858da
来电(卡贝拉咖啡),39.989777,116.438091,北京市朝阳区芍药居北里315楼22号,,,1,e1da6bffebb0e81a0bf5eb05
星巴克(酒仙桥路第二店),39.992135,116.498199,北京市朝阳区酒仙桥2号院内11所39号楼,bc6438ba7c64f5e428d7abbf,(010)84303686,1,7b4a56c3e2be1041882fb5a2
VoyageCoffee(798艺术区店),39.988818,116.50253,北京市朝阳区酒仙桥路2号798艺术区七星中街7号,a49f5a08d2b2dfa584154153,18501929206,1,a49f5a08d2b2dfa584154153
那点咖啡,40.004332,116.496202,"北京市朝阳区宏泰东街望京东园七区保利中央公园8号楼8-13,8-14",eae6450f4143b3f2f33cba8d,(010)64750198,1,eae6450f4143b3f2f33cba8d
星巴克(望京东园店),40.00596,116.493462,朝阳区宏泰东街绿地中心c座1层,abae43ec474787adca09f0cc,(010)64701955,1,abae43ec474787adca09f0cc
星巴克(赛特奥特莱斯店),40.042302,116.512066,朝阳区香江北路28号北京赛特奥莱F2层2-023号,0ce65c2dfb5d8d402c4733b8,(010)84357710,1,0ce65c2dfb5d8d402c4733b8
元色酒吧咖啡厅,40.001372,116.512461,北京市朝阳区S50(东五环路)崔各庄乡草场地村280号,f321161742e33c3a581093ae,,1,f321161742e33c3a581093ae
星巴克(望京东路店),40.008624,116.495405,朝阳区望京东园四区6号楼北望金辉大厦一层105单元,,(010)64390586,1,6cda78bcfdfca57088b98821
芳野cafe,39.992618,116.506318,北京市朝阳区酒仙桥路2号751D.PARK北京时尚设计广场B座,1fa09054b8b0d89a3362127b,18600931284,1,1fa09054b8b0d89a3362127b
极北咖啡(798艺术区店),39.992678,116.499823,酒仙桥路2号第2-9幢2层203室,f6d6d52fe65a46fbc4f50d4f,(010)69940217,1,f6d6d52fe65a46fbc4f50d4f
W.kate威克特烘焙艺术咖啡厅,39.990092,116.500391,酒仙桥路4号798艺术区陶瓷一街,6c925250d2ccedd28c1a8913,(010)57626196,1,6c925250d2ccedd28c1a8913
合空间,39.992752,116.503775,北京市朝阳区706北2街2号,e526f15592493e208ab988ff,(010)57626216,1,e526f15592493e208ab988ff
树上咖啡馆,39.990518,116.501822,北京市朝阳区酒仙桥路2号北京798艺术区D区内,da83c5b407463b319ff779d1,(010)57626356,1,da83c5b407463b319ff779d1
文韵时光·咖啡吧,39.992667,116.500105,北京市朝阳区酒仙桥路2号798艺术区红石广场路东侧,d146b3880ab754c7750269ad,(010)59789203,1,d146b3880ab754c7750269ad
途尚咖啡(望京浦项店),40.005359,116.495739,朝阳区宏泰东街浦项中心A座1层,e8c7401b010cfee90869d900,(010)64779908,1,e8c7401b010cfee90869d900
Flatwhite Cafe(798中二街),39.990603,116.505344,北京市朝阳区酒仙桥路4号整东集团院内A9-2座1层110室,497cc115c084a1413210af55,(010)64322798,1,497cc115c084a1413210af55
Jamaicablue Coffeeshop(香江花园店),40.038209,116.529323,朝阳北路香江花园俱乐部一楼,a7d67c8778030dddb9df8f25,(010)84506596,1,a7d67c8778030dddb9df8f25
星巴克(望京东园二店),40.002057,116.498615,朝阳区望京东路保利国际广场T1座1层101单元望京保利国际广场T1一层101单元号,d79cf9947076b5826f3e1b1a,(010)84164687,1,d79cf9947076b5826f3e1b1a
LAS CAFE,39.990521,116.502639,北京市朝阳区北京朝阳区酒仙桥路4号798艺术区D-09-2号(近中心广场),4ce10ce6414f93b8441a325a,(010)57626339,1,4ce10ce6414f93b8441a325a
伴特Vantt,39.990519,116.501616,北京市朝阳区酒仙桥路2号北京798艺术区D区内,e96b442018672a5a83288abd,,1,e96b442018672a5a83288abd
艺术工厂咖啡厅,39.98983,116.502841,酒仙桥路4号七星东街七九八艺术区,,,1,80c8b646f870a07b97ec8419
有时间有艺术,39.991559,116.502642,北京市朝阳区酒仙桥路2号798艺术区3818库停车场(近酒仙桥路),030c25a73a7d73efca213d05,(010)84599265,1,030c25a73a7d73efca213d05
咖啡通(大山子店),39.995773,116.50727,酒仙桥北路7号105幢002室,,18518282106,1,a3d3ebefe60661c73362122b
DOS多思美味(360大厦店),39.989192,116.497971,酒仙桥路6号360大厦B座一层,,17611482082,1,71d8000bc786a4ffb11e36f6
LAS COFFEE,39.990465,116.502594,北京市朝阳区酒仙桥路4号北京798艺术区D-09-2号(近中心广场),4a6c632870b47595095cb381,(010)57626339,1,4a6c632870b47595095cb381
WITH CAFE(798店),39.99065,116.502807,北京市朝阳区酒仙桥路4号798艺术区798中街,c21db9e5e7dfa69a00ff2d51,(010)59789508,1,c21db9e5e7dfa69a00ff2d51
恒基咖啡,40.014217,116.493979,北京市朝阳区望京东路4望京恒电大厦C座1层,b077003b667c813d1df74d9d,"13501296633,13381167204",1,b077003b667c813d1df74d9d
OBELISCO CAFE,40.031415,116.5262,北京朝阳区来广营东路1号,8d96925c96621345c1f1cf77,010-84703828,1,8d96925c96621345c1f1cf77
昆泰酒店大堂吧,40.012429,116.49773,北京朝阳区溪阳东路昆泰酒店1楼,e3822950991c9e2543e192dd,,1,e3822950991c9e2543e192dd
SECRETS FROM AFRICA,40.030186,116.51989,来广营东路8-02号(近京西学校),79cceb36879526901e580061,"(010)84702093,18610401717",1,79cceb36879526901e580061
翘艺空间Ciao Coffee,39.992193,116.502966,北京市朝阳区798东街,,18611096230,1,d36c3f052644cd1028201abd
星巴克(酒仙桥路第四店),39.988885,116.496892,朝阳区酒仙桥路6号360大厦2号楼A座,e35c895281d0f949c2f1cf35,(010)56615192,1,e35c895281d0f949c2f1cf35
白盒子咖啡厅,39.992631,116.503032,酒仙桥路4号798艺术区2号院B07室,4c92ac47da708677cd04ef68,(010)59784806,1,4c92ac47da708677cd04ef68
Beloved Cafe,39.99155,116.500147,大山子798艺术区798西街86设计众创空间内,5a21041c56f8f3b79a00503e,,1,5a21041c56f8f3b79a00503e
蟹岛会议楼-咖啡厅,40.023467,116.553373,蟹岛路1号蟹岛绿色生态度假村内,a55478918828fa1f2afc4823,(010)84324738,1,a55478918828fa1f2afc4823
ACECAFEBEIJING,39.9901,116.503709,北京市朝阳区七星东街,,,1,04db585bf1be9565c7f025f4
BluesEspressobar·精器自选咖啡馆,39.992464,116.498367,朝阳区酒仙桥路2号1-22幢102室(国营第七九七厂),,15801226879,1,4574c5fb87612bb6da131877
CUPPING咖啡厅,39.992633,116.504321,798艺术区706北三街B10内,,,1,35e05874876a6212c9c3dbde
Now coffee,40.016244,116.537515,北京市朝阳区崔各庄镇京旺家园4区13号楼底商,32b9bffda79d7b4ea5da39cd,,1,32b9bffda79d7b4ea5da39cd
圣芙罗尔咖啡,39.991918,116.501567,北京市朝阳区酒仙桥路2号798中二街,05865f2f483560698e7727b7,(010)64371480,1,05865f2f483560698e7727b7
PACIFIC COFFEE,39.995751,116.499894,酒仙桥路9号恒通创新园14幢-107,,,1,01bed8e4c59344a549fd3f77
瑞幸咖啡(宏源大厦),39.990952,116.496979,北京市朝阳区酒仙桥路甲4号,,,1,b95cbd02be6767042cb90887
luckin咖啡,40.006898,116.493428,北京市朝阳区望京街道宏泰东街3号绿地中心b座地下一层luckin咖啡,,,1,468fb11b49dd4da3a10464f9
前田咖啡,39.992804,116.498663,北京市朝阳区酒仙桥路798艺术园区A区04栋大千食一层,3d75c86779df0165e6e96547,(010)56234368,1,3d75c86779df0165e6e96547
星巴克(浦项中心店),40.004928,116.495518,朝阳区望京东园四区13号浦项中心1层,,(010)64714560,1,a634d43ec712af052802e161
路口(酒仙桥北路),39.993213,116.501289,北京市朝阳区北京朝阳区酒仙桥路2号798艺术区B04楼,08fad9e000e684d1f5c59cdc,,1,08fad9e000e684d1f5c59cdc
共事咖啡厅,40.011407,116.498657,北京市朝阳区启阳路中轻大厦B座101,,,1,c9a6fa11351203e7725e80d2
北京咖啡行业协会,39.989873,116.505138,北京市朝阳区酒仙桥路2号北京798艺术区751D·PARK北京时尚设计广场内,9d055ec1a30e17710d0e6b3c,,1,9d055ec1a30e17710d0e6b3c
ar cafe,39.990229,116.50304,朝阳区七星东街与798东街交叉口东南50米,,,1,d4de04f98de46d4e17948e4d
山魈机动,39.988675,116.500388,北京市朝阳区酒仙桥路2号北京798艺术区E区内,cd31da43f9d57e0fa80dd8b5,,1,cd31da43f9d57e0fa80dd8b5
迪利斯咖啡,40.027782,116.509798,北京市朝阳区来广营东路98号,e2c31f7178e7d8072cb96d44,13911717590,1,e2c31f7178e7d8072cb96d44
星巴克(西小口路店),40.052856,116.362964,海淀区西小口路66号中关村东升科技园B区6号楼C座一层101室,3be5ecdfb00184ed02897243,(010)69614662,1,3be5ecdfb00184ed02897243
唐咖啡(北苑店),40.05086,116.420622,北京市朝阳区北苑锦芳路1号院旭辉奥都3号楼101,,"(010)57275833,(010)57251751",1,41864545d26d8b822cb96dd3
雕刻时光咖啡馆(北苑店),40.0466,116.422272,朝阳区北苑路28号院1号楼01层,4c80035c6c01a6e87f29bdd4,(010)84937665,1,4c80035c6c01a6e87f29bdd4
星巴克(龙德广场二店),40.065061,116.422088,昌平区立汤路186号院号龙德广场家乐福2层,,(010)84360768,1,261291f44889795094ec8458
素心居茶语咖啡,40.075061,116.422558,北京市昌平区天通苑北街道太平庄中街天通苑中苑F区3a座D1-012底商,acad79109cfef3561b11d58c,"13581582048,15624973907",1,acad79109cfef3561b11d58c
Cafe Flatwhite (东升店),40.051087,116.364408,海淀区西小口路66号中关村东盛科技园VILLE商业街1号,,(010)62953810,1,fd34f24ba1f0ff91f03cba14
人人阅读馆心阅咖啡(立水桥店),40.056463,116.419491,北京市朝阳区汤立路218号A座201,26f821b6e8d3238c36b06c92,,1,26f821b6e8d3238c36b06c92
晨光書店coffee(天通苑南店),40.073993,116.413196,天通西苑一区2号楼北侧1层晨光书店内,,(010)84823626,1,7192bf320af9a32172455b1e
T COFFEE,40.050832,116.420385,朝阳区旭辉奥都小区3号楼(旭辉奥都小区西门旁),,,1,9e506a68b8c239217f29bd17
野鹿干枝,40.080561,116.417848,天通苑西三区36号三楼,,,1,3ac9fa64176f320308f5eb79
TANG COFFEE,40.050898,116.420666,北京市朝阳区旭辉奥都小区3号楼,,(010)57275833,1,5b07e78f98ae6282df1e5234
BREW TOWN咖啡厅,40.051363,116.420502,来广营旭辉奥都4号楼底商(我爱我家旁边),,,1,f2631803e7909206d8d89100
漫时光,40.052543,116.421643,朝阳区来广营乡锦芳路1号院旭辉奥都7号楼底商,,,1,53a971a6b948dd42213bf2c2
星巴克(清河营南街店),40.052717,116.439276,朝阳区清河营南街7号4号楼北苑华贸城1层126-127号,1bb4abd00740152532f71d34,(010)84931351,1,1bb4abd00740152532f71d34
郁金咖啡,40.056562,116.444528,北京市朝阳区北苑东路水岸南街清河营东路2号院2号楼2层201,,(010)84923637,1,8c4497110a324697c61e51a4
布朗布朗咖啡酒吧,40.053717,116.437929,北京市朝阳区清苑路华贸城华贸天地商业街B1楼,e644a7711bd0cdc63686f4e6,"18810030332,13521635545",1,e644a7711bd0cdc63686f4e6
半朵晴天咖啡馆,40.053696,116.437351,华贸城华贸天地一层C07室(清河营南街7号附近)(近北苑家园),18877662fd90576208ccdd57,"(010)64133929,18612275574",1,18877662fd90576208ccdd57
1101茶与蔬食(中苑总店),40.075842,116.429242,立水桥东一路天通中苑西区55号楼1单元1101室(近天通苑塔楼),,13522144667,1,bce928f7bfe159bb260bd041
鲜果时间(华贸店),40.053616,116.438021,北京市朝阳区建国路华贸天地1层,b2ddb0dbfa956f690869d9dd,13120284930,1,b2ddb0dbfa956f690869d9dd
无界空间不二咖啡店,40.052601,116.439033,北京市朝阳区清河营南街7号院4号楼3层,485a17eaf6596b19ad045780,4006037986,1,485a17eaf6596b19ad045780
快客餐吧,40.045432,116.434592,朝阳区路西200米,,,1,664bed527ca67a3b08f5eb56
星巴克(祥云东方苑店),40.094911,116.542799,顺义区临空经济核心区安泰大街9号院10号楼102号,f9841b0c839d06c1e856fa60,(010)61445901,1,f9841b0c839d06c1e856fa60
北平咖啡(祥云小镇店),40.093793,116.543228,北京市顺义区中粮祥云国际生活区南区6号院4号楼106,f4b12776efdeb188b42655ed,(010)80474289,1,f4b12776efdeb188b42655ed
星巴克(日祥广场店),40.068826,116.5538,顺义区榆阳路日祥广场807号,637df60a7b86676b40afe64d,(010)80464360,1,637df60a7b86676b40afe64d
COSTA COFFEE(中粮祥云店),40.095977,116.542559,北京市顺义区安泰大街9号院8号楼1层,cbbf95dd494615ca38e4a68f,(010)80477161,1,cbbf95dd494615ca38e4a68f
星巴克(欧陆时尚店),40.072826,116.554118,顺义区裕祥路99号一层L105-L106单元,bb1b5b1ecb7168027dc87638,(010)80460100,1,bb1b5b1ecb7168027dc87638
画室咖啡(奥特莱斯店),40.048323,116.505187,顺白路一号地艺术园区A区临甲311号,8787a9d49e71c4ca9f09f7ef,(010)84303916,1,8787a9d49e71c4ca9f09f7ef
Jamaicablue Coffeeshop(优山美地店),40.084031,116.527949,北京市顺义区榆阳路4号优山美地俱乐部1层,5fd4da9f05dacbb12fb96daa,(010)80413301,1,5fd4da9f05dacbb12fb96daa
品生活小馆,40.050033,116.500268,北京市朝阳区顺白路一号地国际艺术园D区,,(010)87529431,1,3c49ec2e5756778c9fec2b3d
星巴克(祥云东方苑二店),40.092822,116.543844,顺义区空港街道安泰大街6号院11号楼107号,,(010)87141613,1,3306feffe4ce44f3c61b759e
北京宝美咖啡店Balmain Gourmet Cafe,40.086657,116.547129,北京市顺义区裕丰路16号院会展誉景8号楼204,,,1,7caf28a95844d643bca8221f
慢生活,40.07335,116.543141,顺义区榆阳路与馨园二街路口西北,fc60a1bc5172277f54bfff12,,1,fc60a1bc5172277f54bfff12
Craft  Been,40.047939,116.504973,北京市朝阳区顺白路,,,1,60824239b46c39fba7da3983
星巴克咖啡(北京顺义丽苑街咖啡店),40.05936,116.56902,顺义区天竺镇丽苑街15号27号楼102-103单元,60faae13ee765a802d473371,(010)84167825,1,60faae13ee765a802d473371
漫咖啡(温榆广场店),40.056042,116.569237,顺义区天竺镇花园四街5号,27d9ed4732e9d26a8936ee91,(010)64568042,1,27d9ed4732e9d26a8936ee91
星巴克(北京首都国际机场1店),40.086654,116.595387,朝阳区首都国际机场1号首都国际机场航站楼一层,a59814f7b98adc6e25d2bb2d,(010)64540916,1,a59814f7b98adc6e25d2bb2d
星巴克(北京首都国际机场八店),40.073548,116.61915,顺义区首都机场路首都国际机场T3航站楼D区2层,e69b6b8d18e5d57af7231021,(010)64531932,1,e69b6b8d18e5d57af7231021
COSTA COFFEE(机场三店),40.06712,116.621175,北京顺义区北京首都国际机场三号航站楼T3D国内隔离区二层,,(010)64530635,1,87e179e2b76e0adfa1d230e8
星巴克(北京首都国际机场2店),40.084898,116.600256,朝阳区首都国际机场2号首都国际机场航站楼一层,47452b8bdd698d0ea7c756cd,(010)64598130,1,47452b8bdd698d0ea7c756cd
STARBUCKS COFFEE(3号航站楼C区),40.062358,116.621859,首都国际机场中心广场东侧3号航站楼C区4F层,a9dde214f002fe7ec9fa5f7b,,1,a9dde214f002fe7ec9fa5f7b
Cafe Boulevard,40.055261,116.597144,北京市朝阳区首都机场南小天竺路国都大饭店1楼,637df60a7b87676b40afe652,(010)64565588-1419,1,637df60a7b87676b40afe652
花漾咖啡(北京首都国际机场3号航站楼C区店),40.062329,116.621025,北京市市顺义区北京首都国际机场北京首都国际机场3号航站楼C区F4,,(010)64558332,1,b57df7b6f5a040bbc3364454
COSTA COFFEE(北京首都国际机场T2航站楼店),40.087175,116.601201,北京市朝阳区机场西路北京首都国际机场2号航站楼24号登机口,,(010)64575563,1,5c319e0240789d82081cc781
COSTA COFFEE(北京首都国际机场三号航站楼E区店),40.08383,116.616873,北京市市顺义区北京首都国际机场北京首都国际机场3号航站楼E区F2,,(010)64530529,1,11dbda758405193db75f1e4d
星巴克(北京首都国际机场7店),40.081594,116.618875,首都机场路北京首都国际机场3号航站楼2层,,(010)64530526,1,29985e62f64e87a70bccdda9
麦咖啡(T3航站楼店),40.060779,116.62151,北京市顺义区首都国际机场三号航站楼5层,cde43691645c58a0e115f957,,1,cde43691645c58a0e115f957
RITAZZA CAFFE(3号航站楼C区),40.066151,116.621023,首都机场路1号T3航站楼C区3层13号登机口旁,,(010)64530840,1,80c7ae75cf42ab8ffb2d61b1
坤丝咖啡(3号航站楼店),40.079639,116.618465,北京市顺义区北京首都国际机场,,,1,4c3ca80f897ffc3e9ff7795c
临空皇冠假日酒店皇冠咖啡厅,40.069918,116.562895,天竺镇府前一街60号临空皇冠假日酒店内,,,1,8cb9b9805e0e92cf28b97c8d
北京明豪戴斯酒店-咖啡厅,40.067985,116.587385,天竺府前一街13号,,,1,540a384e978bb91f2fe67bd7
首都机场国际酒店-咖啡厅,40.084363,116.592106,机场货运路8首都机场国际酒店A座1层,e8c1d87842009e2af7231030,,1,e8c1d87842009e2af7231030
太平洋咖啡(3号航站楼C区),40.067167,116.620291,顺义区首都国际机场中心广场东侧3号航站楼C区3F层,,(010)64530746,1,1d5f6f7bf0b28ec094ec84b3
东航大酒店-咖啡,40.052631,116.595545,小天竺路1号,06d8d4c70b78bc60c51e5179,,1,06d8d4c70b78bc60c51e5179
北京首都国际机场T1航站楼-雅品咖啡厅(1号航站楼),40.087759,116.592939,北京市朝阳区北京首都国际机场,,,1,8a8a3e9f2c978df5e5e96574
麦咖啡(首都机场店),40.086178,116.599985,首都机场路1号2号航站楼1层公共区国内到达,,(010)64576880,1,cd2a2f2dda820d3a7dc876b3
一间咖啡,40.110757,116.424805,北京市昌平区北七家镇名佳花园3区2号楼111室,1acd7c2ca875e82126d2bbc9,13601376471,1,1acd7c2ca875e82126d2bbc9
温都水城国际大酒店-咖啡厅,40.107172,116.378524,北京市昌平区北七家镇郑各庄村温都水城国际大酒店,65fcbee1606523266018091b,(010)81788888,1,65fcbee1606523266018091b
Zoo Coffee,40.108262,116.377919,北京市昌平区宏福大道温都水城广场一层,,13717701311,1,d153a9e43b412772283a9fce
水城蓝湾,40.113483,116.377643,北京市昌平区北七家水城广场4层,,15001077855,1,78f52168aed02967e9f85300
两岸合一杯,40.10869,116.412867,北京市昌平区王府街10号,1cff8e3b3b4f3c850482c291,17710938667,1,1cff8e3b3b4f3c850482c291
Kerry Cafe,40.108257,116.377918,北京市昌平区上承路派尔特国际中心一层(温都水城),1d929e0f3976d28a0ab93a5b,"(010)81785828,13585810661",1,1d929e0f3976d28a0ab93a5b
画廊咖啡厅(未来科技城店),40.124159,116.453199,北京昌平区北七家羊各庄新村2号商业楼和颐酒店一楼,08cc5ea692faedbe932ca3b3,(010)56820012,1,08cc5ea692faedbe932ca3b3
咖啡无用,40.106832,116.545205,北京市顺义区后沙峪裕庆路20号院5-7,d8ea94285daa98b429fc4837,13811923292,1,d8ea94285daa98b429fc4837
RadianceCafe,40.107649,116.522646,北京市顺义区后沙峪罗各庄村罗马湖左堤路7号,c9c778d8dde9ba8e843304ff,(010)69458157,1,c9c778d8dde9ba8e843304ff
瑞氏东方咖啡馆,40.107598,116.522498,北京市顺义区空港街道后沙峪镇罗马湖左堤路7号,84bfaaa541b452daa8059d87,(010)69458157,1,84bfaaa541b452daa8059d87
RADIANCE kitchen,40.10765,116.522831,后沙峪罗各庄村罗马湖左堤路7号,,,1,6fd896991cb9e1ba4f3a59e1
RADIANCE咖啡,40.107483,116.52279,罗马湖左堤路07,a6a8e19d728a921c95ca07f9,(010)69458157,1,a6a8e19d728a921c95ca07f9
承载时光,40.111205,116.520932,北京市顺义区后沙峪706乡道罗马湖公园北50米,302ee9548962e01977e5b678,(010)61270888,1,302ee9548962e01977e5b678
屋顶咖啡串吧,40.10765,116.522831,北京市顺义区罗马湖左堤路,,,1,a470aa3303653c0108f5eb62
星巴克(国门智慧城店),40.124358,116.565555,顺义区安平街3号国门智慧城一层105单元,,(010)80497534,1,cc5685dadc1c0f122e4733fc
太平洋咖啡(航港大厦店),40.120474,116.615255,顺义区航港国际大厦1层116号,669775d02b176542fc0eb0ef,(010)69450425,1,669775d02b176542fc0eb0ef
主爱咖啡,40.121263,116.617961,北京市顺义区金关北二街3号院旭辉空港中心A座103-1号,2201f260953fc77b9de32149,"17778074832,(010)89435953",1,2201f260953fc77b9de32149
瑞幸咖啡,40.120293,116.61817,南法信镇顺平路旭辉空港中心D座底商,,,1,bf57966c12653625b120a864
艾瑟国际咖啡体验中心,40.108874,116.564797,北京市顺义区火沙路方糖9单元325室,,"(010)80424311,(010)85913126",1,27f1daaa416563c5c03644ae
